{"type":"FeatureCollection","features":[{"type":"Feature","id":"way/27527310","properties":{"osm_id":"27527310","osm_type":"way","name":"楠梓溪","feature_category":"waterway_line","waterway_type":"stream","source_tags":{"name":"楠梓溪","waterway":"stream"}},"geometry":{"type":"LineString","coordinates":[[120.3443159,22.7256752],[120.3439673,22.7255944],[120.3438811,22.725484],[120.3439242,22.7252454],[120.3443841,22.7237121],[120.3444655,22.723394],[120.3443601,22.7231775],[120.3377876,22.7213481],[120.3374571,22.7213084],[120.3371793,22.7214542],[120.3366667,22.7219447],[120.3346978,22.7233763],[120.3336486,22.7241709]]}},{"type":"Feature","id":"way/104822983","properties":{"osm_id":"104822983","osm_type":"way","name":"角宿支線","feature_category":"waterway_line","waterway_type":"canal","source_tags":{"name":"角宿支線","source:name":"NLSC","waterway":"canal"}},"geometry":{"type":"LineString","coordinates":[[120.3417912,22.7591089],[120.3416362,22.7588115],[120.3416052,22.7586037],[120.3416587,22.7584779],[120.3418341,22.7583972],[120.3418833,22.7577298],[120.341782,22.757543],[120.3417099,22.75741],[120.3415853,22.7572051],[120.3414645,22.7571292],[120.3413306,22.7572611],[120.3409621,22.75738],[120.3408266,22.7572751],[120.3408031,22.7569853],[120.3407454,22.7566565],[120.3405828,22.7564106],[120.3398079,22.755646],[120.339163,22.7551663],[120.3385775,22.7549892],[120.3382263,22.7549816],[120.3378838,22.7550471],[120.3375363,22.7554578],[120.3372146,22.7556374],[120.3368475,22.7557532],[120.3365949,22.7556513],[120.3363723,22.7554083],[120.3363337,22.7551844],[120.3363168,22.7545831],[120.3363676,22.7540756],[120.336393,22.7536696],[120.3362237,22.7534041],[120.3360967,22.7528732],[120.3359104,22.7525999],[120.3355463,22.752553],[120.3349959,22.7527303],[120.3347414,22.7527734],[120.3345068,22.7527294],[120.3343294,22.7525777],[120.3338467,22.7524471],[120.3332251,22.7523564],[120.3324621,22.7522431],[120.332024,22.7522017],[120.3317192,22.7523422]]}},{"type":"Feature","id":"way/118104838","properties":{"osm_id":"118104838","osm_type":"way","name":"曹公新圳","feature_category":"waterway_line","waterway_type":"drain","source_tags":{"name":"曹公新圳","waterway":"drain"}},"geometry":{"type":"LineString","coordinates":[[120.3279236,22.7043598],[120.3277481,22.704459],[120.3276711,22.7045025],[120.3270462,22.7046543],[120.326857,22.7047003],[120.3247253,22.7053545],[120.324467,22.7054918]]}},{"type":"Feature","id":"way/125935065","properties":{"osm_id":"125935065","osm_type":"way","name":null,"feature_category":"waterway_line","waterway_type":"ditch","source_tags":{"waterway":"ditch"}},"geometry":{"type":"LineString","coordinates":[[120.2736771,22.7245233],[120.2731505,22.7241722],[120.272966,22.7241934],[120.2727047,22.7243848],[120.271821,22.7244699],[120.2714751,22.7244841],[120.2710525,22.7243281],[120.2707989,22.7240659],[120.2703608,22.7234066],[120.269869,22.7230522],[120.2689237,22.7228679],[120.2679247,22.7227049],[120.2678017,22.7223008],[120.2679324,22.721755],[120.2681014,22.7211312],[120.2682474,22.7208973],[120.2687623,22.7203231],[120.2692388,22.7199403],[120.2695923,22.7192118],[120.2695693,22.7184942],[120.2686624,22.7162299]]}},{"type":"Feature","id":"way/197024802","properties":{"osm_id":"197024802","osm_type":"way","name":null,"feature_category":"waterway_line","waterway_type":"stream","source_tags":{"waterway":"stream"}},"geometry":{"type":"LineString","coordinates":[[120.2830949,22.7356988],[120.2831065,22.7355164],[120.2830425,22.7354466],[120.2830135,22.7353662],[120.2830251,22.7352857],[120.2829785,22.7352213],[120.2829611,22.7351032],[120.2829436,22.7349852],[120.2830135,22.734835],[120.2829891,22.7347845],[120.2830296,22.7346504],[120.2830082,22.7344944],[120.2829939,22.7342922],[120.2830082,22.7341955],[120.2830463,22.7341317],[120.2830392,22.7340196],[120.2830701,22.7339097],[120.2830821,22.7337911],[120.2830701,22.733668],[120.2830487,22.7335625],[120.283063,22.733479],[120.283113,22.7334109],[120.2831178,22.7333119],[120.283063,22.7332526],[120.2829296,22.7332306],[120.2827723,22.7332174],[120.2821503,22.7331977],[120.2820383,22.7332834],[120.2818572,22.7332592]]}},{"type":"Feature","id":"way/197024809","properties":{"osm_id":"197024809","osm_type":"way","name":null,"feature_category":"waterway_line","waterway_type":"ditch","source_tags":{"waterway":"ditch"}},"geometry":{"type":"LineString","coordinates":[[120.2870462,22.735898],[120.2857808,22.736221]]}},{"type":"Feature","id":"way/205888647","properties":{"osm_id":"205888647","osm_type":"way","name":"橋頭第一排水溝","feature_category":"waterway_line","waterway_type":"drain","source_tags":{"name":"橋頭第一排水溝","waterway":"drain"}},"geometry":{"type":"LineString","coordinates":[[120.2828457,22.7362857],[120.2777144,22.7377389],[120.2763711,22.7337834],[120.2736228,22.7334537],[120.2697184,22.7329308],[120.2670011,22.7316717],[120.2668168,22.7315863]]}},{"type":"Feature","id":"way/207551796","properties":{"osm_id":"207551796","osm_type":"way","name":"廣昌大排","feature_category":"waterway_line","waterway_type":"ditch","source_tags":{"name":"廣昌大排","waterway":"ditch"}},"geometry":{"type":"LineString","coordinates":[[120.2864032,22.7010709],[120.2863691,22.7020202],[120.2863075,22.7033731],[120.2862221,22.7038398],[120.2860511,22.7042687],[120.2857913,22.704603],[120.2855008,22.7051391],[120.2850803,22.7059653],[120.2848957,22.7061262],[120.2848034,22.7064573],[120.2845265,22.7068389],[120.2839898,22.7074191],[120.2837539,22.7079016],[120.2830964,22.7091774],[120.2797967,22.7150789]]}},{"type":"Feature","id":"way/216735443","properties":{"osm_id":"216735443","osm_type":"way","name":"楠梓溪","feature_category":"waterway_line","waterway_type":"stream","source_tags":{"name":"楠梓溪","waterway":"stream"}},"geometry":{"type":"LineString","coordinates":[[120.3263847,22.7292134],[120.3260808,22.7295567],[120.3249583,22.7301816],[120.3244954,22.7304823],[120.3241388,22.7307744],[120.3231289,22.7323823],[120.3222794,22.733973],[120.3218144,22.7346206],[120.3216138,22.7347804],[120.3213445,22.73489],[120.3209138,22.734897],[120.3198525,22.7348829],[120.3195573,22.7349384],[120.3192502,22.7350583],[120.3189155,22.7351817],[120.3188013,22.7353488],[120.3184587,22.7355812],[120.317809,22.7359553],[120.3169401,22.7365459],[120.3163641,22.7368641],[120.3159116,22.7369782],[120.315277,22.7369691],[120.3148864,22.7368191],[120.3142029,22.7363568],[120.3134413,22.7355223],[120.3124063,22.7343396],[120.3119116,22.733397],[120.3115992,22.7325144],[120.3115796,22.731914],[120.3116708,22.7314457],[120.3117814,22.7310915],[120.3118986,22.7309114],[120.3119311,22.7306652],[120.3118725,22.7304251],[120.3117233,22.7302292],[120.311658,22.7301268]]}},{"type":"Feature","id":"way/216735444","properties":{"osm_id":"216735444","osm_type":"way","name":"楠梓溪","feature_category":"waterway_line","waterway_type":"stream","source_tags":{"layer":"-1","name":"楠梓溪","tunnel":"yes","waterway":"stream"}},"geometry":{"type":"LineString","coordinates":[[120.3297938,22.7275045],[120.3294621,22.7276073],[120.3287784,22.7277544],[120.3274018,22.7280598],[120.3270738,22.7281729],[120.3268101,22.7284585],[120.3263847,22.7292134]]}},{"type":"Feature","id":"way/216970382","properties":{"osm_id":"216970382","osm_type":"way","name":"典寶溪","feature_category":"waterway_line","waterway_type":"river","source_tags":{"name":"典寶溪","name:en":"Dianbao River","name:nan":"Tián-pó-khe","name:nan-Hant":"典寶溪","name:nan-Latn-pehoeji":"Tián-pó-khe","name:nan-Latn-tailo":"Tián-pó-khe","name:zh":"典寶溪","waterway":"river"}},"geometry":{"type":"LineString","coordinates":[[120.3358026,22.747598],[120.3352983,22.74764],[120.3349292,22.7475583],[120.3343337,22.7472718],[120.334191,22.7470744],[120.3340959,22.7466753],[120.3340388,22.7463507],[120.3336583,22.7460656],[120.3333397,22.7458638],[120.332983,22.7456752],[120.332674,22.7456191],[120.3325026,22.7456445],[120.3317606,22.7459208],[120.3308854,22.7463068],[120.3300198,22.746763],[120.3292683,22.7471929],[120.3285596,22.7474824],[120.3272479,22.7478842],[120.326,22.7483557],[120.3251031,22.7488666],[120.3249489,22.7493062],[120.3249204,22.7496786],[120.3250961,22.7501069],[120.3254478,22.7506456],[120.325481,22.7506943],[120.3256775,22.7512479],[120.3255753,22.7516259],[120.3254281,22.7518602],[120.3247962,22.7521207],[120.324356,22.7522336],[120.3241673,22.7525982],[120.3240091,22.7527571],[120.3239179,22.7530366],[120.3239154,22.7534994],[120.3239907,22.7547733],[120.3241856,22.755519],[120.3242247,22.7559753],[120.3245633,22.7579099],[120.3245462,22.7583093],[120.3244392,22.7585881],[120.3242426,22.7587618],[120.3241281,22.7588224],[120.3239109,22.7589197],[120.3235709,22.7589239],[120.3232219,22.7588217],[120.3227175,22.7585904],[120.3222414,22.7583227],[120.3216817,22.7580307],[120.3211334,22.7577826],[120.3202075,22.7574715],[120.3198272,22.757412],[120.3191525,22.7575443],[120.3186286,22.7578157],[120.3183713,22.7580471],[120.3178815,22.7584518],[120.317571,22.7587519],[120.3172011,22.7591474],[120.3167853,22.7598835],[120.3161679,22.760975],[120.3159383,22.7613505],[120.3155882,22.761707],[120.3152104,22.7619729],[120.3146922,22.7621463],[120.3143503,22.7621817],[120.3137851,22.762132],[120.3133724,22.762223],[120.3127623,22.7625126],[120.3106092,22.7636459],[120.3101337,22.7639438],[120.3098646,22.7643243],[120.3096134,22.7648703],[120.3091469,22.7662187],[120.3089136,22.7666571],[120.3077505,22.7674408],[120.3077473,22.767443],[120.3077408,22.7674436],[120.3068412,22.7675257],[120.3059889,22.7675754],[120.30502,22.767443],[120.3031001,22.7670625],[120.3023824,22.766897],[120.3013597,22.7667647],[120.300829,22.7668149],[120.3006599,22.7668309],[120.2995205,22.7669632],[120.2985393,22.767082],[120.2981313,22.7671314],[120.2969816,22.7673272],[120.2963716,22.7674761],[120.2959768,22.767625],[120.2953985,22.7679917],[120.2951156,22.768171],[120.2932047,22.7691768],[120.2920639,22.7696936],[120.2914463,22.7700405],[120.2911412,22.7701693],[120.2907444,22.7702011],[120.2897035,22.769929],[120.289019,22.7697352],[120.2884408,22.7697096],[120.2879654,22.7699743],[120.287436,22.7704376],[120.2867845,22.7709268],[120.286521,22.7710332],[120.2863236,22.7709753],[120.2861083,22.7708264],[120.2857442,22.7696956],[120.2857232,22.7692086],[120.2854945,22.768552],[120.2851054,22.7683373],[120.284689,22.7683437],[120.2840954,22.7686374],[120.2833687,22.7690687],[120.2830278,22.769194],[120.2826331,22.7691314],[120.2824498,22.7688843],[120.2824857,22.7684979],[120.2824396,22.7677134],[120.2822563,22.7669841],[120.2820266,22.766507],[120.2817526,22.7663246],[120.2810886,22.7660658],[120.2802928,22.7659748],[120.2798083,22.7660564],[120.2794747,22.7664524],[120.2794201,22.7669309],[120.2793432,22.7673706],[120.2792317,22.7677263],[120.2790868,22.767894],[120.2787338,22.7680143],[120.2778798,22.7679897],[120.2774129,22.7680229],[120.2769758,22.7681285],[120.2763397,22.7682378],[120.2759007,22.7680654],[120.2754482,22.7675998],[120.2749997,22.767289],[120.2747343,22.7672117],[120.274484,22.7669993],[120.2743048,22.7665525],[120.2743751,22.7661834],[120.2745568,22.7658899],[120.2746638,22.7656149],[120.2747201,22.7653847],[120.2747312,22.7651376],[120.2746706,22.7648218],[120.2745239,22.764436],[120.2741784,22.7637534],[120.2741181,22.7632651],[120.2741914,22.762944],[120.2743719,22.7625794],[120.2747504,22.7621911],[120.2751812,22.7617524],[120.2754236,22.7615394],[120.2756133,22.7611609],[120.2757455,22.7606378],[120.2758204,22.760368],[120.2760565,22.7586117],[120.2759546,22.7561581],[120.2758152,22.7557327],[120.2753484,22.7552232],[120.2741093,22.7539765],[120.2737274,22.7533164],[120.27368,22.7528462],[120.2737284,22.7521907],[120.2738893,22.7511963],[120.273487,22.7505186],[120.2721298,22.7495687],[120.2718884,22.7488218],[120.2719045,22.7471249],[120.2712285,22.744958],[120.2696729,22.7425042],[120.2694046,22.7421183],[120.2691793,22.7406835],[120.2690399,22.7402284],[120.2654564,22.7374132],[120.2643675,22.7367948],[120.2640188,22.7364633],[120.2638578,22.7361021],[120.2638632,22.7356569],[120.2642065,22.7350681],[120.2663362,22.7320055],[120.2664529,22.7315318],[120.2664435,22.730442],[120.2660036,22.7298977],[120.2641475,22.728453],[120.262742,22.72684],[120.260961,22.7245243],[120.2606351,22.7241102],[120.2599954,22.7232972],[120.259341,22.7223967],[120.2580857,22.7207242],[120.2569592,22.7195268],[120.2556963,22.718549]]}},{"type":"Feature","id":"way/216970384","properties":{"osm_id":"216970384","osm_type":"way","name":"牛食坑","feature_category":"waterway_line","waterway_type":"river","source_tags":{"alt_name":"牛食坑支線","layer":"-1","name":"牛食坑","waterway":"river"}},"geometry":{"type":"LineString","coordinates":[[120.3326874,22.7455152],[120.332674,22.7456191]]}},{"type":"Feature","id":"way/217140254","properties":{"osm_id":"217140254","osm_type":"way","name":"鳳山厝支線","feature_category":"waterway_line","waterway_type":"river","source_tags":{"layer":"-1","name":"鳳山厝支線","waterway":"river"}},"geometry":{"type":"LineString","coordinates":[[120.334328,22.7464844],[120.3340388,22.7463507]]}},{"type":"Feature","id":"way/289545609","properties":{"osm_id":"289545609","osm_type":"way","name":null,"feature_category":"waterway_line","waterway_type":"stream","source_tags":{"waterway":"stream"}},"geometry":{"type":"LineString","coordinates":[[120.2932385,22.7047256],[120.2934788,22.704754],[120.2936328,22.7047995],[120.2937376,22.7048506],[120.2938362,22.7048222],[120.2939033,22.7048712],[120.2939471,22.7049302],[120.2942367,22.7049586],[120.2944709,22.7050098],[120.2946866,22.7050837],[120.2947728,22.705078],[120.2948529,22.7050553],[120.2949762,22.7049643],[120.2950686,22.704862],[120.2953582,22.7045664],[120.2957742,22.7040718],[120.2958943,22.7040008],[120.2959621,22.7040008],[120.2960761,22.7040832],[120.2961223,22.704086],[120.2961994,22.7041003],[120.2962825,22.7040576],[120.2963103,22.7039724],[120.2962878,22.7038419]]}},{"type":"Feature","id":"way/289753911","properties":{"osm_id":"289753911","osm_type":"way","name":null,"feature_category":"waterway_line","waterway_type":"ditch","source_tags":{"waterway":"ditch"}},"geometry":{"type":"LineString","coordinates":[[120.3080854,22.7298713],[120.3080956,22.729552],[120.3088843,22.7283859]]}},{"type":"Feature","id":"way/294715683","properties":{"osm_id":"294715683","osm_type":"way","name":"鳳山厝支線","feature_category":"waterway_line","waterway_type":"river","source_tags":{"layer":"-1","name":"鳳山厝支線","tunnel":"yes","waterway":"river"}},"geometry":{"type":"LineString","coordinates":[[120.3350908,22.7465816],[120.334328,22.7464844]]}},{"type":"Feature","id":"way/294715684","properties":{"osm_id":"294715684","osm_type":"way","name":"鳳山厝支線","feature_category":"waterway_line","waterway_type":"river","source_tags":{"name":"鳳山厝支線","waterway":"river"}},"geometry":{"type":"LineString","coordinates":[[120.3486565,22.7476827],[120.3482276,22.7474849],[120.3477012,22.7471164],[120.3470969,22.7467568],[120.3464243,22.7465141],[120.3460441,22.7464242],[120.3454788,22.7463613],[120.3446405,22.7461185],[120.3442798,22.7458578],[120.3439581,22.7458039],[120.3438412,22.7455432],[120.3438996,22.7450488],[120.3441433,22.7446173],[120.3441141,22.7443656],[120.3439802,22.7441883],[120.3438692,22.7439378],[120.3437112,22.7438285],[120.3435198,22.7438117],[120.3434165,22.7438397],[120.3433374,22.7439518],[120.3432129,22.7441452],[120.3431156,22.74419],[120.342906,22.74412],[120.3426386,22.7439827],[120.3422982,22.7439378],[120.342049,22.7439742],[120.3410706,22.7440499],[120.3406771,22.7440807],[120.3403337,22.7441326],[120.3393993,22.7441858],[120.3390942,22.744203],[120.3385556,22.7442801],[120.3383998,22.7443383],[120.3381892,22.7448615],[120.3380044,22.7451429],[120.3373942,22.7456541],[120.3370203,22.745773],[120.3360577,22.7451904],[120.3358128,22.7451746],[120.3357745,22.7452702],[120.3358617,22.7459153],[120.3358619,22.7461971],[120.335784,22.7463482],[120.335523,22.746459],[120.3350908,22.7465816]]}},{"type":"Feature","id":"way/294715697","properties":{"osm_id":"294715697","osm_type":"way","name":"角宿支線","feature_category":"waterway_line","waterway_type":"canal","source_tags":{"layer":"-1","name":"角宿支線","source:name":"NLSC","waterway":"canal"}},"geometry":{"type":"LineString","coordinates":[[120.3309623,22.7529139],[120.3309233,22.7529434],[120.3305165,22.7536553],[120.3304791,22.7541382],[120.3304661,22.7545285],[120.3304519,22.754587]]}},{"type":"Feature","id":"way/294715698","properties":{"osm_id":"294715698","osm_type":"way","name":"角宿支線","feature_category":"waterway_line","waterway_type":"canal","source_tags":{"layer":"-1","name":"角宿支線","source:name":"NLSC","tunnel":"yes","waterway":"canal"}},"geometry":{"type":"LineString","coordinates":[[120.3317192,22.7523422],[120.3309623,22.7529139]]}},{"type":"Feature","id":"way/294715699","properties":{"osm_id":"294715699","osm_type":"way","name":"角宿支線","feature_category":"waterway_line","waterway_type":"canal","source_tags":{"layer":"-1","name":"角宿支線","source:name":"NLSC","tunnel":"yes","waterway":"canal"}},"geometry":{"type":"LineString","coordinates":[[120.3304519,22.754587],[120.3303391,22.7550516]]}},{"type":"Feature","id":"way/294715700","properties":{"osm_id":"294715700","osm_type":"way","name":"角宿支線","feature_category":"waterway_line","waterway_type":"drain","source_tags":{"name":"角宿支線","source:name":"NLSC","waterway":"drain"}},"geometry":{"type":"LineString","coordinates":[[120.3303391,22.7550516],[120.3301867,22.7553952],[120.3299942,22.7557516],[120.329692,22.7559658],[120.3291904,22.7560555],[120.3291707,22.7562462],[120.3290074,22.7564979],[120.328688,22.7568354],[120.3283917,22.7569177],[120.328145,22.7569942],[120.3279937,22.7568709],[120.3278837,22.7565976],[120.3276551,22.7557856],[120.3274245,22.7553498],[120.3271416,22.7552616],[120.3262309,22.7554663],[120.3262411,22.7558259],[120.3260379,22.7561682],[120.3257054,22.7562834],[120.3252281,22.7562345],[120.3248624,22.7560651],[120.3247686,22.7559374],[120.3246384,22.7558377],[120.3243451,22.755839],[120.3242247,22.7559753]]}},{"type":"Feature","id":"way/294896766","properties":{"osm_id":"294896766","osm_type":"way","name":"牛食坑","feature_category":"waterway_line","waterway_type":"river","source_tags":{"alt_name":"牛食坑支線","name":"牛食坑","waterway":"river"}},"geometry":{"type":"LineString","coordinates":[[120.3620065,22.7433232],[120.3616799,22.7434611],[120.3615705,22.7434443],[120.3614551,22.7433266],[120.3612667,22.7430744],[120.3609993,22.7427101],[120.3605799,22.7424186],[120.3604766,22.7423402],[120.3603429,22.7423458],[120.3602639,22.7423738],[120.3601971,22.7425419],[120.3600937,22.7427493],[120.3596805,22.743293],[120.3595529,22.7433939],[120.3594374,22.7433603],[120.3593645,22.7432313],[120.3593402,22.7428726],[120.3592915,22.7423962],[120.3592065,22.7423458],[120.3590545,22.7423458],[120.3586838,22.7424803],[120.3579788,22.7426204],[120.3578937,22.7422729],[120.357833,22.7418357],[120.3578269,22.7414602],[120.357833,22.7412528],[120.357602,22.7410847],[120.3572678,22.7412696],[120.3569274,22.7415331],[120.3568302,22.7416227],[120.3566844,22.741662],[120.3566053,22.7416564],[120.3565506,22.7415443],[120.3565081,22.741421],[120.3563197,22.7412808],[120.356107,22.7411351],[120.3557971,22.7410398],[120.3554446,22.7409502],[120.3552744,22.7409502],[120.3551042,22.7410062],[120.3549098,22.7411407],[120.3547396,22.7411407],[120.3545998,22.7410623],[120.3544843,22.7408605],[120.3542899,22.7405466],[120.3541501,22.7403729],[120.3541319,22.7402551],[120.3542656,22.7401206],[120.3547031,22.7397283],[120.354849,22.7395209],[120.3548429,22.739235],[120.3547761,22.7390277],[120.3546667,22.7388819],[120.3544418,22.738725],[120.354223,22.7386521],[120.3536498,22.7384694],[120.3534226,22.7383674],[120.3533114,22.7383046],[120.3530015,22.7375367],[120.3528435,22.7374246],[120.3526611,22.7373966],[120.3523026,22.7372845],[120.3518832,22.7370155],[120.3516341,22.7368081],[120.3514639,22.7367072],[120.3511783,22.7366848],[120.3510567,22.7367184],[120.3510203,22.7368137],[120.3512755,22.7377553],[120.3512269,22.7379459],[120.351075,22.7381309],[120.3508926,22.7381645],[120.3507285,22.7381196],[120.3505219,22.7379739],[120.3502727,22.7377609],[120.3498534,22.7375367],[120.3496832,22.7374863],[120.3495313,22.7374695],[120.3479026,22.7377385],[120.3477324,22.7377385],[120.3472584,22.7377217],[120.3470517,22.7377441],[120.3467236,22.7379235],[120.3463589,22.7381196],[120.3455263,22.7382037],[120.3444749,22.7382093],[120.3434479,22.7380916],[120.3429374,22.7380916],[120.3428097,22.7381365],[120.3427307,22.7382654],[120.3425788,22.7383831],[120.3424147,22.7383943],[120.342202,22.738327],[120.3419832,22.7382766],[120.3409744,22.738484],[120.340397,22.7386409],[120.3400992,22.7387586],[120.3398318,22.7389268],[120.3396921,22.7389436],[120.3394247,22.7389436],[120.3391512,22.7388987],[120.338981,22.7388203],[120.3387318,22.7388091],[120.3374981,22.7391678],[120.3373705,22.7392463],[120.3373705,22.739364],[120.3374131,22.7394873],[120.3374667,22.7395932],[120.3377371,22.7398034],[120.3378739,22.7399407],[120.3373421,22.7402379],[120.3369675,22.7404969],[120.3349173,22.7423632],[120.3341819,22.7428284],[120.3339631,22.7431927],[120.3328753,22.7448461],[120.3327318,22.7453636]]}},{"type":"Feature","id":"way/294896768","properties":{"osm_id":"294896768","osm_type":"way","name":"牛食坑","feature_category":"waterway_line","waterway_type":"river","source_tags":{"alt_name":"牛食坑支線","layer":"-1","name":"牛食坑","tunnel":"yes","waterway":"river"}},"geometry":{"type":"LineString","coordinates":[[120.3327318,22.7453636],[120.3326874,22.7455152]]}},{"type":"Feature","id":"way/296122581","properties":{"osm_id":"296122581","osm_type":"way","name":null,"feature_category":"waterway_line","waterway_type":"drain","source_tags":{"waterway":"drain"}},"geometry":{"type":"LineString","coordinates":[[120.2988283,22.7512359],[120.2929596,22.7471047],[120.2911193,22.7449441],[120.2903934,22.7442636],[120.2899074,22.7440035],[120.2874837,22.742908],[120.2864698,22.7399091],[120.28434,22.740479],[120.284214,22.7404292],[120.2828457,22.7362857]]}},{"type":"Feature","id":"way/714995655","properties":{"osm_id":"714995655","osm_type":"way","name":"楠梓溪","feature_category":"waterway_line","waterway_type":"stream","source_tags":{"layer":"-1","name":"楠梓溪","tunnel":"culvert","waterway":"stream"}},"geometry":{"type":"LineString","coordinates":[[120.3336486,22.7241709],[120.3328775,22.7247549]]}},{"type":"Feature","id":"way/714995656","properties":{"osm_id":"714995656","osm_type":"way","name":"楠梓溪","feature_category":"waterway_line","waterway_type":"stream","source_tags":{"layer":"-1","name":"楠梓溪","waterway":"stream"}},"geometry":{"type":"LineString","coordinates":[[120.3328775,22.7247549],[120.3328315,22.7248643],[120.3328303,22.7249161]]}},{"type":"Feature","id":"way/714995657","properties":{"osm_id":"714995657","osm_type":"way","name":"楠梓溪","feature_category":"waterway_line","waterway_type":"stream","source_tags":{"layer":"-1","name":"楠梓溪","waterway":"stream"}},"geometry":{"type":"LineString","coordinates":[[120.3328216,22.7252948],[120.3328192,22.7253988],[120.3327732,22.7255713],[120.3317216,22.7269428],[120.3316021,22.7270983],[120.3315039,22.7271747],[120.3313353,22.7272171],[120.3305646,22.7273608]]}},{"type":"Feature","id":"way/714995658","properties":{"osm_id":"714995658","osm_type":"way","name":"楠梓溪","feature_category":"waterway_line","waterway_type":"stream","source_tags":{"layer":"-1","name":"楠梓溪","tunnel":"culvert","waterway":"stream"}},"geometry":{"type":"LineString","coordinates":[[120.3328303,22.7249161],[120.3328216,22.7252948]]}},{"type":"Feature","id":"way/714996152","properties":{"osm_id":"714996152","osm_type":"way","name":"楠梓溪","feature_category":"waterway_line","waterway_type":"stream","source_tags":{"layer":"-1","name":"楠梓溪","waterway":"stream"}},"geometry":{"type":"LineString","coordinates":[[120.3305646,22.7273608],[120.3303496,22.7274009],[120.3297938,22.7275045]]}},{"type":"Feature","id":"way/714996153","properties":{"osm_id":"714996153","osm_type":"way","name":"典寶溪","feature_category":"waterway_line","waterway_type":"river","source_tags":{"name":"典寶溪","name:en":"Dianbao River","name:nan":"Tián-pó-khe","name:nan-Hant":"典寶溪","name:nan-Latn-pehoeji":"Tián-pó-khe","name:nan-Latn-tailo":"Tián-pó-khe","name:zh":"典寶溪","source":"bing","waterway":"river"}},"geometry":{"type":"LineString","coordinates":[[120.3595538,22.7580026],[120.3594192,22.7580505],[120.3591528,22.7579812],[120.3585479,22.7578846],[120.3579381,22.7577063],[120.3571908,22.7576379],[120.3565657,22.7578821],[120.3561663,22.7579975],[120.3557504,22.7578826],[120.3551867,22.7578565],[120.3547555,22.7579004],[120.3542249,22.7578617],[120.3539401,22.7576933],[120.3538758,22.757424],[120.3543366,22.7568703],[120.3543785,22.7564969],[120.3539596,22.7561878],[120.3534569,22.7562651],[120.3528543,22.7562975],[120.3521651,22.7561798],[120.3520895,22.7560019],[120.3520896,22.7554866],[120.3522142,22.754926],[120.3520327,22.7545268],[120.3517255,22.7542178],[120.35079,22.7541276],[120.3503152,22.7538572],[120.3502733,22.7532134],[120.3502733,22.7527627],[120.3499522,22.7523893],[120.349651,22.7518811],[120.3494509,22.7514823],[120.3493674,22.7510861],[120.3488711,22.7509114],[120.3486396,22.751063],[120.3483604,22.751475],[120.3480532,22.751578],[120.3478298,22.7519515],[120.3472992,22.7521961],[120.3465033,22.752943],[120.3460565,22.7539602],[120.3457493,22.7548101],[120.3452187,22.7554796],[120.3445653,22.7558529],[120.3440459,22.7559304],[120.3434733,22.7556084],[120.343208,22.7552092],[120.3432638,22.7544495],[120.3434129,22.7540686],[120.3433476,22.7538315],[120.3430476,22.7533454],[120.3426774,22.7533937],[120.3425098,22.7537156],[120.3420842,22.7541552],[120.3418535,22.7540375],[120.3411274,22.7538958],[120.3404572,22.7535868],[120.3400104,22.7529945],[120.339759,22.7525696],[120.339787,22.7521189],[120.3400662,22.7516296],[120.3404293,22.7512561],[120.3408901,22.7511274],[120.3411554,22.7509728],[120.341309,22.7505093],[120.3416999,22.7495306],[120.341658,22.7490413],[120.3413927,22.7486808],[120.341105,22.7480874],[120.3406426,22.7471812],[120.3403785,22.7469792],[120.3401812,22.7469727],[120.3398413,22.7469452],[120.3395414,22.7468857],[120.3393018,22.7469054],[120.3390693,22.7469808],[120.3388274,22.7470399],[120.338482,22.7471686],[120.3382742,22.7473336],[120.3380831,22.7475526],[120.337919,22.7475838],[120.3378259,22.7474929],[120.3374391,22.7474194],[120.3367422,22.7474003],[120.3363554,22.7475093],[120.3358026,22.747598]]}},{"type":"Feature","id":"way/762580998","properties":{"osm_id":"762580998","osm_type":"way","name":"後勁溪","feature_category":"waterway_line","waterway_type":"river","source_tags":{"name":"後勁溪","name:en":"Houjing River","name:zh":"後勁溪","waterway":"river"}},"geometry":{"type":"LineString","coordinates":[[120.3424496,22.6914901],[120.3423287,22.6916447],[120.3422898,22.6917899],[120.3415587,22.6928617],[120.3406458,22.6940645],[120.3397547,22.6948144],[120.3381259,22.6962826],[120.3367236,22.6975877],[120.3356099,22.6988992],[120.3341492,22.7005396],[120.3329231,22.7017519],[120.3310734,22.7034597],[120.3301406,22.7042732],[120.329547,22.7048048],[120.328947,22.7053421],[120.3283998,22.7056959],[120.3279063,22.7060126],[120.3273645,22.7066213],[120.3259215,22.7084152],[120.325782,22.7086131],[120.3257404,22.708816],[120.3257659,22.7089583],[120.3257954,22.7090733],[120.3259563,22.7094222],[120.3260945,22.7096053],[120.3262554,22.7097179],[120.3263949,22.7097748],[120.3265934,22.7097958],[120.3273095,22.7096028],[120.3285742,22.7092416],[120.3287727,22.7092589],[120.3288462,22.7092709],[120.3289095,22.7092812],[120.3290302,22.7094395],[120.3291482,22.709828],[120.3295264,22.7109068],[120.3295022,22.7112037],[120.3293681,22.7114041],[120.329293,22.7115996],[120.3283596,22.7133463],[120.3275764,22.71443],[120.3261065,22.7164514],[120.3260734,22.7165278],[120.3260154,22.7166617],[120.3258115,22.7168399],[120.3246367,22.7174089],[120.3236389,22.7180522],[120.3228128,22.7189627],[120.3222871,22.7196059],[120.3221154,22.7200216],[120.3227377,22.7217435],[120.3228021,22.7221394],[120.3225982,22.7224659],[120.3217935,22.7227826],[120.321579,22.7230201],[120.3214717,22.723416],[120.3214395,22.7239603],[120.3212035,22.7246728],[120.3206777,22.7254941],[120.3202164,22.7260384],[120.3195834,22.7264046],[120.3191006,22.7266816],[120.3183818,22.7271566],[120.3176415,22.7278098],[120.3167081,22.7283441],[120.315839,22.7285816],[120.3152275,22.7286905],[120.3146481,22.728928],[120.3143477,22.7293337],[120.3139079,22.7299472],[120.3135109,22.7301847],[120.3131676,22.7302441],[120.311658,22.7301268],[120.3112578,22.7300957],[120.3071272,22.729967],[120.3060543,22.7297988],[120.3048527,22.7294129],[120.3040802,22.7294228],[120.3033078,22.7297196],[120.3029537,22.7296899],[120.3023851,22.7292446],[120.3010118,22.7291061],[120.3006148,22.7292743],[120.3002071,22.7297097],[120.3000355,22.7304618],[120.2999496,22.7313524],[120.2997029,22.7316987],[120.2993703,22.731768],[120.2988982,22.7314414],[120.2966988,22.7289577],[120.2965808,22.7284629],[120.2967632,22.7276514],[120.296967,22.7269983],[120.2968812,22.7265728],[120.2966237,22.7262066],[120.2960551,22.7257811],[120.2919781,22.7247915],[120.2895212,22.7239405],[120.285809,22.7224165],[120.277544,22.7191299],[120.2765119,22.7187228],[120.2749622,22.7181116],[120.2726018,22.7170626],[120.2588475,22.7141529],[120.2569377,22.7138066]]}},{"type":"Feature","id":"way/762580999","properties":{"osm_id":"762580999","osm_type":"way","name":"竹後排水溝","feature_category":"waterway_line","waterway_type":"drain","source_tags":{"name":"竹後排水溝","waterway":"drain"}},"geometry":{"type":"LineString","coordinates":[[120.3321576,22.7067203],[120.3314656,22.7072448],[120.3307199,22.7077249],[120.3301781,22.7082445],[120.3300172,22.7085463],[120.3297865,22.7086849],[120.3290892,22.7089719],[120.3289068,22.7091253],[120.3288462,22.7092709]]}},{"type":"Feature","id":"way/916562645","properties":{"osm_id":"916562645","osm_type":"way","name":"黑橋排水","feature_category":"waterway_line","waterway_type":"ditch","source_tags":{"layer":"-1","name":"黑橋排水","tunnel":"culvert","waterway":"ditch"}},"geometry":{"type":"LineString","coordinates":[[120.2745474,22.7249344],[120.2743891,22.7248008],[120.2742496,22.7246301],[120.274196,22.724541],[120.2741584,22.7244445],[120.274137,22.7243357],[120.2741531,22.7242342],[120.2742523,22.724014],[120.2750918,22.7223589],[120.2753488,22.7218626],[120.2756645,22.7212914],[120.275864,22.7208927],[120.2759837,22.7205739],[120.2763988,22.7191191]]}},{"type":"Feature","id":"way/916562649","properties":{"osm_id":"916562649","osm_type":"way","name":"廣昌大排","feature_category":"waterway_line","waterway_type":"ditch","source_tags":{"name":"廣昌大排","waterway":"ditch"}},"geometry":{"type":"LineString","coordinates":[[120.2778546,22.7186222],[120.277544,22.7191299]]}},{"type":"Feature","id":"way/916562650","properties":{"osm_id":"916562650","osm_type":"way","name":"廣昌大排","feature_category":"waterway_line","waterway_type":"ditch","source_tags":{"layer":"-1","name":"廣昌大排","tunnel":"culvert","waterway":"ditch"}},"geometry":{"type":"LineString","coordinates":[[120.2781506,22.7181363],[120.2778546,22.7186222]]}},{"type":"Feature","id":"way/916562651","properties":{"osm_id":"916562651","osm_type":"way","name":"黑橋排水","feature_category":"waterway_line","waterway_type":"ditch","source_tags":{"layer":"-1","name":"黑橋排水","waterway":"ditch"}},"geometry":{"type":"LineString","coordinates":[[120.2763988,22.7191191],[120.2765119,22.7187228]]}},{"type":"Feature","id":"way/916562652","properties":{"osm_id":"916562652","osm_type":"way","name":"廣昌大排","feature_category":"waterway_line","waterway_type":"ditch","source_tags":{"name":"廣昌大排","waterway":"ditch"}},"geometry":{"type":"LineString","coordinates":[[120.2796084,22.7154807],[120.2781506,22.7181363]]}},{"type":"Feature","id":"way/916562653","properties":{"osm_id":"916562653","osm_type":"way","name":"廣昌大排","feature_category":"waterway_line","waterway_type":"ditch","source_tags":{"layer":"-1","name":"廣昌大排","tunnel":"culvert","waterway":"ditch"}},"geometry":{"type":"LineString","coordinates":[[120.2797967,22.7150789],[120.2796084,22.7154807]]}},{"type":"Feature","id":"way/1014608473","properties":{"osm_id":"1014608473","osm_type":"way","name":"曹公新圳","feature_category":"waterway_line","waterway_type":"drain","source_tags":{"name":"曹公新圳","usage":"irrigation","waterway":"drain"}},"geometry":{"type":"LineString","coordinates":[[120.3423076,22.6909305],[120.3421132,22.6909335],[120.3418519,22.6911412],[120.3414794,22.6917105],[120.3412932,22.6920849],[120.340893,22.6928081],[120.3407262,22.6929389],[120.3405038,22.6929645],[120.340148,22.692985],[120.339998,22.6930312],[120.3396477,22.693503],[120.3394837,22.6937364],[120.3393003,22.6938877],[120.3391322,22.6940809],[120.3388944,22.6942719],[120.3385214,22.6945008],[120.3384307,22.6946066],[120.3382031,22.6950044],[120.3380953,22.6951433],[120.3377853,22.6954996],[120.3375965,22.695666],[120.3372442,22.6959052],[120.3364635,22.6967242],[120.3357026,22.6975117],[120.3351727,22.6980477],[120.3345865,22.6986171],[120.3331463,22.6998729],[120.3323403,22.7005957],[120.3313905,22.7014849],[120.3302507,22.7026239],[120.3294202,22.7034675],[120.3290515,22.7037968],[120.3289592,22.7038769],[120.3286596,22.7041014],[120.3286142,22.7041354]]}},{"type":"Feature","id":"way/1014608484","properties":{"osm_id":"1014608484","osm_type":"way","name":"曹公新圳","feature_category":"waterway_line","waterway_type":"drain","source_tags":{"layer":"-1","name":"曹公新圳","tunnel":"culvert","usage":"irrigation","waterway":"drain"}},"geometry":{"type":"LineString","coordinates":[[120.3286142,22.7041354],[120.3279236,22.7043598]]}},{"type":"Feature","id":"way/1014608485","properties":{"osm_id":"1014608485","osm_type":"way","name":null,"feature_category":"waterway_line","waterway_type":"ditch","source_tags":{"waterway":"ditch"}},"geometry":{"type":"LineString","coordinates":[[120.3286596,22.7041014],[120.3288505,22.7042818],[120.32898,22.7042967],[120.3294915,22.7046999],[120.329547,22.7048048]]}},{"type":"Feature","id":"way/1157739561","properties":{"osm_id":"1157739561","osm_type":"way","name":"梯溝","feature_category":"waterway_line","waterway_type":"drain","source_tags":{"cutting":"yes","name":"梯溝","waterway":"drain"}},"geometry":{"type":"LineString","coordinates":[[120.3100811,22.6976755],[120.3101895,22.6975349],[120.3106831,22.6969359],[120.3109432,22.6966492],[120.3111928,22.6964028],[120.3118089,22.6958198],[120.3120247,22.6956994],[120.3120886,22.6956494]]}},{"type":"Feature","id":"way/1166010429","properties":{"osm_id":"1166010429","osm_type":"way","name":"梯溝","feature_category":"waterway_line","waterway_type":"drain","source_tags":{"cutting":"yes","name":"梯溝","waterway":"drain"}},"geometry":{"type":"LineString","coordinates":[[120.309864,22.6979525],[120.3100811,22.6976755]]}},{"type":"Feature","id":"way/1168465207","properties":{"osm_id":"1168465207","osm_type":"way","name":null,"feature_category":"waterway_line","waterway_type":"ditch","source_tags":{"waterway":"ditch"}},"geometry":{"type":"LineString","coordinates":[[120.2743321,22.7249599],[120.2742404,22.7248987]]}},{"type":"Feature","id":"way/1168465208","properties":{"osm_id":"1168465208","osm_type":"way","name":null,"feature_category":"waterway_line","waterway_type":"ditch","source_tags":{"layer":"-1","tunnel":"culvert","waterway":"ditch"}},"geometry":{"type":"LineString","coordinates":[[120.2742404,22.7248987],[120.2736771,22.7245233]]}},{"type":"Feature","id":"way/1275752391","properties":{"osm_id":"1275752391","osm_type":"way","name":null,"feature_category":"waterway_line","waterway_type":"ditch","source_tags":{"layer":"-1","tunnel":"culvert","waterway":"ditch"}},"geometry":{"type":"LineString","coordinates":[[120.3074789,22.6956488],[120.3074992,22.6956282]]}},{"type":"Feature","id":"way/1275752392","properties":{"osm_id":"1275752392","osm_type":"way","name":null,"feature_category":"waterway_line","waterway_type":"ditch","source_tags":{"waterway":"ditch"}},"geometry":{"type":"LineString","coordinates":[[120.3074992,22.6956282],[120.3075214,22.6956055]]}},{"type":"Feature","id":"way/1275752393","properties":{"osm_id":"1275752393","osm_type":"way","name":null,"feature_category":"waterway_line","waterway_type":"ditch","source_tags":{"waterway":"ditch"}},"geometry":{"type":"LineString","coordinates":[[120.3078207,22.695975],[120.3078427,22.6959534]]}},{"type":"Feature","id":"way/1275752394","properties":{"osm_id":"1275752394","osm_type":"way","name":null,"feature_category":"waterway_line","waterway_type":"ditch","source_tags":{"layer":"-1","tunnel":"culvert","waterway":"ditch"}},"geometry":{"type":"LineString","coordinates":[[120.3077987,22.6959966],[120.3078207,22.695975]]}},{"type":"Feature","id":"way/1275752395","properties":{"osm_id":"1275752395","osm_type":"way","name":null,"feature_category":"waterway_line","waterway_type":"ditch","source_tags":{"layer":"-1","tunnel":"culvert","waterway":"ditch"}},"geometry":{"type":"LineString","coordinates":[[120.3081433,22.6963571],[120.3081622,22.6963159]]}},{"type":"Feature","id":"way/1275752396","properties":{"osm_id":"1275752396","osm_type":"way","name":null,"feature_category":"waterway_line","waterway_type":"ditch","source_tags":{"waterway":"ditch"}},"geometry":{"type":"LineString","coordinates":[[120.3081622,22.6963159],[120.3081853,22.6962733]]}},{"type":"Feature","id":"way/1275752397","properties":{"osm_id":"1275752397","osm_type":"way","name":null,"feature_category":"waterway_line","waterway_type":"ditch","source_tags":{"waterway":"ditch"}},"geometry":{"type":"LineString","coordinates":[[120.3084451,22.6966403],[120.3084613,22.6966205]]}},{"type":"Feature","id":"way/1275752398","properties":{"osm_id":"1275752398","osm_type":"way","name":null,"feature_category":"waterway_line","waterway_type":"ditch","source_tags":{"layer":"-1","tunnel":"culvert","waterway":"ditch"}},"geometry":{"type":"LineString","coordinates":[[120.3084289,22.69666],[120.3084451,22.6966403]]}},{"type":"Feature","id":"way/1275752399","properties":{"osm_id":"1275752399","osm_type":"way","name":null,"feature_category":"waterway_line","waterway_type":"ditch","source_tags":{"waterway":"ditch"}},"geometry":{"type":"LineString","coordinates":[[120.3087473,22.6969273],[120.3087777,22.6969016]]}},{"type":"Feature","id":"way/1275752400","properties":{"osm_id":"1275752400","osm_type":"way","name":null,"feature_category":"waterway_line","waterway_type":"ditch","source_tags":{"layer":"-1","tunnel":"culvert","waterway":"ditch"}},"geometry":{"type":"LineString","coordinates":[[120.3087207,22.6969498],[120.3087473,22.6969273]]}},{"type":"Feature","id":"way/1275752401","properties":{"osm_id":"1275752401","osm_type":"way","name":null,"feature_category":"waterway_line","waterway_type":"ditch","source_tags":{"waterway":"ditch"}},"geometry":{"type":"LineString","coordinates":[[120.3090112,22.6971522],[120.3090308,22.6971254]]}},{"type":"Feature","id":"way/1275752402","properties":{"osm_id":"1275752402","osm_type":"way","name":null,"feature_category":"waterway_line","waterway_type":"ditch","source_tags":{"layer":"-1","tunnel":"culvert","waterway":"ditch"}},"geometry":{"type":"LineString","coordinates":[[120.3089841,22.6971886],[120.3090112,22.6971522]]}},{"type":"Feature","id":"way/1275752403","properties":{"osm_id":"1275752403","osm_type":"way","name":null,"feature_category":"waterway_line","waterway_type":"ditch","source_tags":{"layer":"-1","tunnel":"culvert","waterway":"ditch"}},"geometry":{"type":"LineString","coordinates":[[120.3090308,22.6971254],[120.3090518,22.697095]]}},{"type":"Feature","id":"way/1275752404","properties":{"osm_id":"1275752404","osm_type":"way","name":null,"feature_category":"waterway_line","waterway_type":"ditch","source_tags":{"waterway":"ditch"}},"geometry":{"type":"LineString","coordinates":[[120.3095374,22.6976464],[120.30957,22.6976129]]}},{"type":"Feature","id":"way/1275752405","properties":{"osm_id":"1275752405","osm_type":"way","name":null,"feature_category":"waterway_line","waterway_type":"ditch","source_tags":{"layer":"-1","tunnel":"culvert","waterway":"ditch"}},"geometry":{"type":"LineString","coordinates":[[120.3095047,22.6976799],[120.3095374,22.6976464]]}},{"type":"Feature","id":"way/1275752406","properties":{"osm_id":"1275752406","osm_type":"way","name":null,"feature_category":"waterway_line","waterway_type":"ditch","source_tags":{"waterway":"ditch"}},"geometry":{"type":"LineString","coordinates":[[120.3097391,22.6978763],[120.3097617,22.6978443]]}},{"type":"Feature","id":"way/1275752407","properties":{"osm_id":"1275752407","osm_type":"way","name":null,"feature_category":"waterway_line","waterway_type":"ditch","source_tags":{"layer":"-1","tunnel":"culvert","waterway":"ditch"}},"geometry":{"type":"LineString","coordinates":[[120.3097202,22.6979032],[120.3097391,22.6978763]]}}]}