{"type": "FeatureCollection", "features": [{"type": "Feature", "properties": {"height": 12.8}, "geometry": {"type": "Polygon", "coordinates": [[[120.2775821, 22.7309376], [120.2777272, 22.7307759], [120.2777792, 22.7306772], [120.2778211, 22.7305431], [120.2777453, 22.7305124], [120.2777623, 22.730489], [120.2776995, 22.7304508], [120.2774134, 22.7308506], [120.2774295, 22.7308604], [120.2773916, 22.7309134], [120.2774147, 22.7309274], [120.2774084, 22.7309361], [120.277374, 22.7309152], [120.2767827, 22.7317416], [120.2768354, 22.7317737], [120.2767704, 22.7318646], [120.276859, 22.7319185], [120.2769292, 22.7318204], [120.2769944, 22.7318601], [120.2772179, 22.7315476], [120.2771673, 22.7315168], [120.2772362, 22.7314206], [120.2772638, 22.731382], [120.2773088, 22.7314094], [120.2775734, 22.7310396], [120.2775462, 22.7310231], [120.2775814, 22.7309739], [120.2775997, 22.7309483], [120.2775821, 22.7309376]]]}}, {"type": "Feature", "properties": {"height": 8.0}, "geometry": {"type": "Polygon", "coordinates": [[[120.2884825, 22.7198429], [120.2892317, 22.7202333], [120.2894767, 22.7198538], [120.2890924, 22.719656], [120.2891511, 22.7195815], [120.2888154, 22.7193801], [120.2884825, 22.7198429]]]}}, {"type": "Feature", "properties": {"height": 16.0}, "geometry": {"type": "Polygon", "coordinates": [[[120.2901607, 22.7277132], [120.2902563, 22.7282742], [120.2909611, 22.7281677], [120.2909751, 22.7282749], [120.2912698, 22.7282441], [120.2912176, 22.7276389], [120.2911073, 22.7276416], [120.2910967, 22.7275825], [120.2901607, 22.7277132]]]}}, {"type": "Feature", "properties": {"height": 8.0}, "geometry": {"type": "Polygon", "coordinates": [[[120.2780269, 22.7350819], [120.2780778, 22.735233], [120.2780247, 22.7352485], [120.2780677, 22.7353736], [120.2787406, 22.7351767], [120.2786958, 22.7350463], [120.2781865, 22.7351951], [120.2781373, 22.7350518], [120.278658, 22.7348997], [120.2786162, 22.7347779], [120.2779331, 22.7349773], [120.2779727, 22.7350927], [120.2780269, 22.7350819]]]}}, {"type": "Feature", "properties": {"height": 19.200000000000003}, "geometry": {"type": "Polygon", "coordinates": [[[120.2857763, 22.7360521], [120.2864125, 22.7358675], [120.2861526, 22.7357494], [120.2859478, 22.7357839], [120.2858621, 22.7355004], [120.2860861, 22.7354257], [120.2863863, 22.7355422], [120.2864626, 22.7354125], [120.2862052, 22.735296], [120.2861911, 22.7352443], [120.2856312, 22.7354105], [120.2856127, 22.7353953], [120.285586, 22.7353875], [120.2855494, 22.7353919], [120.2855235, 22.7354137], [120.2855137, 22.7354385], [120.2855154, 22.7354702], [120.2855262, 22.7354896], [120.285545, 22.7355028], [120.285572, 22.7355097], [120.2856002, 22.7355079], [120.2857763, 22.7360521]]]}}, {"type": "Feature", "properties": {"height": 9.600000000000001}, "geometry": {"type": "Polygon", "coordinates": [[[120.2780009, 22.7341354], [120.2780399, 22.7342522], [120.2777173, 22.7343438], [120.2778347, 22.7346955], [120.2781591, 22.7346034], [120.2782171, 22.7347772], [120.2785609, 22.7346797], [120.2783468, 22.7340373], [120.2780009, 22.7341354]]]}}, {"type": "Feature", "properties": {"height": 19.200000000000003}, "geometry": {"type": "Polygon", "coordinates": [[[120.278177, 22.7359333], [120.2789062, 22.7357292], [120.2788484, 22.7355536], [120.2781192, 22.7357578], [120.278177, 22.7359333]]]}}, {"type": "Feature", "properties": {"height": 19.200000000000003}, "geometry": {"type": "Polygon", "coordinates": [[[120.2837914, 22.7345239], [120.2840868, 22.7345323], [120.2840897, 22.7344456], [120.2842002, 22.7344488], [120.284205, 22.734303], [120.28415, 22.7343015], [120.2841567, 22.7340994], [120.284123, 22.7340985], [120.2841244, 22.7340553], [120.2838073, 22.7340463], [120.2838009, 22.7342389], [120.2837966, 22.7343661], [120.2837914, 22.7345239]]]}}, {"type": "Feature", "properties": {"height": 8.0}, "geometry": {"type": "Polygon", "coordinates": [[[120.2801234, 22.7347526], [120.2805144, 22.7360136], [120.2808153, 22.7359342], [120.2804241, 22.7346733], [120.2801234, 22.7347526]]]}}, {"type": "Feature", "properties": {"height": 19.200000000000003}, "geometry": {"type": "Polygon", "coordinates": [[[120.2781675, 22.7356345], [120.2787741, 22.7354595], [120.2787184, 22.7352951], [120.2781118, 22.7354702], [120.2781675, 22.7356345]]]}}, {"type": "Feature", "properties": {"height": 8.0}, "geometry": {"type": "Polygon", "coordinates": [[[120.2793246, 22.7313955], [120.2798844, 22.7317609], [120.2801236, 22.7314492], [120.2795637, 22.7310838], [120.2793246, 22.7313955]]]}}, {"type": "Feature", "properties": {"height": 8.0}, "geometry": {"type": "Polygon", "coordinates": [[[120.2831993, 22.736018], [120.2832367, 22.7361244], [120.2835504, 22.736033], [120.283513, 22.7359265], [120.2831993, 22.736018]]]}}, {"type": "Feature", "properties": {"height": 8.0}, "geometry": {"type": "Polygon", "coordinates": [[[120.2769375, 22.7346324], [120.2770493, 22.7346066], [120.2769578, 22.7342997], [120.276841, 22.7343255], [120.2769375, 22.7346324]]]}}, {"type": "Feature", "properties": {"height": 8.0}, "geometry": {"type": "Polygon", "coordinates": [[[120.2767013, 22.7340772], [120.2768181, 22.7340514], [120.2767343, 22.7337258], [120.2765997, 22.7337539], [120.2767013, 22.7340772]]]}}, {"type": "Feature", "properties": {"height": 19.200000000000003}, "geometry": {"type": "Polygon", "coordinates": [[[120.2766189, 22.7333313], [120.2766393, 22.7332864], [120.2766636, 22.7332957], [120.2766962, 22.7332283], [120.2766677, 22.7332151], [120.276686, 22.7331645], [120.2766372, 22.7331402], [120.276586, 22.7331364], [120.2766779, 22.7329902], [120.2766535, 22.7329284], [120.2766163, 22.7328817], [120.2766921, 22.732771], [120.2766092, 22.7327275], [120.2763787, 22.7326065], [120.2766358, 22.7322387], [120.2765076, 22.7321589], [120.2757326, 22.7331756], [120.2758417, 22.7332377], [120.2758275, 22.7332613], [120.2758326, 22.733285], [120.2758509, 22.7333042], [120.2758793, 22.7333164], [120.2759017, 22.7333201], [120.2759271, 22.7333126], [120.2759474, 22.7332863], [120.2759931, 22.7331945], [120.2759281, 22.7331552], [120.2760439, 22.7329902], [120.2766189, 22.7333313]]]}}, {"type": "Feature", "properties": {"height": 8.0}, "geometry": {"type": "Polygon", "coordinates": [[[120.2897571, 22.7270114], [120.2895852, 22.7270253], [120.2896196, 22.7272929], [120.2897829, 22.7272731], [120.2897571, 22.7270114]]]}}, {"type": "Feature", "properties": {"height": 8.0}, "geometry": {"type": "Polygon", "coordinates": [[[120.2897571, 22.7272988], [120.2896325, 22.7273107], [120.2896443, 22.7274009], [120.2897689, 22.727389], [120.2897571, 22.7272988]]]}}, {"type": "Feature", "properties": {"height": 41.6}, "geometry": {"type": "Polygon", "coordinates": [[[120.29174, 22.721494], [120.2917674, 22.7215086], [120.2922114, 22.7215301], [120.2922489, 22.7215171], [120.2922539, 22.7214204], [120.2917467, 22.7213962], [120.29174, 22.721494]]]}}, {"type": "Feature", "properties": {"height": 41.6}, "geometry": {"type": "Polygon", "coordinates": [[[120.2917454, 22.7213247], [120.2922607, 22.7213375], [120.2922636, 22.7212379], [120.2917482, 22.7212255], [120.2917454, 22.7213247]]]}}, {"type": "Feature", "properties": {"height": 8.0}, "geometry": {"type": "Polygon", "coordinates": [[[120.28985, 22.7322806], [120.2898466, 22.7321316], [120.2904646, 22.7321198], [120.290468, 22.7322688], [120.28985, 22.7322806]]]}}, {"type": "Feature", "properties": {"height": 8.0}, "geometry": {"type": "Polygon", "coordinates": [[[120.2892322, 22.7322571], [120.2891906, 22.7317626], [120.2890111, 22.7317755], [120.2890527, 22.73227], [120.2892322, 22.7322571]]]}}, {"type": "Feature", "properties": {"height": 8.0}, "geometry": {"type": "Polygon", "coordinates": [[[120.2892764, 22.7317722], [120.2892482, 22.7313287], [120.28965, 22.731307], [120.2896782, 22.7317505], [120.2892764, 22.7317722]]]}}, {"type": "Feature", "properties": {"height": 8.0}, "geometry": {"type": "Polygon", "coordinates": [[[120.2897664, 22.7259342], [120.28977, 22.7259733], [120.2899683, 22.7259868], [120.2899712, 22.7259486], [120.2897664, 22.7259342]]]}}, {"type": "Feature", "properties": {"height": 8.0}, "geometry": {"type": "Polygon", "coordinates": [[[120.2897562, 22.7257381], [120.2897583, 22.7257773], [120.2899826, 22.7257958], [120.2899854, 22.7257576], [120.2897562, 22.7257381]]]}}, {"type": "Feature", "properties": {"height": 8.0}, "geometry": {"type": "Polygon", "coordinates": [[[120.2897623, 22.7258558], [120.2897643, 22.725895], [120.289974, 22.7259104], [120.2899769, 22.7258722], [120.2897623, 22.7258558]]]}}, {"type": "Feature", "properties": {"height": 8.0}, "geometry": {"type": "Polygon", "coordinates": [[[120.2897631, 22.72566], [120.2897589, 22.725699], [120.2899883, 22.7257194], [120.2899911, 22.7256812], [120.2897631, 22.72566]]]}}, {"type": "Feature", "properties": {"height": 8.0}, "geometry": {"type": "Polygon", "coordinates": [[[120.2897815, 22.7260906], [120.2897853, 22.7261296], [120.2899569, 22.7261395], [120.2899598, 22.7261014], [120.2897815, 22.7260906]]]}}, {"type": "Feature", "properties": {"height": 8.0}, "geometry": {"type": "Polygon", "coordinates": [[[120.2897738, 22.7260124], [120.2897776, 22.7260515], [120.2899626, 22.7260632], [120.2899655, 22.726025], [120.2897738, 22.7260124]]]}}, {"type": "Feature", "properties": {"height": 8.0}, "geometry": {"type": "Polygon", "coordinates": [[[120.2897673, 22.7256209], [120.2897631, 22.72566], [120.2899911, 22.7256812], [120.289994, 22.725643], [120.2897673, 22.7256209]]]}}, {"type": "Feature", "properties": {"height": 8.0}, "geometry": {"type": "Polygon", "coordinates": [[[120.2897643, 22.725895], [120.2897664, 22.7259342], [120.2899712, 22.7259486], [120.289974, 22.7259104], [120.2897643, 22.725895]]]}}, {"type": "Feature", "properties": {"height": 8.0}, "geometry": {"type": "Polygon", "coordinates": [[[120.2897757, 22.7255428], [120.2897715, 22.7255819], [120.2899968, 22.7256049], [120.2899997, 22.7255667], [120.2897757, 22.7255428]]]}}, {"type": "Feature", "properties": {"height": 8.0}, "geometry": {"type": "Polygon", "coordinates": [[[120.2897603, 22.7258165], [120.2897623, 22.7258558], [120.2899769, 22.7258722], [120.2899797, 22.725834], [120.2897603, 22.7258165]]]}}, {"type": "Feature", "properties": {"height": 8.0}, "geometry": {"type": "Polygon", "coordinates": [[[120.2897583, 22.7257773], [120.2897603, 22.7258165], [120.2899797, 22.725834], [120.2899826, 22.7257958], [120.2897583, 22.7257773]]]}}, {"type": "Feature", "properties": {"height": 8.0}, "geometry": {"type": "Polygon", "coordinates": [[[120.2897776, 22.7260515], [120.2897815, 22.7260906], [120.2899598, 22.7261014], [120.2899626, 22.7260632], [120.2897776, 22.7260515]]]}}, {"type": "Feature", "properties": {"height": 8.0}, "geometry": {"type": "Polygon", "coordinates": [[[120.2897589, 22.725699], [120.2897562, 22.7257381], [120.2899854, 22.7257576], [120.2899883, 22.7257194], [120.2897589, 22.725699]]]}}, {"type": "Feature", "properties": {"height": 8.0}, "geometry": {"type": "Polygon", "coordinates": [[[120.28977, 22.7259733], [120.2897738, 22.7260124], [120.2899655, 22.726025], [120.2899683, 22.7259868], [120.28977, 22.7259733]]]}}, {"type": "Feature", "properties": {"height": 8.0}, "geometry": {"type": "Polygon", "coordinates": [[[120.2897715, 22.7255819], [120.2897673, 22.7256209], [120.289994, 22.725643], [120.2899968, 22.7256049], [120.2897715, 22.7255819]]]}}, {"type": "Feature", "properties": {"height": 48.0}, "geometry": {"type": "Polygon", "coordinates": [[[120.2846878, 22.7261158], [120.2848942, 22.7261632], [120.2848566, 22.7263025], [120.2848667, 22.7263049], [120.284854, 22.7263518], [120.2848211, 22.7263443], [120.2848168, 22.7263605], [120.284751, 22.7263454], [120.2847606, 22.7263098], [120.2847175, 22.7262999], [120.2847082, 22.7262914], [120.2847029, 22.7262807], [120.2847189, 22.7262211], [120.2846629, 22.7262082], [120.2846878, 22.7261158]]]}}, {"type": "Feature", "properties": {"height": 48.0}, "geometry": {"type": "Polygon", "coordinates": [[[120.2843802, 22.7262136], [120.2843996, 22.7262175], [120.2843966, 22.7262301], [120.2845674, 22.7262647], [120.2845969, 22.7261403], [120.2846182, 22.7261446], [120.2846246, 22.7261176], [120.2846098, 22.7261146], [120.2846157, 22.7260899], [120.2844934, 22.7260651], [120.2844894, 22.7260817], [120.2844696, 22.7260777], [120.2844623, 22.7261086], [120.2844802, 22.7261122], [120.2844675, 22.7261655], [120.2844129, 22.7261544], [120.2844052, 22.726187], [120.2843874, 22.7261834], [120.2843802, 22.7262136]]]}}, {"type": "Feature", "properties": {"height": 44.800000000000004}, "geometry": {"type": "Polygon", "coordinates": [[[120.2839347, 22.728561], [120.2839182, 22.7287014], [120.2840566, 22.7287152], [120.2840618, 22.7286708], [120.2841148, 22.7286761], [120.2841101, 22.7287159], [120.2842983, 22.7287347], [120.284315, 22.728592], [120.2842882, 22.7285586], [120.2842075, 22.7285505], [120.2842051, 22.728571], [120.2841155, 22.7285621], [120.2841077, 22.7286293], [120.2840695, 22.7286255], [120.2840754, 22.728575], [120.2839347, 22.728561]]]}}, {"type": "Feature", "properties": {"height": 8.0}, "geometry": {"type": "Polygon", "coordinates": [[[120.2915109, 22.7241362], [120.2915102, 22.7241873], [120.2916989, 22.7242478], [120.2917069, 22.7241261], [120.2915109, 22.7241362]]]}}, {"type": "Feature", "properties": {"height": 6.4}, "geometry": {"type": "Polygon", "coordinates": [[[120.2904953, 22.7213169], [120.2907785, 22.7214629], [120.2908654, 22.7214074], [120.2908231, 22.7211051], [120.2906068, 22.7210639], [120.2904953, 22.7213169]]]}}, {"type": "Feature", "properties": {"height": 8.0}, "geometry": {"type": "Polygon", "coordinates": [[[120.2912453, 22.722559], [120.2912308, 22.7224371], [120.2914024, 22.7224197], [120.2914169, 22.7225416], [120.2912453, 22.722559]]]}}, {"type": "Feature", "properties": {"height": 8.0}, "geometry": {"type": "Polygon", "coordinates": [[[120.2915469, 22.7225275], [120.291537, 22.7224215], [120.2917658, 22.7224033], [120.2917757, 22.7225093], [120.2915469, 22.7225275]]]}}, {"type": "Feature", "properties": {"height": 8.0}, "geometry": {"type": "Polygon", "coordinates": [[[120.2912567, 22.7224009], [120.2912248, 22.7221614], [120.2913412, 22.7221481], [120.2913732, 22.7223877], [120.2912567, 22.7224009]]]}}, {"type": "Feature", "properties": {"height": 48.0}, "geometry": {"type": "Polygon", "coordinates": [[[120.2912383, 22.7221269], [120.29123, 22.722036], [120.2915681, 22.72201], [120.2915998, 22.7223601], [120.2914997, 22.7223978], [120.2914735, 22.7221088], [120.2912383, 22.7221269]]]}}, {"type": "Feature", "properties": {"height": 48.0}, "geometry": {"type": "Polygon", "coordinates": [[[120.2908694, 22.7293375], [120.2908304, 22.7290917], [120.2911706, 22.7290458], [120.2911845, 22.7291335], [120.2911396, 22.7291395], [120.2911647, 22.7292977], [120.2908694, 22.7293375]]]}}, {"type": "Feature", "properties": {"height": 48.0}, "geometry": {"type": "Polygon", "coordinates": [[[120.290704, 22.7289245], [120.2906798, 22.7287579], [120.2907384, 22.7287506], [120.2906972, 22.728467], [120.2906507, 22.7284728], [120.2906294, 22.7283262], [120.2908636, 22.7282973], [120.2909502, 22.7288942], [120.290704, 22.7289245]]]}}, {"type": "Feature", "properties": {"height": 16.0}, "geometry": {"type": "Polygon", "coordinates": [[[120.2910994, 22.7288986], [120.2910833, 22.72877], [120.2916466, 22.7287106], [120.2916519, 22.7288442], [120.2910994, 22.7288986]]]}}, {"type": "Feature", "properties": {"height": 12.8}, "geometry": {"type": "Polygon", "coordinates": [[[120.2914263, 22.7305221], [120.2913729, 22.730048], [120.2918869, 22.7299729], [120.2919544, 22.7304522], [120.2914263, 22.7305221]]]}}, {"type": "Feature", "properties": {"height": 8.0}, "geometry": {"type": "Polygon", "coordinates": [[[120.2766976, 22.7218282], [120.2770839, 22.721923], [120.2771455, 22.7217097], [120.2767591, 22.7216149], [120.2766976, 22.7218282]]]}}, {"type": "Feature", "properties": {"height": 8.0}, "geometry": {"type": "Polygon", "coordinates": [[[120.2757389, 22.7326343], [120.2756983, 22.73268], [120.2754006, 22.7324866], [120.275457, 22.7323784], [120.2757705, 22.7325927], [120.2757389, 22.7326343]]]}}, {"type": "Feature", "properties": {"height": 8.0}, "geometry": {"type": "Polygon", "coordinates": [[[120.2758268, 22.732486], [120.2756655, 22.7323823], [120.2756726, 22.7323729], [120.2755834, 22.7323155], [120.2755764, 22.7323247], [120.2755135, 22.7322842], [120.2755743, 22.7322038], [120.2756403, 22.7322463], [120.2756256, 22.7322658], [120.2757112, 22.7323209], [120.2757548, 22.7322633], [120.2759166, 22.7323674], [120.2758268, 22.732486]]]}}, {"type": "Feature", "properties": {"height": 8.0}, "geometry": {"type": "Polygon", "coordinates": [[[120.2802695, 22.7272881], [120.2802244, 22.7273775], [120.2800958, 22.727313], [120.280141, 22.7272298], [120.2802695, 22.7272881]]]}}, {"type": "Feature", "properties": {"height": 8.0}, "geometry": {"type": "Polygon", "coordinates": [[[120.2908145, 22.7323081], [120.2913267, 22.7322683], [120.2912849, 22.7318892], [120.2912386, 22.7316183], [120.2907453, 22.7316481], [120.2908145, 22.7323081]]]}}, {"type": "Feature", "properties": {"height": 8.0}, "geometry": {"type": "Polygon", "coordinates": [[[120.2848924, 22.7319149], [120.2855288, 22.731939], [120.2855255, 22.7320129], [120.2848891, 22.7319887], [120.2848909, 22.7319465], [120.2848924, 22.7319149]]]}}, {"type": "Feature", "properties": {"height": 8.0}, "geometry": {"type": "Polygon", "coordinates": [[[120.2797654, 22.7272436], [120.2798491, 22.7270914], [120.2798866, 22.727109], [120.2799554, 22.7271411], [120.2800694, 22.7271945], [120.2800291, 22.7272678], [120.2799858, 22.7273466], [120.2799038, 22.7273083], [120.2797654, 22.7272436]]]}}, {"type": "Feature", "properties": {"height": 8.0}, "geometry": {"type": "Polygon", "coordinates": [[[120.2763366, 22.7315052], [120.2763757, 22.7314538], [120.2765527, 22.7315683], [120.276534, 22.7315929], [120.2765136, 22.7316197], [120.2763366, 22.7315052]]]}}, {"type": "Feature", "properties": {"height": 8.0}, "geometry": {"type": "Polygon", "coordinates": [[[120.2789569, 22.7224944], [120.2789526, 22.7223817], [120.2789515, 22.7223522], [120.2791178, 22.7223633], [120.2791151, 22.722513], [120.2789542, 22.7225117], [120.2789569, 22.7224944]]]}}, {"type": "Feature", "properties": {"height": 8.0}, "geometry": {"type": "Polygon", "coordinates": [[[120.2802247, 22.7223544], [120.2802399, 22.7222872], [120.2803427, 22.7223071], [120.2803233, 22.7223749], [120.2802247, 22.7223544]]]}}, {"type": "Feature", "properties": {"height": 8.0}, "geometry": {"type": "Polygon", "coordinates": [[[120.2808742, 22.7258887], [120.2808101, 22.7258164], [120.2808483, 22.7257875], [120.2808306, 22.7257675], [120.2809294, 22.725693], [120.2810112, 22.7257854], [120.2808742, 22.7258887]]]}}, {"type": "Feature", "properties": {"height": 60.800000000000004}, "geometry": {"type": "Polygon", "coordinates": [[[120.2768128, 22.724959], [120.2771672, 22.7251444], [120.2773094, 22.724913], [120.2769551, 22.7247276], [120.2768128, 22.724959]]]}}, {"type": "Feature", "properties": {"height": 48.0}, "geometry": {"type": "Polygon", "coordinates": [[[120.2837951, 22.7294146], [120.2840026, 22.7294274], [120.2840104, 22.7293211], [120.2840628, 22.7293243], [120.2840553, 22.7294275], [120.2841579, 22.7294339], [120.2841641, 22.7293491], [120.2841851, 22.7293504], [120.2841799, 22.7294219], [120.2842811, 22.7294282], [120.2842918, 22.7292832], [120.2842488, 22.7292498], [120.2838091, 22.7292225], [120.2837951, 22.7294146]]]}}, {"type": "Feature", "properties": {"height": 48.0}, "geometry": {"type": "Polygon", "coordinates": [[[120.282315, 22.7298942], [120.2826587, 22.7299003], [120.2826663, 22.7295404], [120.2823226, 22.7295343], [120.282315, 22.7298942]]]}}, {"type": "Feature", "properties": {"height": 48.0}, "geometry": {"type": "Polygon", "coordinates": [[[120.2816662, 22.7227384], [120.2818015, 22.7227851], [120.2818387, 22.7226934], [120.2820088, 22.7227521], [120.2820805, 22.7225755], [120.2817752, 22.72247], [120.2816662, 22.7227384]]]}}, {"type": "Feature", "properties": {"height": 8.0}, "geometry": {"type": "Polygon", "coordinates": [[[120.282572, 22.728924], [120.2827815, 22.7289325], [120.2828, 22.7286881], [120.2827199, 22.7286853], [120.282572, 22.728924]]]}}, {"type": "Feature", "properties": {"height": 48.0}, "geometry": {"type": "Polygon", "coordinates": [[[120.2832636, 22.7277235], [120.2835018, 22.7278065], [120.2835353, 22.7277245], [120.2833932, 22.727675], [120.2834476, 22.7275421], [120.2835373, 22.7275733], [120.2835648, 22.7275062], [120.283379, 22.7274416], [120.2832636, 22.7277235]]]}}, {"type": "Feature", "properties": {"height": 48.0}, "geometry": {"type": "Polygon", "coordinates": [[[120.2856949, 22.7262082], [120.2857949, 22.726233], [120.2858079, 22.7261885], [120.2858345, 22.7261784], [120.2858569, 22.7261497], [120.2859834, 22.7261812], [120.2859631, 22.7262506], [120.2859119, 22.7262378], [120.2858833, 22.7263354], [120.2860159, 22.7263684], [120.2860884, 22.7261205], [120.2857454, 22.7260353], [120.2856949, 22.7262082]]]}}, {"type": "Feature", "properties": {"height": 8.0}, "geometry": {"type": "Polygon", "coordinates": [[[120.2834331, 22.7305345], [120.2835962, 22.7305071], [120.2835649, 22.7303484], [120.2835358, 22.7303532], [120.2835209, 22.7302775], [120.2834165, 22.730295], [120.2834318, 22.730373], [120.2834022, 22.7303779], [120.2834331, 22.7305345]]]}}, {"type": "Feature", "properties": {"height": 48.0}, "geometry": {"type": "Polygon", "coordinates": [[[120.2879973, 22.725331], [120.2881398, 22.7253525], [120.2881809, 22.7251206], [120.2878227, 22.7250666], [120.287794, 22.7252287], [120.2878969, 22.7252442], [120.2879031, 22.7252088], [120.2879238, 22.7252119], [120.287927, 22.7251937], [120.2879483, 22.7251969], [120.2879539, 22.7251655], [120.2880836, 22.7251851], [120.2880726, 22.7252471], [120.2880138, 22.7252383], [120.2879973, 22.725331]]]}}, {"type": "Feature", "properties": {"height": 48.0}, "geometry": {"type": "Polygon", "coordinates": [[[120.2746833, 22.7284893], [120.2749046, 22.7286231], [120.2750573, 22.7284082], [120.2748336, 22.728273], [120.2747824, 22.7283451], [120.2749146, 22.7284251], [120.2748736, 22.7284828], [120.274864, 22.7284964], [120.2747341, 22.7284178], [120.2746833, 22.7284893]]]}}, {"type": "Feature", "properties": {"height": 48.0}, "geometry": {"type": "Polygon", "coordinates": [[[120.2755124, 22.7278198], [120.2757714, 22.7279744], [120.2759357, 22.7277402], [120.2756767, 22.7275856], [120.2755124, 22.7278198]]]}}, {"type": "Feature", "properties": {"height": 48.0}, "geometry": {"type": "Polygon", "coordinates": [[[120.2759841, 22.72608], [120.2761299, 22.7258894], [120.2759803, 22.7257921], [120.2758861, 22.7259152], [120.2758224, 22.7258738], [120.2758747, 22.7258055], [120.2758149, 22.7257666], [120.2758788, 22.7256831], [120.2759935, 22.7257578], [120.2760879, 22.7256344], [120.2758864, 22.7255033], [120.2756243, 22.7258459], [120.2759841, 22.72608]]]}}, {"type": "Feature", "properties": {"height": 48.0}, "geometry": {"type": "Polygon", "coordinates": [[[120.2763131, 22.7261912], [120.2764756, 22.7262966], [120.2765335, 22.7262207], [120.2765017, 22.7262001], [120.2765811, 22.7260961], [120.2764503, 22.7260112], [120.2763131, 22.7261912]]]}}, {"type": "Feature", "properties": {"height": 48.0}, "geometry": {"type": "Polygon", "coordinates": [[[120.2764932, 22.7263128], [120.2766509, 22.7264128], [120.2767869, 22.7262302], [120.276653, 22.7261453], [120.2765747, 22.7262504], [120.2765509, 22.7262353], [120.2764932, 22.7263128]]]}}, {"type": "Feature", "properties": {"height": 48.0}, "geometry": {"type": "Polygon", "coordinates": [[[120.2841401, 22.7254719], [120.2842837, 22.7255281], [120.2843394, 22.7254072], [120.284385, 22.7254251], [120.2843594, 22.7254806], [120.2844669, 22.7255226], [120.2844889, 22.725475], [120.2845293, 22.7254908], [120.2845694, 22.7254038], [120.2842323, 22.7252717], [120.2841401, 22.7254719]]]}}, {"type": "Feature", "properties": {"height": 48.0}, "geometry": {"type": "Polygon", "coordinates": [[[120.282387, 22.7263732], [120.2825776, 22.726373], [120.2825773, 22.7261714], [120.2823867, 22.7261717], [120.282387, 22.7263732]]]}}, {"type": "Feature", "properties": {"height": 48.0}, "geometry": {"type": "Polygon", "coordinates": [[[120.2823954, 22.7260948], [120.2825485, 22.7261483], [120.2826215, 22.7259708], [120.2824684, 22.7259172], [120.2823954, 22.7260948]]]}}, {"type": "Feature", "properties": {"height": 48.0}, "geometry": {"type": "Polygon", "coordinates": [[[120.2825715, 22.7278727], [120.2827593, 22.7279439], [120.2827895, 22.7278762], [120.2827609, 22.7278653], [120.2828283, 22.727714], [120.2826692, 22.7276536], [120.2825715, 22.7278727]]]}}, {"type": "Feature", "properties": {"height": 48.0}, "geometry": {"type": "Polygon", "coordinates": [[[120.2822131, 22.727738], [120.2824619, 22.7278344], [120.2825338, 22.7276767], [120.2824376, 22.7276394], [120.2824056, 22.7277098], [120.2822529, 22.7276506], [120.2822131, 22.727738]]]}}, {"type": "Feature", "properties": {"height": 48.0}, "geometry": {"type": "Polygon", "coordinates": [[[120.2802935, 22.7281749], [120.2803748, 22.7282244], [120.2804008, 22.728188], [120.280479, 22.7282356], [120.2805674, 22.7281119], [120.2804979, 22.7280696], [120.2805347, 22.7280181], [120.2806018, 22.7280589], [120.2806897, 22.7279359], [120.2806208, 22.727894], [120.2806369, 22.7278714], [120.2805488, 22.7278179], [120.2802935, 22.7281749]]]}}, {"type": "Feature", "properties": {"height": 8.0}, "geometry": {"type": "Polygon", "coordinates": [[[120.283402, 22.7207985], [120.2833516, 22.7207766], [120.2834105, 22.7206617], [120.2834608, 22.7206836], [120.283402, 22.7207985]]]}}, {"type": "Feature", "properties": {"height": 8.0}, "geometry": {"type": "Polygon", "coordinates": [[[120.2904256, 22.7318843], [120.2904373, 22.7321094], [120.2903184, 22.7321146], [120.2903068, 22.7318895], [120.2904256, 22.7318843]]]}}, {"type": "Feature", "properties": {"height": 8.0}, "geometry": {"type": "Polygon", "coordinates": [[[120.2730276, 22.7305298], [120.2732258, 22.7303083], [120.2736428, 22.7305851], [120.2734754, 22.7308124], [120.2730276, 22.7305298]]]}}, {"type": "Feature", "properties": {"height": 8.0}, "geometry": {"type": "Polygon", "coordinates": [[[120.283238, 22.7228274], [120.2835747, 22.7229397], [120.2837734, 22.7224832], [120.2834489, 22.722356], [120.283238, 22.7228274]]]}}, {"type": "Feature", "properties": {"height": 8.0}, "geometry": {"type": "Polygon", "coordinates": [[[120.2782195, 22.7233712], [120.2783483, 22.7234009], [120.2783885, 22.7232748], [120.2782517, 22.7232475], [120.2782195, 22.7233712]]]}}, {"type": "Feature", "properties": {"height": 8.0}, "geometry": {"type": "Polygon", "coordinates": [[[120.2789236, 22.7235185], [120.278941, 22.7234479], [120.279047, 22.7234702], [120.2790309, 22.7235444], [120.2789236, 22.7235185]]]}}, {"type": "Feature", "properties": {"height": 8.0}, "geometry": {"type": "Polygon", "coordinates": [[[120.278933, 22.722947], [120.2787801, 22.7229358], [120.2788217, 22.7228319], [120.2789579, 22.7228502], [120.278933, 22.722947]]]}}, {"type": "Feature", "properties": {"height": 8.0}, "geometry": {"type": "Polygon", "coordinates": [[[120.2798425, 22.7222746], [120.2798717, 22.7221369], [120.2800361, 22.7221702], [120.2799871, 22.7223079], [120.2798425, 22.7222746]]]}}, {"type": "Feature", "properties": {"height": 8.0}, "geometry": {"type": "Polygon", "coordinates": [[[120.2800797, 22.724043], [120.2803477, 22.7239532], [120.2801934, 22.7236947], [120.2799498, 22.7237546], [120.2800797, 22.724043]]]}}, {"type": "Feature", "properties": {"height": 8.0}, "geometry": {"type": "Polygon", "coordinates": [[[120.2788138, 22.7234934], [120.2789173, 22.7235121], [120.2789325, 22.7234335], [120.2788239, 22.7234166], [120.2788138, 22.7234934]]]}}, {"type": "Feature", "properties": {"height": 8.0}, "geometry": {"type": "Polygon", "coordinates": [[[120.291219, 22.7334438], [120.2918008, 22.7333581], [120.2917171, 22.7328745], [120.2911352, 22.7329603], [120.291219, 22.7334438]]]}}, {"type": "Feature", "properties": {"height": 8.0}, "geometry": {"type": "Polygon", "coordinates": [[[120.2845124, 22.7327345], [120.2846306, 22.7327369], [120.2846353, 22.7325614], [120.2845177, 22.7325626], [120.2845124, 22.7327345]]]}}, {"type": "Feature", "properties": {"height": 8.0}, "geometry": {"type": "Polygon", "coordinates": [[[120.2788299, 22.7282439], [120.2790057, 22.728344], [120.2787405, 22.7287401], [120.2786721, 22.7288007], [120.2785514, 22.7288267], [120.2784629, 22.7288143], [120.2784495, 22.7287525], [120.2784575, 22.7287166], [120.2782616, 22.7285296], [120.2782204, 22.7285663], [120.2776628, 22.7280341], [120.2777978, 22.7279138], [120.2782879, 22.7283817], [120.2783573, 22.7283199], [120.2778661, 22.7278508], [120.2778755, 22.7278149], [120.277982, 22.7277278], [120.2782, 22.7279547], [120.2782524, 22.727941], [120.2783784, 22.7280623], [120.2783932, 22.7281303], [120.2785125, 22.7282491], [120.2784978, 22.7284099], [120.2783935, 22.728543], [120.2785112, 22.7286214], [120.2785863, 22.7286078], [120.2788299, 22.7282439]]]}}, {"type": "Feature", "properties": {"height": 8.0}, "geometry": {"type": "Polygon", "coordinates": [[[120.2800932, 22.7365467], [120.2802752, 22.7364929], [120.2802503, 22.736421], [120.2800682, 22.7364748], [120.2800932, 22.7365467]]]}}, {"type": "Feature", "properties": {"height": 8.0}, "geometry": {"type": "Polygon", "coordinates": [[[120.2834786, 22.7340526], [120.2835557, 22.734059], [120.2836222, 22.7340784], [120.2836818, 22.7341172], [120.2837215, 22.7341699], [120.2837448, 22.7342345], [120.2838009, 22.7342389], [120.2837966, 22.7343661], [120.2837483, 22.7343659], [120.2837378, 22.7344865], [120.2837016, 22.7345522], [120.2836316, 22.734606], [120.283579, 22.7346276], [120.283537, 22.7346319], [120.2834308, 22.7346265], [120.2834308, 22.7345522], [120.2835452, 22.7345554], [120.2836024, 22.7345339], [120.2836444, 22.7344984], [120.2836771, 22.7344499], [120.2836876, 22.7342432], [120.2836654, 22.7341818], [120.2836339, 22.734143], [120.2835767, 22.7341172], [120.2834798, 22.734115], [120.2834786, 22.7340526]]]}}, {"type": "Feature", "properties": {"height": 8.0}, "geometry": {"type": "Polygon", "coordinates": [[[120.2840868, 22.7345323], [120.2840857, 22.7346136], [120.2837413, 22.734605], [120.2837436, 22.7345231], [120.2840868, 22.7345323]]]}}, {"type": "Feature", "properties": {"height": 8.0}, "geometry": {"type": "Polygon", "coordinates": [[[120.283665, 22.7261449], [120.2836636, 22.7261962], [120.2838002, 22.7261992], [120.2838016, 22.726148], [120.283665, 22.7261449]]]}}, {"type": "Feature", "properties": {"height": 8.0}, "geometry": {"type": "Polygon", "coordinates": [[[120.2836663, 22.7260937], [120.283665, 22.7261449], [120.2838016, 22.726148], [120.2838029, 22.7260967], [120.2836663, 22.7260937]]]}}, {"type": "Feature", "properties": {"height": 8.0}, "geometry": {"type": "Polygon", "coordinates": [[[120.2836677, 22.7260424], [120.2836663, 22.7260937], [120.2838029, 22.7260967], [120.2838043, 22.7260455], [120.2836677, 22.7260424]]]}}, {"type": "Feature", "properties": {"height": 8.0}, "geometry": {"type": "Polygon", "coordinates": [[[120.283669, 22.7259912], [120.2836677, 22.7260424], [120.2838043, 22.7260455], [120.2838056, 22.7259942], [120.283669, 22.7259912]]]}}, {"type": "Feature", "properties": {"height": 8.0}, "geometry": {"type": "Polygon", "coordinates": [[[120.2837429, 22.7256319], [120.2837337, 22.7256862], [120.2838939, 22.7257094], [120.2839031, 22.725655], [120.2837818, 22.7256375], [120.2837429, 22.7256319]]]}}, {"type": "Feature", "properties": {"height": 8.0}, "geometry": {"type": "Polygon", "coordinates": [[[120.2840006, 22.725629], [120.2837884, 22.7255983], [120.2837818, 22.7256375], [120.2839031, 22.725655], [120.2839939, 22.7256682], [120.2840006, 22.725629]]]}}, {"type": "Feature", "properties": {"height": 8.0}, "geometry": {"type": "Polygon", "coordinates": [[[120.2837962, 22.7255523], [120.2837884, 22.7255983], [120.2840006, 22.725629], [120.2840084, 22.725583], [120.2837962, 22.7255523]]]}}, {"type": "Feature", "properties": {"height": 8.0}, "geometry": {"type": "Polygon", "coordinates": [[[120.2839922, 22.7260681], [120.2840897, 22.7261033], [120.2841268, 22.7260161], [120.2840292, 22.7259809], [120.2839922, 22.7260681]]]}}, {"type": "Feature", "properties": {"height": 8.0}, "geometry": {"type": "Polygon", "coordinates": [[[120.2838946, 22.7260328], [120.2839922, 22.7260681], [120.2840292, 22.7259809], [120.2839317, 22.7259456], [120.2838946, 22.7260328]]]}}, {"type": "Feature", "properties": {"height": 8.0}, "geometry": {"type": "Polygon", "coordinates": [[[120.2840783, 22.7262945], [120.2840326, 22.7264432], [120.2842076, 22.7264889], [120.2842534, 22.7263402], [120.2840783, 22.7262945]]]}}, {"type": "Feature", "properties": {"height": 8.0}, "geometry": {"type": "Polygon", "coordinates": [[[120.2837779, 22.7262635], [120.2839478, 22.7263466], [120.2840061, 22.7262452], [120.2838363, 22.7261621], [120.2837779, 22.7262635]]]}}, {"type": "Feature", "properties": {"height": 8.0}, "geometry": {"type": "Polygon", "coordinates": [[[120.2831335, 22.7261534], [120.2831209, 22.7262411], [120.2832416, 22.7262559], [120.2832542, 22.7261683], [120.2831335, 22.7261534]]]}}, {"type": "Feature", "properties": {"height": 8.0}, "geometry": {"type": "Polygon", "coordinates": [[[120.2833334, 22.7261967], [120.2833211, 22.7262924], [120.2834458, 22.726306], [120.2834581, 22.7262103], [120.2833334, 22.7261967]]]}}, {"type": "Feature", "properties": {"height": 8.0}, "geometry": {"type": "Polygon", "coordinates": [[[120.2833246, 22.7263557], [120.2833132, 22.7264513], [120.2834353, 22.7264637], [120.2834467, 22.7263681], [120.2833246, 22.7263557]]]}}, {"type": "Feature", "properties": {"height": 8.0}, "geometry": {"type": "Polygon", "coordinates": [[[120.2831208, 22.7263303], [120.2831072, 22.7264273], [120.2832373, 22.7264428], [120.2832509, 22.7263458], [120.2831208, 22.7263303]]]}}, {"type": "Feature", "properties": {"height": 8.0}, "geometry": {"type": "Polygon", "coordinates": [[[120.2831449, 22.7265629], [120.283138, 22.7266216], [120.2832976, 22.7266377], [120.2833045, 22.726579], [120.2831449, 22.7265629]]]}}, {"type": "Feature", "properties": {"height": 8.0}, "geometry": {"type": "Polygon", "coordinates": [[[120.2831416, 22.7264491], [120.2831283, 22.726547], [120.2833107, 22.726568], [120.283324, 22.7264701], [120.2831416, 22.7264491]]]}}, {"type": "Feature", "properties": {"height": 8.0}, "geometry": {"type": "Polygon", "coordinates": [[[120.2836521, 22.7267673], [120.2836438, 22.7268171], [120.2837485, 22.7268318], [120.2837567, 22.7267821], [120.2836521, 22.7267673]]]}}, {"type": "Feature", "properties": {"height": 8.0}, "geometry": {"type": "Polygon", "coordinates": [[[120.2836603, 22.7267176], [120.2836521, 22.7267673], [120.2837567, 22.7267821], [120.2837649, 22.7267323], [120.2836603, 22.7267176]]]}}, {"type": "Feature", "properties": {"height": 8.0}, "geometry": {"type": "Polygon", "coordinates": [[[120.2836685, 22.7266678], [120.2836603, 22.7267176], [120.2837649, 22.7267323], [120.2837732, 22.7266826], [120.2836685, 22.7266678]]]}}, {"type": "Feature", "properties": {"height": 8.0}, "geometry": {"type": "Polygon", "coordinates": [[[120.2836768, 22.7266181], [120.2836685, 22.7266678], [120.2837732, 22.7266826], [120.2837814, 22.7266328], [120.2836768, 22.7266181]]]}}, {"type": "Feature", "properties": {"height": 8.0}, "geometry": {"type": "Polygon", "coordinates": [[[120.283685, 22.7265684], [120.2836768, 22.7266181], [120.2837814, 22.7266328], [120.2837896, 22.7265831], [120.283685, 22.7265684]]]}}, {"type": "Feature", "properties": {"height": 8.0}, "geometry": {"type": "Polygon", "coordinates": [[[120.2836933, 22.7265186], [120.283685, 22.7265684], [120.2837896, 22.7265831], [120.2837979, 22.7265334], [120.2836933, 22.7265186]]]}}, {"type": "Feature", "properties": {"height": 8.0}, "geometry": {"type": "Polygon", "coordinates": [[[120.2837015, 22.7264689], [120.2836933, 22.7265186], [120.2837979, 22.7265334], [120.2838061, 22.7264836], [120.2837015, 22.7264689]]]}}, {"type": "Feature", "properties": {"height": 8.0}, "geometry": {"type": "Polygon", "coordinates": [[[120.2803871, 22.7285428], [120.2803008, 22.7286736], [120.28035, 22.7287012], [120.2804363, 22.7285704], [120.2803871, 22.7285428]]]}}, {"type": "Feature", "properties": {"height": 8.0}, "geometry": {"type": "Polygon", "coordinates": [[[120.2803268, 22.7285089], [120.2802405, 22.7286397], [120.2803008, 22.7286736], [120.2803871, 22.7285428], [120.2803268, 22.7285089]]]}}, {"type": "Feature", "properties": {"height": 8.0}, "geometry": {"type": "Polygon", "coordinates": [[[120.2791679, 22.7273836], [120.2792477, 22.7274325], [120.2793003, 22.7273594], [120.2792205, 22.7273105], [120.2791679, 22.7273836]]]}}, {"type": "Feature", "properties": {"height": 8.0}, "geometry": {"type": "Polygon", "coordinates": [[[120.2791857, 22.7275588], [120.2792503, 22.727475], [120.2791708, 22.7274228], [120.2791062, 22.7275067], [120.2791857, 22.7275588]]]}}, {"type": "Feature", "properties": {"height": 8.0}, "geometry": {"type": "Polygon", "coordinates": [[[120.2789989, 22.7276459], [120.2790784, 22.727698], [120.2791857, 22.7275588], [120.2791062, 22.7275067], [120.2789989, 22.7276459]]]}}, {"type": "Feature", "properties": {"height": 8.0}, "geometry": {"type": "Polygon", "coordinates": [[[120.2796386, 22.7278209], [120.2797986, 22.7279477], [120.2798764, 22.7278642], [120.2797164, 22.7277374], [120.2796386, 22.7278209]]]}}, {"type": "Feature", "properties": {"height": 8.0}, "geometry": {"type": "Polygon", "coordinates": [[[120.2813049, 22.7285637], [120.2813448, 22.7286382], [120.2814957, 22.7285695], [120.2814558, 22.728495], [120.2813049, 22.7285637]]]}}, {"type": "Feature", "properties": {"height": 8.0}, "geometry": {"type": "Polygon", "coordinates": [[[120.2812788, 22.7284907], [120.2813146, 22.7285495], [120.281434, 22.7284877], [120.2813981, 22.7284289], [120.2812788, 22.7284907]]]}}, {"type": "Feature", "properties": {"height": 8.0}, "geometry": {"type": "Polygon", "coordinates": [[[120.2812144, 22.7287219], [120.2812494, 22.728847], [120.2813123, 22.728832], [120.2812772, 22.7287069], [120.2812144, 22.7287219]]]}}, {"type": "Feature", "properties": {"height": 8.0}, "geometry": {"type": "Polygon", "coordinates": [[[120.2813329, 22.7288006], [120.2813777, 22.7288971], [120.2815171, 22.728842], [120.2814723, 22.7287455], [120.2813329, 22.7288006]]]}}, {"type": "Feature", "properties": {"height": 8.0}, "geometry": {"type": "Polygon", "coordinates": [[[120.2813566, 22.7289528], [120.2813761, 22.7290081], [120.2815364, 22.72896], [120.2815169, 22.7289047], [120.2813566, 22.7289528]]]}}, {"type": "Feature", "properties": {"height": 8.0}, "geometry": {"type": "Polygon", "coordinates": [[[120.2822524, 22.7294436], [120.2824861, 22.7294523], [120.2825022, 22.729086], [120.2824772, 22.7290851], [120.2824781, 22.7290651], [120.2823947, 22.729062], [120.2823907, 22.729152], [120.2823507, 22.7291505], [120.2823425, 22.7293379], [120.2822572, 22.7293347], [120.2822524, 22.7294436]]]}}, {"type": "Feature", "properties": {"height": 8.0}, "geometry": {"type": "Polygon", "coordinates": [[[120.2820935, 22.7275085], [120.2821343, 22.7276274], [120.282253, 22.7275928], [120.2822122, 22.7274739], [120.2820935, 22.7275085]]]}}, {"type": "Feature", "properties": {"height": 8.0}, "geometry": {"type": "Polygon", "coordinates": [[[120.2819021, 22.7268867], [120.281923, 22.7269241], [120.2820651, 22.7268567], [120.2820443, 22.7268193], [120.2819021, 22.7268867]]]}}, {"type": "Feature", "properties": {"height": 8.0}, "geometry": {"type": "Polygon", "coordinates": [[[120.2818812, 22.7268493], [120.2819021, 22.7268867], [120.2820443, 22.7268193], [120.2820234, 22.7267819], [120.2818812, 22.7268493]]]}}, {"type": "Feature", "properties": {"height": 8.0}, "geometry": {"type": "Polygon", "coordinates": [[[120.2818604, 22.7268118], [120.2818812, 22.7268493], [120.2820234, 22.7267819], [120.2820025, 22.7267444], [120.2818604, 22.7268118]]]}}, {"type": "Feature", "properties": {"height": 8.0}, "geometry": {"type": "Polygon", "coordinates": [[[120.2818395, 22.7267744], [120.2818604, 22.7268118], [120.2820025, 22.7267444], [120.2819817, 22.726707], [120.2818395, 22.7267744]]]}}, {"type": "Feature", "properties": {"height": 8.0}, "geometry": {"type": "Polygon", "coordinates": [[[120.2818187, 22.726737], [120.2818395, 22.7267744], [120.2819817, 22.726707], [120.2819608, 22.7266696], [120.2818187, 22.726737]]]}}, {"type": "Feature", "properties": {"height": 8.0}, "geometry": {"type": "Polygon", "coordinates": [[[120.2817978, 22.7266996], [120.2818187, 22.726737], [120.2819608, 22.7266696], [120.28194, 22.7266321], [120.2817978, 22.7266996]]]}}, {"type": "Feature", "properties": {"height": 8.0}, "geometry": {"type": "Polygon", "coordinates": [[[120.2820913, 22.7268446], [120.2821069, 22.7268791], [120.2822253, 22.726817], [120.2822091, 22.7267827], [120.2820913, 22.7268446]]]}}, {"type": "Feature", "properties": {"height": 8.0}, "geometry": {"type": "Polygon", "coordinates": [[[120.2820758, 22.7268102], [120.2820913, 22.7268446], [120.2822091, 22.7267827], [120.282193, 22.7267485], [120.2820758, 22.7268102]]]}}, {"type": "Feature", "properties": {"height": 8.0}, "geometry": {"type": "Polygon", "coordinates": [[[120.2820602, 22.7267757], [120.2820758, 22.7268102], [120.282193, 22.7267485], [120.2821768, 22.7267142], [120.2820602, 22.7267757]]]}}, {"type": "Feature", "properties": {"height": 8.0}, "geometry": {"type": "Polygon", "coordinates": [[[120.2820446, 22.7267412], [120.2820602, 22.7267757], [120.2821768, 22.7267142], [120.2821606, 22.72668], [120.2820446, 22.7267412]]]}}, {"type": "Feature", "properties": {"height": 8.0}, "geometry": {"type": "Polygon", "coordinates": [[[120.2820291, 22.7267067], [120.2820446, 22.7267412], [120.2821606, 22.72668], [120.2821445, 22.7266457], [120.2820291, 22.7267067]]]}}, {"type": "Feature", "properties": {"height": 8.0}, "geometry": {"type": "Polygon", "coordinates": [[[120.2820135, 22.7266722], [120.2820291, 22.7267067], [120.2821445, 22.7266457], [120.2821283, 22.7266115], [120.2820135, 22.7266722]]]}}, {"type": "Feature", "properties": {"height": 8.0}, "geometry": {"type": "Polygon", "coordinates": [[[120.2819979, 22.7266377], [120.2820135, 22.7266722], [120.2821283, 22.7266115], [120.2821122, 22.7265772], [120.2819979, 22.7266377]]]}}, {"type": "Feature", "properties": {"height": 8.0}, "geometry": {"type": "Polygon", "coordinates": [[[120.2819823, 22.7266033], [120.2819979, 22.7266377], [120.2821122, 22.7265772], [120.282096, 22.726543], [120.2819823, 22.7266033]]]}}, {"type": "Feature", "properties": {"height": 8.0}, "geometry": {"type": "Polygon", "coordinates": [[[120.2807309, 22.7262227], [120.2807448, 22.7263011], [120.280942, 22.7262714], [120.2809281, 22.726193], [120.2807309, 22.7262227]]]}}, {"type": "Feature", "properties": {"height": 8.0}, "geometry": {"type": "Polygon", "coordinates": [[[120.2795447, 22.7265598], [120.279412, 22.7264979], [120.2793737, 22.7265678], [120.2795065, 22.7266296], [120.2795447, 22.7265598]]]}}, {"type": "Feature", "properties": {"height": 8.0}, "geometry": {"type": "Polygon", "coordinates": [[[120.2789796, 22.726142], [120.2788846, 22.7263139], [120.2789841, 22.7263607], [120.2790791, 22.7261888], [120.2789796, 22.726142]]]}}, {"type": "Feature", "properties": {"height": 8.0}, "geometry": {"type": "Polygon", "coordinates": [[[120.2778898, 22.7267874], [120.2780166, 22.7268746], [120.2780909, 22.7267827], [120.2779641, 22.7266955], [120.2778898, 22.7267874]]]}}, {"type": "Feature", "properties": {"height": 8.0}, "geometry": {"type": "Polygon", "coordinates": [[[120.2778744, 22.726809], [120.277796, 22.7269059], [120.2779254, 22.726995], [120.2780038, 22.7268981], [120.2778744, 22.726809]]]}}, {"type": "Feature", "properties": {"height": 8.0}, "geometry": {"type": "Polygon", "coordinates": [[[120.2787884, 22.7273032], [120.2788571, 22.7273448], [120.2789543, 22.7272081], [120.2788856, 22.7271665], [120.2787884, 22.7273032]]]}}, {"type": "Feature", "properties": {"height": 8.0}, "geometry": {"type": "Polygon", "coordinates": [[[120.2781513, 22.727417], [120.2781125, 22.7274718], [120.2783002, 22.727585], [120.2783391, 22.7275302], [120.2781513, 22.727417]]]}}, {"type": "Feature", "properties": {"height": 8.0}, "geometry": {"type": "Polygon", "coordinates": [[[120.278203, 22.7273348], [120.2781594, 22.7273952], [120.2783532, 22.7275139], [120.2783968, 22.7274535], [120.278203, 22.7273348]]]}}, {"type": "Feature", "properties": {"height": 8.0}, "geometry": {"type": "Polygon", "coordinates": [[[120.2779958, 22.727308], [120.2780997, 22.7273705], [120.2781567, 22.7272899], [120.2780529, 22.7272273], [120.2779958, 22.727308]]]}}, {"type": "Feature", "properties": {"height": 8.0}, "geometry": {"type": "Polygon", "coordinates": [[[120.2779958, 22.727308], [120.2779365, 22.7273917], [120.2780404, 22.7274543], [120.2780997, 22.7273705], [120.2779958, 22.727308]]]}}, {"type": "Feature", "properties": {"height": 8.0}, "geometry": {"type": "Polygon", "coordinates": [[[120.2796466, 22.7288942], [120.2796819, 22.7289162], [120.2797532, 22.7288189], [120.2797179, 22.7287968], [120.2796466, 22.7288942]]]}}, {"type": "Feature", "properties": {"height": 8.0}, "geometry": {"type": "Polygon", "coordinates": [[[120.2796113, 22.7288722], [120.2796466, 22.7288942], [120.2797179, 22.7287968], [120.2796826, 22.7287748], [120.2796113, 22.7288722]]]}}, {"type": "Feature", "properties": {"height": 8.0}, "geometry": {"type": "Polygon", "coordinates": [[[120.279576, 22.7288501], [120.2796113, 22.7288722], [120.2796826, 22.7287748], [120.2796472, 22.7287528], [120.279576, 22.7288501]]]}}, {"type": "Feature", "properties": {"height": 8.0}, "geometry": {"type": "Polygon", "coordinates": [[[120.2795406, 22.7288281], [120.279576, 22.7288501], [120.2796472, 22.7287528], [120.2796119, 22.7287308], [120.2795406, 22.7288281]]]}}, {"type": "Feature", "properties": {"height": 8.0}, "geometry": {"type": "Polygon", "coordinates": [[[120.2795053, 22.7288061], [120.2795406, 22.7288281], [120.2796119, 22.7287308], [120.2795766, 22.7287088], [120.2795053, 22.7288061]]]}}, {"type": "Feature", "properties": {"height": 8.0}, "geometry": {"type": "Polygon", "coordinates": [[[120.27947, 22.7287841], [120.2795053, 22.7288061], [120.2795766, 22.7287088], [120.2795413, 22.7286868], [120.27947, 22.7287841]]]}}, {"type": "Feature", "properties": {"height": 8.0}, "geometry": {"type": "Polygon", "coordinates": [[[120.2797162, 22.7283459], [120.2796784, 22.7283219], [120.2795897, 22.7284406], [120.2796275, 22.7284646], [120.2797162, 22.7283459]]]}}, {"type": "Feature", "properties": {"height": 8.0}, "geometry": {"type": "Polygon", "coordinates": [[[120.279754, 22.72837], [120.2797162, 22.7283459], [120.2796275, 22.7284646], [120.2796653, 22.7284887], [120.279754, 22.72837]]]}}, {"type": "Feature", "properties": {"height": 8.0}, "geometry": {"type": "Polygon", "coordinates": [[[120.2797918, 22.728394], [120.279754, 22.72837], [120.2796653, 22.7284887], [120.2797031, 22.7285127], [120.2797918, 22.728394]]]}}, {"type": "Feature", "properties": {"height": 8.0}, "geometry": {"type": "Polygon", "coordinates": [[[120.2798296, 22.7284181], [120.2797918, 22.728394], [120.2797031, 22.7285127], [120.2797409, 22.7285368], [120.2798296, 22.7284181]]]}}, {"type": "Feature", "properties": {"height": 8.0}, "geometry": {"type": "Polygon", "coordinates": [[[120.2798674, 22.7284421], [120.2798296, 22.7284181], [120.2797409, 22.7285368], [120.2797787, 22.7285608], [120.2798674, 22.7284421]]]}}, {"type": "Feature", "properties": {"height": 8.0}, "geometry": {"type": "Polygon", "coordinates": [[[120.2799053, 22.7284662], [120.2798674, 22.7284421], [120.2797787, 22.7285608], [120.2798165, 22.7285849], [120.2799053, 22.7284662]]]}}, {"type": "Feature", "properties": {"height": 8.0}, "geometry": {"type": "Polygon", "coordinates": [[[120.2799431, 22.7284902], [120.2799053, 22.7284662], [120.2798165, 22.7285849], [120.2798543, 22.7286089], [120.2799431, 22.7284902]]]}}, {"type": "Feature", "properties": {"height": 8.0}, "geometry": {"type": "Polygon", "coordinates": [[[120.2800683, 22.7285572], [120.2800336, 22.7285344], [120.2799486, 22.7286446], [120.2799834, 22.7286674], [120.2800683, 22.7285572]]]}}, {"type": "Feature", "properties": {"height": 8.0}, "geometry": {"type": "Polygon", "coordinates": [[[120.280103, 22.7285799], [120.2800683, 22.7285572], [120.2799834, 22.7286674], [120.2800181, 22.7286902], [120.280103, 22.7285799]]]}}, {"type": "Feature", "properties": {"height": 8.0}, "geometry": {"type": "Polygon", "coordinates": [[[120.2801378, 22.7286027], [120.280103, 22.7285799], [120.2800181, 22.7286902], [120.2800528, 22.7287129], [120.2801378, 22.7286027]]]}}, {"type": "Feature", "properties": {"height": 8.0}, "geometry": {"type": "Polygon", "coordinates": [[[120.2801725, 22.7286255], [120.2801378, 22.7286027], [120.2800528, 22.7287129], [120.2800875, 22.7287357], [120.2801725, 22.7286255]]]}}, {"type": "Feature", "properties": {"height": 8.0}, "geometry": {"type": "Polygon", "coordinates": [[[120.2802072, 22.7286482], [120.2801725, 22.7286255], [120.2800875, 22.7287357], [120.2801222, 22.7287585], [120.2802072, 22.7286482]]]}}, {"type": "Feature", "properties": {"height": 8.0}, "geometry": {"type": "Polygon", "coordinates": [[[120.2801702, 22.7288189], [120.2802433, 22.7288672], [120.2803446, 22.7287367], [120.2802715, 22.7286884], [120.2801702, 22.7288189]]]}}, {"type": "Feature", "properties": {"height": 8.0}, "geometry": {"type": "Polygon", "coordinates": [[[120.2802419, 22.728671], [120.2802072, 22.7286482], [120.2801222, 22.7287585], [120.280157, 22.7287812], [120.2802419, 22.728671]]]}}, {"type": "Feature", "properties": {"height": 8.0}, "geometry": {"type": "Polygon", "coordinates": [[[120.2799809, 22.7285142], [120.2799431, 22.7284902], [120.2798543, 22.7286089], [120.2798921, 22.7286329], [120.2799809, 22.7285142]]]}}, {"type": "Feature", "properties": {"height": 8.0}, "geometry": {"type": "Polygon", "coordinates": [[[120.2834883, 22.725149], [120.2834692, 22.7252043], [120.2836294, 22.7252514], [120.2836485, 22.725196], [120.2834883, 22.725149]]]}}, {"type": "Feature", "properties": {"height": 8.0}, "geometry": {"type": "Polygon", "coordinates": [[[120.2842097, 22.7267676], [120.2841718, 22.7267553], [120.284126, 22.7268753], [120.2841639, 22.7268876], [120.2842097, 22.7267676]]]}}, {"type": "Feature", "properties": {"height": 8.0}, "geometry": {"type": "Polygon", "coordinates": [[[120.2840187, 22.7266488], [120.2839994, 22.7266992], [120.2841718, 22.7267553], [120.2842097, 22.7267676], [120.2842582, 22.7267834], [120.2842775, 22.726733], [120.2840187, 22.7266488]]]}}, {"type": "Feature", "properties": {"height": 8.0}, "geometry": {"type": "Polygon", "coordinates": [[[120.2839137, 22.7275411], [120.2839158, 22.7276045], [120.2840235, 22.7276015], [120.2840213, 22.727538], [120.2839137, 22.7275411]]]}}, {"type": "Feature", "properties": {"height": 8.0}, "geometry": {"type": "Polygon", "coordinates": [[[120.2838445, 22.7277335], [120.2839123, 22.7277229], [120.2838881, 22.7275917], [120.2838203, 22.7276023], [120.2838445, 22.7277335]]]}}, {"type": "Feature", "properties": {"height": 8.0}, "geometry": {"type": "Polygon", "coordinates": [[[120.283697, 22.7276216], [120.2837259, 22.7277514], [120.283827, 22.7277323], [120.283798, 22.7276024], [120.283697, 22.7276216]]]}}, {"type": "Feature", "properties": {"height": 8.0}, "geometry": {"type": "Polygon", "coordinates": [[[120.2836207, 22.7277628], [120.2837022, 22.7277476], [120.283677, 22.727633], [120.2835956, 22.7276482], [120.2836207, 22.7277628]]]}}, {"type": "Feature", "properties": {"height": 8.0}, "geometry": {"type": "Polygon", "coordinates": [[[120.2853973, 22.7304432], [120.2854299, 22.730502], [120.2855579, 22.7304417], [120.2855254, 22.7303829], [120.2853973, 22.7304432]]]}}, {"type": "Feature", "properties": {"height": 8.0}, "geometry": {"type": "Polygon", "coordinates": [[[120.2851915, 22.7299992], [120.2852554, 22.7301047], [120.2853406, 22.7300608], [120.2852766, 22.7299553], [120.2851915, 22.7299992]]]}}, {"type": "Feature", "properties": {"height": 8.0}, "geometry": {"type": "Polygon", "coordinates": [[[120.2854194, 22.7301807], [120.2854882, 22.7301483], [120.2854347, 22.7300515], [120.2853658, 22.7300839], [120.2854194, 22.7301807]]]}}, {"type": "Feature", "properties": {"height": 8.0}, "geometry": {"type": "Polygon", "coordinates": [[[120.2852659, 22.7301309], [120.2853194, 22.7302277], [120.2854194, 22.7301807], [120.2853658, 22.7300839], [120.2852659, 22.7301309]]]}}, {"type": "Feature", "properties": {"height": 8.0}, "geometry": {"type": "Polygon", "coordinates": [[[120.2860441, 22.7297986], [120.2860862, 22.7298715], [120.2861592, 22.7298356], [120.2861171, 22.7297627], [120.2860441, 22.7297986]]]}}, {"type": "Feature", "properties": {"height": 8.0}, "geometry": {"type": "Polygon", "coordinates": [[[120.286118, 22.7299289], [120.2862622, 22.7302735], [120.2863655, 22.7302368], [120.2862214, 22.7298922], [120.286118, 22.7299289]]]}}, {"type": "Feature", "properties": {"height": 8.0}, "geometry": {"type": "Polygon", "coordinates": [[[120.2869541, 22.7298641], [120.2870115, 22.7298413], [120.286936, 22.7296796], [120.2868786, 22.7297024], [120.2869541, 22.7298641]]]}}, {"type": "Feature", "properties": {"height": 8.0}, "geometry": {"type": "Polygon", "coordinates": [[[120.2868103, 22.7297295], [120.2868858, 22.7298912], [120.2869541, 22.7298641], [120.2868786, 22.7297024], [120.2868103, 22.7297295]]]}}, {"type": "Feature", "properties": {"height": 8.0}, "geometry": {"type": "Polygon", "coordinates": [[[120.2864655, 22.7298104], [120.2863996, 22.7298348], [120.2864307, 22.7299062], [120.2864999, 22.7300651], [120.2865658, 22.7300407], [120.2864655, 22.7298104]]]}}, {"type": "Feature", "properties": {"height": 8.0}, "geometry": {"type": "Polygon", "coordinates": [[[120.2865315, 22.729786], [120.2864655, 22.7298104], [120.2865658, 22.7300407], [120.2866318, 22.7300162], [120.2865315, 22.729786]]]}}, {"type": "Feature", "properties": {"height": 8.0}, "geometry": {"type": "Polygon", "coordinates": [[[120.2865974, 22.7297615], [120.2865315, 22.729786], [120.2866318, 22.7300162], [120.2866977, 22.7299918], [120.2865974, 22.7297615]]]}}, {"type": "Feature", "properties": {"height": 8.0}, "geometry": {"type": "Polygon", "coordinates": [[[120.2866634, 22.7297371], [120.2865974, 22.7297615], [120.2866977, 22.7299918], [120.2867637, 22.7299674], [120.2866634, 22.7297371]]]}}, {"type": "Feature", "properties": {"height": 8.0}, "geometry": {"type": "Polygon", "coordinates": [[[120.2863778, 22.7299258], [120.286447, 22.7300847], [120.2864999, 22.7300651], [120.2864307, 22.7299062], [120.2863778, 22.7299258]]]}}, {"type": "Feature", "properties": {"height": 8.0}, "geometry": {"type": "Polygon", "coordinates": [[[120.2867293, 22.7297127], [120.2866634, 22.7297371], [120.2867637, 22.7299674], [120.2868296, 22.729943], [120.2867293, 22.7297127]]]}}, {"type": "Feature", "properties": {"height": 8.0}, "geometry": {"type": "Polygon", "coordinates": [[[120.2853423, 22.7279032], [120.2854988, 22.7279376], [120.2855118, 22.7278872], [120.2855971, 22.7279059], [120.2856233, 22.7278043], [120.285538, 22.7277856], [120.2855498, 22.72774], [120.2856696, 22.7277628], [120.2857315, 22.7275773], [120.2854324, 22.7275542], [120.2853423, 22.7279032]]]}}, {"type": "Feature", "properties": {"height": 8.0}, "geometry": {"type": "Polygon", "coordinates": [[[120.286835, 22.7271003], [120.286946, 22.7271201], [120.2870003, 22.726861], [120.2868893, 22.7268412], [120.286835, 22.7271003]]]}}, {"type": "Feature", "properties": {"height": 8.0}, "geometry": {"type": "Polygon", "coordinates": [[[120.2870482, 22.7261132], [120.2870384, 22.7261747], [120.2873811, 22.7262211], [120.2873909, 22.7261596], [120.2870482, 22.7261132]]]}}, {"type": "Feature", "properties": {"height": 8.0}, "geometry": {"type": "Polygon", "coordinates": [[[120.2867317, 22.7263674], [120.2867183, 22.7264231], [120.2869443, 22.7264695], [120.2869577, 22.7264138], [120.2867317, 22.7263674]]]}}, {"type": "Feature", "properties": {"height": 8.0}, "geometry": {"type": "Polygon", "coordinates": [[[120.2865887, 22.7265601], [120.2865749, 22.7266132], [120.2867365, 22.726649], [120.2867503, 22.726596], [120.2865887, 22.7265601]]]}}, {"type": "Feature", "properties": {"height": 8.0}, "geometry": {"type": "Polygon", "coordinates": [[[120.2866025, 22.7265071], [120.2865887, 22.7265601], [120.2867503, 22.726596], [120.2867641, 22.7265429], [120.2866025, 22.7265071]]]}}, {"type": "Feature", "properties": {"height": 8.0}, "geometry": {"type": "Polygon", "coordinates": [[[120.2866164, 22.726454], [120.2866025, 22.7265071], [120.2867641, 22.7265429], [120.286778, 22.7264899], [120.2866164, 22.726454]]]}}, {"type": "Feature", "properties": {"height": 8.0}, "geometry": {"type": "Polygon", "coordinates": [[[120.2861954, 22.7261136], [120.2861587, 22.7262951], [120.2862523, 22.7263112], [120.2862592, 22.7262768], [120.2863101, 22.7262856], [120.2863032, 22.72632], [120.2863976, 22.7263362], [120.2864343, 22.7261547], [120.2863462, 22.7261395], [120.2863396, 22.7261722], [120.2862857, 22.7261629], [120.2862923, 22.7261302], [120.2861954, 22.7261136]]]}}, {"type": "Feature", "properties": {"height": 8.0}, "geometry": {"type": "Polygon", "coordinates": [[[120.2819805, 22.725451], [120.2819465, 22.7255206], [120.282065, 22.7255698], [120.282099, 22.7255002], [120.2819805, 22.725451]]]}}, {"type": "Feature", "properties": {"height": 8.0}, "geometry": {"type": "Polygon", "coordinates": [[[120.2820145, 22.7253814], [120.2819805, 22.725451], [120.282099, 22.7255002], [120.282133, 22.7254306], [120.2820145, 22.7253814]]]}}, {"type": "Feature", "properties": {"height": 8.0}, "geometry": {"type": "Polygon", "coordinates": [[[120.2820485, 22.7253118], [120.2820145, 22.7253814], [120.282133, 22.7254306], [120.282167, 22.725361], [120.2820485, 22.7253118]]]}}, {"type": "Feature", "properties": {"height": 8.0}, "geometry": {"type": "Polygon", "coordinates": [[[120.2820825, 22.7252422], [120.2820485, 22.7253118], [120.282167, 22.725361], [120.282201, 22.7252914], [120.2820825, 22.7252422]]]}}, {"type": "Feature", "properties": {"height": 8.0}, "geometry": {"type": "Polygon", "coordinates": [[[120.2821165, 22.7251726], [120.2820825, 22.7252422], [120.282201, 22.7252914], [120.282235, 22.7252218], [120.2821165, 22.7251726]]]}}, {"type": "Feature", "properties": {"height": 8.0}, "geometry": {"type": "Polygon", "coordinates": [[[120.2821505, 22.725103], [120.2821165, 22.7251726], [120.282235, 22.7252218], [120.282269, 22.7251522], [120.2821505, 22.725103]]]}}, {"type": "Feature", "properties": {"height": 8.0}, "geometry": {"type": "Polygon", "coordinates": [[[120.2821631, 22.724949], [120.2821382, 22.7250012], [120.2822525, 22.7250476], [120.2822774, 22.7249953], [120.2821631, 22.724949]]]}}, {"type": "Feature", "properties": {"height": 8.0}, "geometry": {"type": "Polygon", "coordinates": [[[120.2821845, 22.7250334], [120.2821505, 22.725103], [120.282269, 22.7251522], [120.282303, 22.7250826], [120.2821845, 22.7250334]]]}}, {"type": "Feature", "properties": {"height": 8.0}, "geometry": {"type": "Polygon", "coordinates": [[[120.2825889, 22.7246929], [120.282526, 22.7246703], [120.2824823, 22.7247739], [120.2825452, 22.7247964], [120.2825889, 22.7246929]]]}}, {"type": "Feature", "properties": {"height": 8.0}, "geometry": {"type": "Polygon", "coordinates": [[[120.2826517, 22.7247154], [120.2825889, 22.7246929], [120.2825452, 22.7247964], [120.282608, 22.724819], [120.2826517, 22.7247154]]]}}, {"type": "Feature", "properties": {"height": 8.0}, "geometry": {"type": "Polygon", "coordinates": [[[120.2827146, 22.724738], [120.2826517, 22.7247154], [120.282608, 22.724819], [120.2826709, 22.7248416], [120.2827146, 22.724738]]]}}, {"type": "Feature", "properties": {"height": 8.0}, "geometry": {"type": "Polygon", "coordinates": [[[120.2827775, 22.7247606], [120.2827146, 22.724738], [120.2826709, 22.7248416], [120.2827338, 22.7248642], [120.2827775, 22.7247606]]]}}, {"type": "Feature", "properties": {"height": 8.0}, "geometry": {"type": "Polygon", "coordinates": [[[120.2829337, 22.724776], [120.282876, 22.7248985], [120.2830752, 22.7249783], [120.2831329, 22.7248558], [120.2829337, 22.724776]]]}}, {"type": "Feature", "properties": {"height": 8.0}, "geometry": {"type": "Polygon", "coordinates": [[[120.2811413, 22.7253146], [120.2811109, 22.7253706], [120.2812612, 22.7254401], [120.2812916, 22.7253841], [120.2811413, 22.7253146]]]}}, {"type": "Feature", "properties": {"height": 8.0}, "geometry": {"type": "Polygon", "coordinates": [[[120.2827753, 22.7252197], [120.2826858, 22.7254329], [120.2828452, 22.7254897], [120.2829346, 22.7252765], [120.2827753, 22.7252197]]]}}, {"type": "Feature", "properties": {"height": 8.0}, "geometry": {"type": "Polygon", "coordinates": [[[120.2831899, 22.7251997], [120.2831242, 22.7253334], [120.2832603, 22.7253903], [120.283326, 22.7252566], [120.2831899, 22.7251997]]]}}, {"type": "Feature", "properties": {"height": 8.0}, "geometry": {"type": "Polygon", "coordinates": [[[120.283202, 22.725118], [120.2831877, 22.7251489], [120.2833145, 22.725199], [120.2833288, 22.7251681], [120.283202, 22.725118]]]}}, {"type": "Feature", "properties": {"height": 8.0}, "geometry": {"type": "Polygon", "coordinates": [[[120.283345, 22.7251333], [120.2832182, 22.7250832], [120.283202, 22.725118], [120.2833288, 22.7251681], [120.283345, 22.7251333]]]}}, {"type": "Feature", "properties": {"height": 8.0}, "geometry": {"type": "Polygon", "coordinates": [[[120.2832328, 22.7250519], [120.2832182, 22.7250832], [120.283345, 22.7251333], [120.2833595, 22.725102], [120.2832328, 22.7250519]]]}}, {"type": "Feature", "properties": {"height": 8.0}, "geometry": {"type": "Polygon", "coordinates": [[[120.282882, 22.7250776], [120.2828509, 22.7251461], [120.2829794, 22.7251956], [120.2830105, 22.725127], [120.282882, 22.7250776]]]}}, {"type": "Feature", "properties": {"height": 8.0}, "geometry": {"type": "Polygon", "coordinates": [[[120.2828625, 22.7249875], [120.2828339, 22.7250495], [120.2830197, 22.7251225], [120.2830484, 22.7250605], [120.2828625, 22.7249875]]]}}, {"type": "Feature", "properties": {"height": 8.0}, "geometry": {"type": "Polygon", "coordinates": [[[120.2810773, 22.7321291], [120.2812867, 22.7322368], [120.2817009, 22.7323768], [120.2815552, 22.7327042], [120.2811289, 22.7325545], [120.2811471, 22.7324999], [120.2810834, 22.7324677], [120.2810515, 22.7325181], [120.2807465, 22.7323334], [120.2809438, 22.7320521], [120.2810652, 22.7321389], [120.2810773, 22.7321291]]]}}, {"type": "Feature", "properties": {"height": 8.0}, "geometry": {"type": "Polygon", "coordinates": [[[120.2784259, 22.7364565], [120.2783485, 22.7362242], [120.2784366, 22.7361906], [120.2784032, 22.7360786], [120.2785352, 22.7360464], [120.2784988, 22.7359513], [120.2787916, 22.7358617], [120.2788204, 22.7359415], [120.2789737, 22.7358953], [120.2790283, 22.7360674], [120.2789008, 22.7361052], [120.2789464, 22.7362214], [120.2788386, 22.7362494], [120.2788705, 22.7363361], [120.2784259, 22.7364565]]]}}, {"type": "Feature", "properties": {"height": 8.0}, "geometry": {"type": "Polygon", "coordinates": [[[120.2761801, 22.731955], [120.2762101, 22.731974], [120.2759611, 22.7323066], [120.2757111, 22.7321474], [120.2757385, 22.7321108], [120.2758727, 22.7321962], [120.2760556, 22.7319519], [120.275993, 22.7319121], [120.2760603, 22.7318221], [120.2762088, 22.7319167], [120.2761801, 22.731955]]]}}, {"type": "Feature", "properties": {"height": 8.0}, "geometry": {"type": "Polygon", "coordinates": [[[120.286198, 22.7248159], [120.286403, 22.7248668], [120.286707, 22.7238242], [120.2865022, 22.7237733], [120.286198, 22.7248159]]]}}, {"type": "Feature", "properties": {"height": 8.0}, "geometry": {"type": "Polygon", "coordinates": [[[120.279622, 22.7255271], [120.2796587, 22.7253689], [120.2797857, 22.7253939], [120.2797637, 22.7254887], [120.2797175, 22.7254901], [120.2797098, 22.7255214], [120.279622, 22.7255271]]]}}, {"type": "Feature", "properties": {"height": 8.0}, "geometry": {"type": "Polygon", "coordinates": [[[120.2904483, 22.7271998], [120.2906062, 22.7271742], [120.2905264, 22.7267553], [120.2903684, 22.7267809], [120.2904483, 22.7271998]]]}}, {"type": "Feature", "properties": {"height": 8.0}, "geometry": {"type": "Polygon", "coordinates": [[[120.273848, 22.7287492], [120.2741481, 22.7283303], [120.2737217, 22.7280704], [120.2734216, 22.7284894], [120.273848, 22.7287492]]]}}, {"type": "Feature", "properties": {"height": 8.0}, "geometry": {"type": "Polygon", "coordinates": [[[120.2749453, 22.7271714], [120.2751489, 22.7268794], [120.2753388, 22.7269921], [120.2751351, 22.7272841], [120.2749453, 22.7271714]]]}}, {"type": "Feature", "properties": {"height": 3.2}, "geometry": {"type": "Polygon", "coordinates": [[[120.2747116, 22.7270994], [120.2750696, 22.7273209], [120.27492, 22.7275267], [120.2745619, 22.7273051], [120.2747116, 22.7270994]]]}}, {"type": "Feature", "properties": {"height": 8.0}, "geometry": {"type": "Polygon", "coordinates": [[[120.2670225, 22.7359388], [120.2671525, 22.7357796], [120.2678885, 22.7362909], [120.2677586, 22.73645], [120.2670225, 22.7359388]]]}}, {"type": "Feature", "properties": {"height": 8.0}, "geometry": {"type": "Polygon", "coordinates": [[[120.2665464, 22.7348716], [120.2667399, 22.7345716], [120.2669357, 22.7346791], [120.2667422, 22.734979], [120.2665464, 22.7348716]]]}}, {"type": "Feature", "properties": {"height": 8.0}, "geometry": {"type": "Polygon", "coordinates": [[[120.2659858, 22.7349596], [120.2660758, 22.7348544], [120.2662005, 22.7349453], [120.2661105, 22.7350504], [120.2659858, 22.7349596]]]}}, {"type": "Feature", "properties": {"height": 8.0}, "geometry": {"type": "Polygon", "coordinates": [[[120.2668431, 22.7334937], [120.2669047, 22.7333899], [120.2670615, 22.733469], [120.2669998, 22.7335729], [120.2668431, 22.7334937]]]}}, {"type": "Feature", "properties": {"height": 8.0}, "geometry": {"type": "Polygon", "coordinates": [[[120.275551, 22.7398663], [120.2753754, 22.7393502], [120.275553, 22.7392988], [120.2757287, 22.7398149], [120.275551, 22.7398663]]]}}, {"type": "Feature", "properties": {"height": 8.0}, "geometry": {"type": "Polygon", "coordinates": [[[120.2908134, 22.7351068], [120.2908118, 22.7353033], [120.2910521, 22.7353049], [120.2910537, 22.7351085], [120.2908134, 22.7351068]]]}}, {"type": "Feature", "properties": {"height": 8.0}, "geometry": {"type": "Polygon", "coordinates": [[[120.2912841, 22.7345153], [120.2912891, 22.7348979], [120.2915172, 22.7348953], [120.2915122, 22.7345128], [120.2912841, 22.7345153]]]}}, {"type": "Feature", "properties": {"height": 8.0}, "geometry": {"type": "Polygon", "coordinates": [[[120.292251, 22.735219], [120.2922557, 22.7349844], [120.2919549, 22.7349794], [120.2919515, 22.7351548], [120.2919886, 22.7351554], [120.2919874, 22.7352146], [120.292251, 22.735219]]]}}, {"type": "Feature", "properties": {"height": 8.0}, "geometry": {"type": "Polygon", "coordinates": [[[120.2906776, 22.7345255], [120.2906814, 22.7346208], [120.2908166, 22.7346161], [120.2908166, 22.7346567], [120.2908797, 22.7346546], [120.2910443, 22.7345615], [120.2910373, 22.7345131], [120.2906776, 22.7345255]]]}}, {"type": "Feature", "properties": {"height": 8.0}, "geometry": {"type": "Polygon", "coordinates": [[[120.2908118, 22.7353033], [120.2908103, 22.7354998], [120.2910506, 22.7355014], [120.2910521, 22.7353049], [120.2908118, 22.7353033]]]}}, {"type": "Feature", "properties": {"height": 8.0}, "geometry": {"type": "Polygon", "coordinates": [[[120.2919874, 22.7352146], [120.2919836, 22.7354088], [120.2922472, 22.7354132], [120.292251, 22.735219], [120.2919874, 22.7352146]]]}}]}