{"type":"FeatureCollection","features":[{"type":"Feature","id":"natural-earth/taiwan-ocean","properties":{"feature_category":"water_area","water_type":"ocean","name":"台灣周邊海域","source":"Natural Earth 1:10m + OpenStreetMap local coastline"},"geometry":{"type":"Polygon","coordinates":[[[117.5,19.5],[117.5,26.8],[123.5,26.8],[123.5,19.5],[117.5,19.5]],[[121.905772,24.9501],[121.926768,24.96662],[122.005382,25.001899],[121.997732,25.010688],[121.96754,25.021064],[121.953868,25.022366],[121.927257,25.018704],[121.9192,25.02204],[121.90919,25.036038],[121.899913,25.065985],[121.897227,25.083889],[121.905121,25.106594],[121.892833,25.113674],[121.703868,25.156887],[121.676443,25.179389],[121.676117,25.186916],[121.684418,25.200507],[121.676117,25.202582],[121.649669,25.197089],[121.635997,25.222805],[121.597911,25.27143],[121.580821,25.283026],[121.539724,25.287421],[121.497813,25.278754],[121.461274,25.261908],[121.43629,25.241441],[121.41627,25.203599],[121.399099,25.192125],[121.395763,25.182807],[121.4074,25.176215],[121.429454,25.155992],[121.443207,25.13642],[121.430024,25.131578],[121.412283,25.155463],[121.398936,25.159491],[121.378754,25.157945],[121.348318,25.137112],[121.330251,25.130683],[121.210948,25.111151],[121.176931,25.100043],[121.129405,25.071112],[121.059337,25.050238],[121.031993,25.029242],[121.005544,25.000678],[120.963878,24.940416],[120.955333,24.919379],[120.953624,24.905015],[120.944021,24.902045],[120.926036,24.884711],[120.920584,24.861396],[120.902354,24.836819],[120.90919,24.816881],[120.876964,24.761908],[120.871349,24.743232],[120.857677,24.737006],[120.847504,24.710842],[120.823009,24.685045],[120.826671,24.666083],[120.799327,24.670803],[120.778087,24.665717],[120.74464,24.638821],[120.727875,24.613918],[120.702159,24.607001],[120.6963,24.597724],[120.690196,24.576117],[120.667735,24.540025],[120.659353,24.520697],[120.656016,24.49787],[120.648936,24.483873],[120.570811,24.404934],[120.558116,24.385891],[120.547374,24.351549],[120.511974,24.295559],[120.493175,24.230658],[120.480642,24.221096],[120.477794,24.209662],[120.422048,24.152167],[120.41863,24.142524],[120.416352,24.107489],[120.411876,24.09691],[120.392345,24.082913],[120.385509,24.063056],[120.350352,24.038072],[120.340099,24.021796],[120.318126,23.965806],[120.302501,23.93887],[120.292247,23.911933],[120.257498,23.878404],[120.240733,23.832831],[120.219493,23.817939],[120.212657,23.803168],[120.18922,23.774807],[120.184418,23.76439],[120.175548,23.733832],[120.170805,23.698902],[120.15423,23.672212],[120.143609,23.638036],[120.141689,23.537947],[120.124262,23.520021],[120.125029,23.489611],[120.157544,23.491476],[120.1421,23.47309],[120.130544,23.450995],[120.1421,23.445787],[120.1421,23.438951],[120.134776,23.426256],[120.150645,23.398139],[120.164577,23.361711],[120.130149,23.36096],[120.120779,23.341254],[120.120942,23.329739],[120.137341,23.327734],[120.145763,23.333319],[120.148936,23.322252],[120.143565,23.323879],[120.13118,23.31881],[120.116527,23.317897],[120.110494,23.303699],[120.124685,23.294989],[120.114919,23.292711],[120.108897,23.286689],[120.096039,23.255357],[120.096098,23.239491],[120.087444,23.230288],[120.078624,23.206977],[120.086925,23.182034],[120.081879,23.173163],[120.062022,23.165025],[120.059418,23.151028],[120.086274,23.126939],[120.089203,23.117743],[120.059418,23.117499],[120.059418,23.110663],[120.094981,23.102484],[120.100434,23.096991],[120.096446,23.086412],[120.070567,23.081204],[120.059418,23.075873],[120.052419,23.055813],[120.055186,23.043687],[120.066254,23.034898],[120.076671,23.037421],[120.092459,23.054755],[120.107921,23.04857],[120.111013,23.039984],[120.109141,23.015448],[120.114106,23.007636],[120.12672,23.007148],[120.1421,23.034898],[120.166189,23.031724],[120.170258,23.013373],[120.160167,22.992133],[120.1421,22.980292],[120.156912,22.966539],[120.163829,22.953843],[120.175548,22.884101],[120.191417,22.852037],[120.203461,22.839667],[120.196462,22.81859],[120.199962,22.792467],[120.2137839,22.8031412],[120.2140965,22.8023296],[120.2146411,22.8016353],[120.2150024,22.8010832],[120.215824,22.7997244],[120.2161169,22.7989932],[120.2164422,22.7983781],[120.2167658,22.7976397],[120.2172177,22.7969467],[120.2177836,22.7960535],[120.2182772,22.7949337],[120.2194202,22.7934459],[120.2201347,22.7921003],[120.2202144,22.7918507],[120.2202502,22.7917386],[120.2203472,22.7914347],[120.2211407,22.7901153],[120.2218982,22.7886002],[120.2225414,22.7870237],[120.2229102,22.7856699],[120.2232648,22.7848294],[120.2238168,22.7835418],[120.2244488,22.7823117],[120.2256008,22.7803138],[120.226186,22.7789177],[120.2265746,22.7782529],[120.2267325,22.7779183],[120.226994,22.777552],[120.2274377,22.776623],[120.2279724,22.7756199],[120.2290368,22.7736463],[120.2292044,22.773128],[120.2300512,22.7712292],[120.2304198,22.7703814],[120.2306875,22.7695537],[120.2311253,22.7688546],[120.2312662,22.7685432],[120.2316257,22.7677488],[120.2321455,22.766763],[120.2323446,22.7661712],[120.232655,22.7654107],[120.232867,22.7649354],[120.2331231,22.7642648],[120.2331925,22.7640526],[120.23331,22.7637354],[120.2334121,22.7635948],[120.2333938,22.7633823],[120.233386,22.7632912],[120.233014,22.7626931],[120.2309533,22.7619382],[120.2292891,22.7610805],[120.2291751,22.760782],[120.2298317,22.7606012],[120.2310491,22.760597],[120.232043,22.7603195],[120.2329504,22.7599075],[120.2336375,22.7601973],[120.2339313,22.7596831],[120.2341319,22.7592354],[120.235075,22.7586883],[120.235418,22.7581617],[120.2359572,22.7574195],[120.236235,22.7569541],[120.2365057,22.7563659],[120.2367453,22.755681],[120.236973,22.7549363],[120.2371108,22.7546481],[120.2373103,22.7542634],[120.2375973,22.7537638],[120.2378992,22.7532385],[120.2381156,22.7527907],[120.2383732,22.7523082],[120.2388052,22.7516507],[120.2390127,22.7513506],[120.239526,22.7505574],[120.2400591,22.7497857],[120.2401925,22.7495199],[120.2409969,22.7479744],[120.2412671,22.7473804],[120.2416844,22.7464201],[120.2419846,22.7456949],[120.2422745,22.74529],[120.2429665,22.74444],[120.2433094,22.7438129],[120.2436011,22.7432482],[120.2439297,22.7423829],[120.2445758,22.7411971],[120.2451642,22.7402976],[120.2452391,22.7396053],[120.2452895,22.7389101],[120.2454268,22.7384172],[120.2453722,22.7382122],[120.2451672,22.7378227],[120.2452146,22.7375554],[120.245612,22.7369555],[120.2456724,22.7368644],[120.246056,22.7361024],[120.2463274,22.7352918],[120.2468325,22.7346313],[120.247253,22.7334156],[120.2473656,22.7331022],[120.2474958,22.7327013],[120.2478518,22.7320082],[120.2481692,22.731412],[120.248637,22.7307625],[120.2487556,22.7303274],[120.2489458,22.7299617],[120.2495811,22.7287399],[120.2498296,22.7282619],[120.2506523,22.7272221],[120.2505549,22.7270438],[120.2493808,22.7262351],[120.2492048,22.725645],[120.2484509,22.7245839],[120.2484355,22.7242749],[120.2494035,22.7242948],[120.2513834,22.7236667],[120.2526079,22.7240856],[120.2527908,22.7239046],[120.2531064,22.7234725],[120.2534458,22.7230432],[120.2534871,22.7226638],[120.2536587,22.7223732],[120.253718,22.7222235],[120.253874,22.721858],[120.2539925,22.72174],[120.2541017,22.7215962],[120.2544353,22.7210761],[120.254487,22.7208948],[120.2545884,22.7204911],[120.254629,22.7202925],[120.2547259,22.720143],[120.2548351,22.7199876],[120.2550223,22.719625],[120.2550847,22.7191271],[120.2553454,22.7188358],[120.246349,22.709906],[120.252126,22.689643],[120.239594,22.659084],[120.245779,22.642524],[120.258962,22.62759],[120.313487,22.577053],[120.327973,22.551703],[120.333669,22.525946],[120.285167,22.580064],[120.331228,22.519721],[120.38087,22.483873],[120.40211,22.486802],[120.413259,22.482327],[120.457205,22.451606],[120.511974,22.42475],[120.518077,22.406968],[120.538748,22.39643],[120.569672,22.373847],[120.593923,22.329169],[120.621267,22.295071],[120.696951,22.113227],[120.694835,22.102607],[120.685557,22.090155],[120.68336,22.079047],[120.681651,22.022528],[120.68336,22.013861],[120.704356,21.981391],[120.700369,21.948432],[120.714366,21.937486],[120.727306,21.934475],[120.736095,21.942816],[120.737315,21.966132],[120.767426,21.959296],[120.797374,21.946763],[120.82309,21.928616],[120.840343,21.904608],[120.841563,21.925482],[120.836192,21.957709],[120.835704,21.98725],[120.863617,22.008938],[120.873302,22.029975],[120.879242,22.055813],[120.875011,22.289252],[120.881358,22.345933],[120.886567,22.365953],[120.922862,22.42475],[120.941091,22.483629],[120.948253,22.526801],[120.960623,22.547797],[120.991222,22.583075],[121.021007,22.647895],[121.029063,22.657538],[121.039073,22.662421],[121.080251,22.704088],[121.141449,22.741767],[121.177419,22.778632],[121.190278,22.802151],[121.190278,22.843166],[121.20281,22.856513],[121.255626,22.897773],[121.299571,22.959174],[121.318858,23.025539],[121.337087,23.05508],[121.347423,23.083319],[121.381602,23.110663],[121.400076,23.145494],[121.403819,23.179267],[121.403331,23.214748],[121.408865,23.254584],[121.426768,23.293118],[121.453624,23.325995],[121.462169,23.343004],[121.521495,23.658677],[121.539806,23.692816],[121.570323,23.832099],[121.594493,23.891506],[121.611095,23.982489],[121.625011,24.002387],[121.629161,24.01496],[121.628917,24.02619],[121.615001,24.042304],[121.608165,24.060492],[121.607432,24.07685],[121.613048,24.092108],[121.641287,24.129869],[121.652192,24.172187],[121.662852,24.193101],[121.697765,24.21898],[121.700938,24.224189],[121.698253,24.231513],[121.703868,24.238349],[121.721446,24.251166],[121.745291,24.281236],[121.767426,24.30093],[121.772716,24.309231],[121.758556,24.332343],[121.766449,24.347357],[121.771495,24.380561],[121.780772,24.39761],[121.78004,24.432685],[121.806814,24.460639],[121.840017,24.48135],[121.82838,24.510728],[121.830089,24.519232],[121.852794,24.530992],[121.855968,24.550523],[121.850841,24.572984],[121.840831,24.590318],[121.857758,24.597846],[121.881847,24.597805],[121.881847,24.60399],[121.852712,24.608873],[121.827973,24.622789],[121.814952,24.644355],[121.81422,24.672309],[121.819591,24.685981],[121.820323,24.699652],[121.807791,24.753119],[121.806814,24.778754],[121.814626,24.831732],[121.823497,24.854926],[121.834727,24.871527],[121.905772,24.9501]]]}},{"type":"Feature","id":"natural-earth/taiwan-coastline","properties":{"feature_category":"coastline","name":"台灣本島海岸線","source":"Natural Earth 1:10m + OpenStreetMap local coastline"},"geometry":{"type":"LineString","coordinates":[[121.905772,24.9501],[121.834727,24.871527],[121.823497,24.854926],[121.814626,24.831732],[121.806814,24.778754],[121.807791,24.753119],[121.820323,24.699652],[121.819591,24.685981],[121.81422,24.672309],[121.814952,24.644355],[121.827973,24.622789],[121.852712,24.608873],[121.881847,24.60399],[121.881847,24.597805],[121.857758,24.597846],[121.840831,24.590318],[121.850841,24.572984],[121.855968,24.550523],[121.852794,24.530992],[121.830089,24.519232],[121.82838,24.510728],[121.840017,24.48135],[121.806814,24.460639],[121.78004,24.432685],[121.780772,24.39761],[121.771495,24.380561],[121.766449,24.347357],[121.758556,24.332343],[121.772716,24.309231],[121.767426,24.30093],[121.745291,24.281236],[121.721446,24.251166],[121.703868,24.238349],[121.698253,24.231513],[121.700938,24.224189],[121.697765,24.21898],[121.662852,24.193101],[121.652192,24.172187],[121.641287,24.129869],[121.613048,24.092108],[121.607432,24.07685],[121.608165,24.060492],[121.615001,24.042304],[121.628917,24.02619],[121.629161,24.01496],[121.625011,24.002387],[121.611095,23.982489],[121.594493,23.891506],[121.570323,23.832099],[121.539806,23.692816],[121.521495,23.658677],[121.462169,23.343004],[121.453624,23.325995],[121.426768,23.293118],[121.408865,23.254584],[121.403331,23.214748],[121.403819,23.179267],[121.400076,23.145494],[121.381602,23.110663],[121.347423,23.083319],[121.337087,23.05508],[121.318858,23.025539],[121.299571,22.959174],[121.255626,22.897773],[121.20281,22.856513],[121.190278,22.843166],[121.190278,22.802151],[121.177419,22.778632],[121.141449,22.741767],[121.080251,22.704088],[121.039073,22.662421],[121.029063,22.657538],[121.021007,22.647895],[120.991222,22.583075],[120.960623,22.547797],[120.948253,22.526801],[120.941091,22.483629],[120.922862,22.42475],[120.886567,22.365953],[120.881358,22.345933],[120.875011,22.289252],[120.879242,22.055813],[120.873302,22.029975],[120.863617,22.008938],[120.835704,21.98725],[120.836192,21.957709],[120.841563,21.925482],[120.840343,21.904608],[120.82309,21.928616],[120.797374,21.946763],[120.767426,21.959296],[120.737315,21.966132],[120.736095,21.942816],[120.727306,21.934475],[120.714366,21.937486],[120.700369,21.948432],[120.704356,21.981391],[120.68336,22.013861],[120.681651,22.022528],[120.68336,22.079047],[120.685557,22.090155],[120.694835,22.102607],[120.696951,22.113227],[120.621267,22.295071],[120.593923,22.329169],[120.569672,22.373847],[120.538748,22.39643],[120.518077,22.406968],[120.511974,22.42475],[120.457205,22.451606],[120.413259,22.482327],[120.40211,22.486802],[120.38087,22.483873],[120.331228,22.519721],[120.285167,22.580064],[120.333669,22.525946],[120.327973,22.551703],[120.313487,22.577053],[120.258962,22.62759],[120.245779,22.642524],[120.239594,22.659084],[120.252126,22.689643],[120.246349,22.709906],[120.2553454,22.7188358],[120.2550847,22.7191271],[120.2550223,22.719625],[120.2548351,22.7199876],[120.2547259,22.720143],[120.254629,22.7202925],[120.2545884,22.7204911],[120.254487,22.7208948],[120.2544353,22.7210761],[120.2541017,22.7215962],[120.2539925,22.72174],[120.253874,22.721858],[120.253718,22.7222235],[120.2536587,22.7223732],[120.2534871,22.7226638],[120.2534458,22.7230432],[120.2531064,22.7234725],[120.2527908,22.7239046],[120.2526079,22.7240856],[120.2513834,22.7236667],[120.2494035,22.7242948],[120.2484355,22.7242749],[120.2484509,22.7245839],[120.2492048,22.725645],[120.2493808,22.7262351],[120.2505549,22.7270438],[120.2506523,22.7272221],[120.2498296,22.7282619],[120.2495811,22.7287399],[120.2489458,22.7299617],[120.2487556,22.7303274],[120.248637,22.7307625],[120.2481692,22.731412],[120.2478518,22.7320082],[120.2474958,22.7327013],[120.2473656,22.7331022],[120.247253,22.7334156],[120.2468325,22.7346313],[120.2463274,22.7352918],[120.246056,22.7361024],[120.2456724,22.7368644],[120.245612,22.7369555],[120.2452146,22.7375554],[120.2451672,22.7378227],[120.2453722,22.7382122],[120.2454268,22.7384172],[120.2452895,22.7389101],[120.2452391,22.7396053],[120.2451642,22.7402976],[120.2445758,22.7411971],[120.2439297,22.7423829],[120.2436011,22.7432482],[120.2433094,22.7438129],[120.2429665,22.74444],[120.2422745,22.74529],[120.2419846,22.7456949],[120.2416844,22.7464201],[120.2412671,22.7473804],[120.2409969,22.7479744],[120.2401925,22.7495199],[120.2400591,22.7497857],[120.239526,22.7505574],[120.2390127,22.7513506],[120.2388052,22.7516507],[120.2383732,22.7523082],[120.2381156,22.7527907],[120.2378992,22.7532385],[120.2375973,22.7537638],[120.2373103,22.7542634],[120.2371108,22.7546481],[120.236973,22.7549363],[120.2367453,22.755681],[120.2365057,22.7563659],[120.236235,22.7569541],[120.2359572,22.7574195],[120.235418,22.7581617],[120.235075,22.7586883],[120.2341319,22.7592354],[120.2339313,22.7596831],[120.2336375,22.7601973],[120.2329504,22.7599075],[120.232043,22.7603195],[120.2310491,22.760597],[120.2298317,22.7606012],[120.2291751,22.760782],[120.2292891,22.7610805],[120.2309533,22.7619382],[120.233014,22.7626931],[120.233386,22.7632912],[120.2333938,22.7633823],[120.2334121,22.7635948],[120.23331,22.7637354],[120.2331925,22.7640526],[120.2331231,22.7642648],[120.232867,22.7649354],[120.232655,22.7654107],[120.2323446,22.7661712],[120.2321455,22.766763],[120.2316257,22.7677488],[120.2312662,22.7685432],[120.2311253,22.7688546],[120.2306875,22.7695537],[120.2304198,22.7703814],[120.2300512,22.7712292],[120.2292044,22.773128],[120.2290368,22.7736463],[120.2279724,22.7756199],[120.2274377,22.776623],[120.226994,22.777552],[120.2267325,22.7779183],[120.2265746,22.7782529],[120.226186,22.7789177],[120.2256008,22.7803138],[120.2244488,22.7823117],[120.2238168,22.7835418],[120.2232648,22.7848294],[120.2229102,22.7856699],[120.2225414,22.7870237],[120.2218982,22.7886002],[120.2211407,22.7901153],[120.2203472,22.7914347],[120.2202502,22.7917386],[120.2202144,22.7918507],[120.2201347,22.7921003],[120.2194202,22.7934459],[120.2182772,22.7949337],[120.2177836,22.7960535],[120.2172177,22.7969467],[120.2167658,22.7976397],[120.2164422,22.7983781],[120.2161169,22.7989932],[120.215824,22.7997244],[120.2150024,22.8010832],[120.2146411,22.8016353],[120.2140965,22.8023296],[120.2137839,22.8031412],[120.199962,22.792467],[120.196462,22.81859],[120.203461,22.839667],[120.191417,22.852037],[120.175548,22.884101],[120.163829,22.953843],[120.156912,22.966539],[120.1421,22.980292],[120.160167,22.992133],[120.170258,23.013373],[120.166189,23.031724],[120.1421,23.034898],[120.12672,23.007148],[120.114106,23.007636],[120.109141,23.015448],[120.111013,23.039984],[120.107921,23.04857],[120.092459,23.054755],[120.076671,23.037421],[120.066254,23.034898],[120.055186,23.043687],[120.052419,23.055813],[120.059418,23.075873],[120.070567,23.081204],[120.096446,23.086412],[120.100434,23.096991],[120.094981,23.102484],[120.059418,23.110663],[120.059418,23.117499],[120.089203,23.117743],[120.086274,23.126939],[120.059418,23.151028],[120.062022,23.165025],[120.081879,23.173163],[120.086925,23.182034],[120.078624,23.206977],[120.087444,23.230288],[120.096098,23.239491],[120.096039,23.255357],[120.108897,23.286689],[120.114919,23.292711],[120.124685,23.294989],[120.110494,23.303699],[120.116527,23.317897],[120.13118,23.31881],[120.143565,23.323879],[120.148936,23.322252],[120.145763,23.333319],[120.137341,23.327734],[120.120942,23.329739],[120.120779,23.341254],[120.130149,23.36096],[120.164577,23.361711],[120.150645,23.398139],[120.134776,23.426256],[120.1421,23.438951],[120.1421,23.445787],[120.130544,23.450995],[120.1421,23.47309],[120.157544,23.491476],[120.125029,23.489611],[120.124262,23.520021],[120.141689,23.537947],[120.143609,23.638036],[120.15423,23.672212],[120.170805,23.698902],[120.175548,23.733832],[120.184418,23.76439],[120.18922,23.774807],[120.212657,23.803168],[120.219493,23.817939],[120.240733,23.832831],[120.257498,23.878404],[120.292247,23.911933],[120.302501,23.93887],[120.318126,23.965806],[120.340099,24.021796],[120.350352,24.038072],[120.385509,24.063056],[120.392345,24.082913],[120.411876,24.09691],[120.416352,24.107489],[120.41863,24.142524],[120.422048,24.152167],[120.477794,24.209662],[120.480642,24.221096],[120.493175,24.230658],[120.511974,24.295559],[120.547374,24.351549],[120.558116,24.385891],[120.570811,24.404934],[120.648936,24.483873],[120.656016,24.49787],[120.659353,24.520697],[120.667735,24.540025],[120.690196,24.576117],[120.6963,24.597724],[120.702159,24.607001],[120.727875,24.613918],[120.74464,24.638821],[120.778087,24.665717],[120.799327,24.670803],[120.826671,24.666083],[120.823009,24.685045],[120.847504,24.710842],[120.857677,24.737006],[120.871349,24.743232],[120.876964,24.761908],[120.90919,24.816881],[120.902354,24.836819],[120.920584,24.861396],[120.926036,24.884711],[120.944021,24.902045],[120.953624,24.905015],[120.955333,24.919379],[120.963878,24.940416],[121.005544,25.000678],[121.031993,25.029242],[121.059337,25.050238],[121.129405,25.071112],[121.176931,25.100043],[121.210948,25.111151],[121.330251,25.130683],[121.348318,25.137112],[121.378754,25.157945],[121.398936,25.159491],[121.412283,25.155463],[121.430024,25.131578],[121.443207,25.13642],[121.429454,25.155992],[121.4074,25.176215],[121.395763,25.182807],[121.399099,25.192125],[121.41627,25.203599],[121.43629,25.241441],[121.461274,25.261908],[121.497813,25.278754],[121.539724,25.287421],[121.580821,25.283026],[121.597911,25.27143],[121.635997,25.222805],[121.649669,25.197089],[121.676117,25.202582],[121.684418,25.200507],[121.676117,25.186916],[121.676443,25.179389],[121.703868,25.156887],[121.892833,25.113674],[121.905121,25.106594],[121.897227,25.083889],[121.899913,25.065985],[121.90919,25.036038],[121.9192,25.02204],[121.927257,25.018704],[121.953868,25.022366],[121.96754,25.021064],[121.997732,25.010688],[122.005382,25.001899],[121.926768,24.96662],[121.905772,24.9501]]}}]}