{"type":"FeatureCollection","features":[{"type":"Feature","id":"way/28637307","properties":{"osm_id":"28637307","osm_type":"way","name":null,"feature_category":"water_area","water_type":"river","source_tags":{"natural":"water","source":"PGS","water":"river"}},"geometry":{"type":"Polygon","coordinates":[[[120.2741119,22.7626062],[120.2745465,22.762062],[120.2752653,22.7613869],[120.275394,22.7610876],[120.2755193,22.7603114],[120.2756498,22.759823],[120.2757301,22.7594913],[120.275848,22.7584305],[120.2757862,22.7576443],[120.2757003,22.7562925],[120.2756735,22.7560603],[120.2755995,22.7558478],[120.275404,22.7556362],[120.2750909,22.755334],[120.2747018,22.7549827],[120.2743549,22.7546025],[120.2739643,22.7541578],[120.2739006,22.7539883],[120.273603,22.7535506],[120.2734427,22.7533327],[120.2733739,22.7531225],[120.2733545,22.7529283],[120.2734374,22.75248],[120.2735882,22.7515795],[120.273592,22.7513933],[120.2735571,22.7512183],[120.2734589,22.7509309],[120.2733213,22.7507365],[120.2731455,22.7505836],[120.272787,22.7503357],[120.2724148,22.7500973],[120.2721142,22.7498467],[120.2719031,22.7496404],[120.2717339,22.7493526],[120.2716462,22.749093],[120.2716011,22.7488603],[120.271591,22.7486478],[120.2716765,22.7478902],[120.2716941,22.7476733],[120.2716912,22.74747],[120.2714674,22.7467262],[120.2710617,22.7453211],[120.2709972,22.74515],[120.270933,22.7450234],[120.2704163,22.7442401],[120.2701957,22.7438808],[120.2700268,22.7436168],[120.269878,22.7433668],[120.2695228,22.7428246],[120.2693641,22.7425574],[120.2692632,22.7423451],[120.2692,22.7421896],[120.26915,22.7419845],[120.2690818,22.7411914],[120.2690561,22.740828],[120.2689813,22.7406394],[120.2688835,22.7404561],[120.2687072,22.7401857],[120.2684985,22.7400104],[120.2683406,22.7399383],[120.2680181,22.7396916],[120.2675286,22.7393064],[120.2671044,22.7389629],[120.2665577,22.738537],[120.2662662,22.7383038],[120.2659034,22.7380163],[120.2656527,22.7377969],[120.2653143,22.7375575],[120.2649916,22.7374264],[120.2645021,22.7371683],[120.2640451,22.7368865],[120.2637361,22.736585],[120.2636432,22.7364279],[120.2635813,22.7362451],[120.2635558,22.7360498],[120.2635929,22.7357712],[120.2636565,22.7355713],[120.263738,22.7354517],[120.2644248,22.7344082],[120.2649976,22.7335434],[120.2654509,22.7328499],[120.2657809,22.7323757],[120.2660138,22.7319998],[120.266064,22.7319108],[120.2661035,22.731461],[120.2661183,22.7312831],[120.2661454,22.7309111],[120.266149,22.7307636],[120.2660928,22.7305486],[120.2659744,22.7303711],[120.2657707,22.730191],[120.2655258,22.7299957],[120.2652207,22.729747],[120.2649975,22.7295631],[120.2647889,22.7293972],[120.264645,22.7292744],[120.2644385,22.7291243],[120.2643047,22.7289687],[120.2641323,22.7287784],[120.2640031,22.7286398],[120.2638738,22.7285067],[120.2637396,22.7283464],[120.2634477,22.7280248],[120.2631207,22.7276424],[120.2625007,22.7268466],[120.2620681,22.7262641],[120.2611331,22.7250727],[120.2607234,22.7245829],[120.2604338,22.7242877],[120.2606351,22.7241102],[120.2608943,22.7238816],[120.2613427,22.7243661],[120.2618603,22.7250537],[120.2622147,22.7255009],[120.2624899,22.7258756],[120.2627495,22.726193],[120.2630088,22.7265227],[120.2631711,22.7267342],[120.2632921,22.7269002],[120.2634569,22.7271153],[120.2636036,22.727306],[120.2636683,22.7274073],[120.2639053,22.7276941],[120.2641169,22.7279004],[120.2643768,22.7281615],[120.2646761,22.7284802],[120.264827,22.7286598],[120.2649959,22.728822],[120.2653477,22.7290865],[120.2656998,22.7293735],[120.2661264,22.7297343],[120.2663929,22.7299568],[120.266549,22.7301628],[120.2666741,22.7303852],[120.2667332,22.7305978],[120.2667639,22.7308468],[120.2667496,22.7315813],[120.2667168,22.7318951],[120.2666535,22.7319946],[120.2664995,22.7322119],[120.2661926,22.7326713],[120.2657168,22.7333953],[120.2655522,22.7336439],[120.2650952,22.7343157],[120.2646046,22.7350405],[120.2642175,22.7356053],[120.2641247,22.7357728],[120.2640771,22.7359352],[120.2640706,22.7360688],[120.2640987,22.7361959],[120.2641815,22.7363287],[120.2643184,22.7364561],[120.2646233,22.73664],[120.2652181,22.7370058],[120.2655261,22.737186],[120.2659192,22.7374299],[120.266514,22.7378822],[120.2669053,22.7381815],[120.2674096,22.7385892],[120.2679064,22.738979],[120.2684511,22.7394021],[120.2690401,22.7398692],[120.2691939,22.7400215],[120.2693308,22.7401998],[120.2694933,22.7405187],[120.2695504,22.7407039],[120.2695796,22.7408586],[120.2696045,22.7411282],[120.269626,22.7415938],[120.2696678,22.7419087],[120.2697012,22.7420561],[120.2697814,22.7422571],[120.2698769,22.7424333],[120.2702418,22.7430004],[120.2705787,22.7435286],[120.2708779,22.7439933],[120.2710963,22.7443323],[120.2713898,22.7447988],[120.2714978,22.7450267],[120.2719088,22.7463789],[120.2721836,22.7472998],[120.2722133,22.7475372],[120.2722297,22.7477787],[120.2721103,22.7484676],[120.2720969,22.7487768],[120.2721573,22.7490847],[120.272263,22.7492916],[120.2724069,22.7494978],[120.2726155,22.749679],[120.2727807,22.7498158],[120.2731014,22.749988],[120.2734412,22.7501891],[120.2736626,22.7503782],[120.2738198,22.750581],[120.2739674,22.7508062],[120.2740399,22.7510186],[120.2740922,22.7512606],[120.2741073,22.751494],[120.2740752,22.7518087],[120.2739258,22.7526419],[120.2738855,22.7530012],[120.2738932,22.7531479],[120.2741328,22.7535956],[120.2743038,22.7538505],[120.2746975,22.7542421],[120.2751625,22.7547469],[120.2755711,22.7551337],[120.2758502,22.7554539],[120.2761277,22.7558687],[120.2762054,22.7562518],[120.2762121,22.756403],[120.2762577,22.7570609],[120.2763006,22.7582827],[120.2762818,22.7589382],[120.276137,22.7597965],[120.2758098,22.7612582],[120.2756891,22.7615798],[120.2755201,22.7618073],[120.2746189,22.7626705],[120.2745143,22.7628313],[120.2744392,22.7630712],[120.274348,22.7634719],[120.274356,22.7636252],[120.274415,22.7637785],[120.2747074,22.7642584],[120.2749434,22.7649583],[120.2749139,22.7654233],[120.2747798,22.7659229],[120.2745894,22.7662073],[120.2744982,22.7664126],[120.2745894,22.7667094],[120.2747664,22.7669913],[120.2750078,22.7671916],[120.2754664,22.7674983],[120.2758473,22.7678718],[120.2760833,22.7680746],[120.2764294,22.7681587],[120.2773064,22.7679732],[120.2777651,22.7679014],[120.2785993,22.7679188],[120.2787843,22.7679188],[120.2788997,22.7678742],[120.2790794,22.7677555],[120.2791813,22.76757],[120.2792725,22.7672757],[120.2793208,22.766791],[120.2794227,22.7663755],[120.2796265,22.7660861],[120.279876,22.7659402],[120.280062,22.7658873],[120.2807368,22.7659511],[120.281324,22.7660542],[120.2816591,22.7661677],[120.2819185,22.7663161],[120.2821943,22.7665299],[120.2823199,22.7667323],[120.2825147,22.7672841],[120.2826754,22.7677502],[120.2827138,22.7681891],[120.2826705,22.7684582],[120.2826188,22.768712],[120.2825927,22.7688109],[120.2826187,22.7689238],[120.282724,22.7690453],[120.2828833,22.769094],[120.2830492,22.7690662],[120.2843504,22.7684165],[120.2846028,22.7682797],[120.284795,22.7682329],[120.2849961,22.7682115],[120.2851403,22.7682502],[120.2853305,22.7683261],[120.2854676,22.7684419],[120.2855667,22.768567],[120.2856523,22.7687148],[120.2862309,22.7707617],[120.2863368,22.7708557],[120.2864491,22.7709069],[120.2866024,22.7708929],[120.2867655,22.7707913],[120.2880584,22.7697832],[120.2882268,22.7696897],[120.2884173,22.7696257],[120.2886773,22.7696078],[120.288826,22.7695947],[120.2891185,22.7696229],[120.2907458,22.7700468],[120.2909953,22.7700559],[120.2912132,22.7700095],[120.2914173,22.769924],[120.2915772,22.7698175],[120.2924693,22.7693638],[120.2933322,22.7689738],[120.293721,22.7687965],[120.294196,22.768481],[120.2953158,22.767875],[120.2953166,22.7678745],[120.2958801,22.7675465],[120.2963324,22.7673654],[120.2980535,22.7670211],[120.2981177,22.7670137],[120.300486,22.7667385],[120.3008211,22.7667244],[120.3015992,22.7666919],[120.3021103,22.7667697],[120.3037171,22.7670859],[120.3052419,22.7673475],[120.3060079,22.7674825],[120.3073106,22.7672807],[120.3078773,22.7671596],[120.3081871,22.7670624],[120.3084052,22.7669109],[120.3087097,22.766559],[120.3089352,22.7659705],[120.3097826,22.7641322],[120.3102788,22.7637488],[120.3115368,22.7630736],[120.3132856,22.7621833],[120.31394,22.7620992],[120.3143102,22.7621215],[120.3146455,22.762114],[120.3152114,22.7618939],[120.3155601,22.761649],[120.3159169,22.761236],[120.3165498,22.7601032],[120.317148,22.7590941],[120.3179365,22.7582729],[120.3185078,22.7577832],[120.3191596,22.7574369],[120.3195968,22.757333],[120.3198758,22.757291],[120.3201762,22.7573009],[120.3205758,22.7574122],[120.3209486,22.7576199],[120.3212893,22.757798],[120.321697,22.7579711],[120.3225553,22.7584584],[120.3232527,22.7588071],[120.323765,22.7588838],[120.3241056,22.7587725],[120.3243148,22.7586068],[120.3244328,22.7584361],[120.3245026,22.7582259],[120.3245079,22.7579465],[120.3244463,22.7575705],[120.32417,22.7560345],[120.3241217,22.7555645],[120.3239286,22.7547582],[120.3238562,22.7537391],[120.3238562,22.7530293],[120.3239876,22.7527126],[120.3241673,22.7525024],[120.32428,22.7522327],[120.3247226,22.7520794],[120.3252134,22.751889],[120.3254843,22.7517034],[120.3256291,22.7512434],[120.3253428,22.7506683],[120.3254478,22.7506456],[120.3254961,22.7506293],[120.3255688,22.7508044],[120.3257149,22.7512656],[120.3256801,22.7515254],[120.3255271,22.7518692],[120.3251356,22.7520547],[120.3245482,22.7522229],[120.3243738,22.7523194],[120.3242692,22.7525172],[120.3241539,22.7526804],[120.3240225,22.7528289],[120.3239929,22.753796],[120.3240493,22.7547805],[120.3242353,22.7555256],[120.3243148,22.7562596],[120.3245616,22.757563],[120.324626,22.7579118],[120.3246421,22.7582036],[120.3246313,22.7584411],[120.324508,22.7586859],[120.3242987,22.7588616],[120.3238696,22.7590026],[120.3235799,22.7589927],[120.3233761,22.7589234],[120.323022,22.758775],[120.3227618,22.7586562],[120.3214449,22.7579836],[120.3204927,22.7576471],[120.3200233,22.757568],[120.3195164,22.7576174],[120.3191033,22.7577386],[120.3187144,22.7579241],[120.3184569,22.7581616],[120.3177434,22.7586661],[120.3170568,22.7595615],[120.3162977,22.7608847],[120.3159169,22.7615204],[120.3152275,22.7620299],[120.3147769,22.7621857],[120.3142941,22.76225],[120.3137469,22.7622228],[120.3132078,22.7623885],[120.3102279,22.7640852],[120.3100803,22.7642757],[120.3099221,22.7646862],[120.3092033,22.7663384],[120.3087902,22.7668528],[120.3084415,22.7671595],[120.3080177,22.7673648],[120.3077505,22.7674408],[120.3077408,22.7674436],[120.3076529,22.7674686],[120.3067115,22.7676442],[120.305813,22.7677407],[120.3051853,22.767617],[120.3016073,22.7668825],[120.3010601,22.7668924],[120.3008376,22.7669125],[120.3005961,22.7669344],[120.2981443,22.7672434],[120.2978682,22.7672782],[120.2964547,22.7675601],[120.2959773,22.7677432],[120.2954476,22.7680621],[120.2942848,22.7687621],[120.2933702,22.769237],[120.2917072,22.7700309],[120.2911976,22.7702683],[120.2909481,22.7703153],[120.2907041,22.7702782],[120.290071,22.7701274],[120.2888721,22.7697959],[120.2885959,22.7698256],[120.2884296,22.7698924],[120.2883062,22.7699715],[120.2881345,22.7700902],[120.286898,22.7710325],[120.2866539,22.7711215],[120.2864286,22.7711141],[120.2861926,22.7710597],[120.2860987,22.7709657],[120.2859646,22.7707357],[120.2853799,22.7686558],[120.2851519,22.7685049],[120.28494,22.7684653],[120.2846128,22.7685346],[120.2841783,22.7687275],[120.2832127,22.7692592],[120.2829391,22.7693309],[120.2827299,22.7692716],[120.2825153,22.7691554],[120.2824348,22.7690119],[120.2823651,22.7688141],[120.2823624,22.7686385],[120.2824187,22.7684208],[120.2824214,22.768129],[120.282408,22.7678025],[120.2821988,22.7670704],[120.2820244,22.7666475],[120.2818528,22.7664719],[120.281496,22.7663136],[120.2809784,22.7661579],[120.2801429,22.7660811],[120.279821,22.7661615],[120.2797446,22.7662258],[120.2795233,22.7665647],[120.2794629,22.7672856],[120.2793449,22.7676986],[120.2792242,22.7679014],[120.2791008,22.768035],[120.2789023,22.7680968],[120.2786261,22.7681092],[120.2781084,22.7680894],[120.2772206,22.768176],[120.2764481,22.7683318],[120.2760485,22.7682353],[120.2757427,22.7680672],[120.275386,22.7676986],[120.2749085,22.7674266],[120.2746698,22.7673994],[120.2744123,22.7671867],[120.2741897,22.7668083],[120.2741441,22.7664917],[120.2741495,22.7662518],[120.2743319,22.7659303],[120.2744365,22.7656236],[120.2744901,22.76526],[120.2744365,22.7650399],[120.2743989,22.7646788],[120.2740288,22.763964],[120.2739134,22.7635461],[120.2739644,22.762997],[120.2741119,22.7626062]]]}},{"type":"Feature","id":"way/118125790","properties":{"osm_id":"118125790","osm_type":"way","name":null,"feature_category":"water_area","water_type":"pond_or_basin","source_tags":{"natural":"water","water":"pond"}},"geometry":{"type":"Polygon","coordinates":[[[120.3064954,22.7022796],[120.3061964,22.7021888],[120.3060834,22.7022527],[120.3057553,22.7020476],[120.3053761,22.7020644],[120.3052012,22.7019837],[120.3051465,22.7014523],[120.3052048,22.7014287],[120.3053069,22.7014119],[120.305409,22.7013884],[120.3054928,22.7013245],[120.3055511,22.701274],[120.3056459,22.7012438],[120.3057006,22.7011967],[120.3058173,22.7010722],[120.305861,22.7010958],[120.3064881,22.7021485],[120.3064954,22.7022796]]]}},{"type":"Feature","id":"way/118125792","properties":{"osm_id":"118125792","osm_type":"way","name":null,"feature_category":"water_area","water_type":"pond_or_basin","source_tags":{"natural":"water","water":"pond"}},"geometry":{"type":"Polygon","coordinates":[[[120.306612,22.7020341],[120.3059923,22.7009747],[120.306149,22.7008974],[120.3064808,22.7008738],[120.3066011,22.701005],[120.3067323,22.7011496],[120.3068125,22.701311],[120.3067761,22.7014086],[120.3066631,22.7013817],[120.3066047,22.7014725],[120.3066266,22.7015296],[120.3067688,22.7016339],[120.3070349,22.7015801],[120.3071443,22.7016272],[120.3072063,22.7016642],[120.3071953,22.7017415],[120.3071297,22.7018525],[120.307137,22.7019433],[120.3069474,22.702024],[120.3068271,22.7020173],[120.3067214,22.702061],[120.3066448,22.7020543],[120.306612,22.7020341]]]}},{"type":"Feature","id":"way/125934988","properties":{"osm_id":"125934988","osm_type":"way","name":"援中港濕地","feature_category":"water_area","water_type":"wetland","source_tags":{"access":"no","leisure":"nature_reserve","name":"援中港濕地","natural":"wetland"}},"geometry":{"type":"Polygon","coordinates":[[[120.2657622,22.7255045],[120.2709275,22.7297364],[120.2706985,22.7300567],[120.2704838,22.73041],[120.2703342,22.7307089],[120.2702161,22.7309861],[120.2701293,22.7312053],[120.269844,22.7314558],[120.2696788,22.7315741],[120.2694591,22.7316812],[120.2692916,22.7316497],[120.2669806,22.7296279],[120.2658582,22.7291285],[120.2638985,22.7273662],[120.2657622,22.7255045]]]}},{"type":"Feature","id":"way/125934992","properties":{"osm_id":"125934992","osm_type":"way","name":null,"feature_category":"water_area","water_type":"pond_or_basin","source_tags":{"natural":"water","water":"pond"}},"geometry":{"type":"Polygon","coordinates":[[[120.2596391,22.7216003],[120.2596132,22.7214367],[120.2596889,22.7213049],[120.2596954,22.7212151],[120.259743,22.7211872],[120.2603704,22.7215384],[120.26055,22.7215863],[120.2606928,22.7216023],[120.2607533,22.7216422],[120.2608723,22.7218198],[120.2610021,22.7219495],[120.261119,22.7220333],[120.2618005,22.7224644],[120.2620168,22.7226221],[120.262112,22.722644],[120.2621791,22.7226121],[120.2622721,22.722634],[120.2623781,22.7227777],[120.2624106,22.7228735],[120.2623327,22.7228855],[120.262218,22.7228496],[120.2621272,22.7228196],[120.2619,22.7229234],[120.261543,22.7230751],[120.2614305,22.723087],[120.2613743,22.7230611],[120.2612704,22.7229713],[120.261132,22.7228535],[120.2611082,22.7227478],[120.2611601,22.7227139],[120.2612531,22.7226859],[120.2612639,22.7226161],[120.2612033,22.7225422],[120.2610606,22.7225762],[120.260987,22.7225582],[120.260749,22.7223526],[120.2606776,22.7222868],[120.2606711,22.7219835],[120.2606452,22.7219016],[120.2606581,22.7218537],[120.2604396,22.7218398],[120.2603617,22.7218737],[120.2603271,22.7219994],[120.2603877,22.7221012],[120.2605305,22.7223407],[120.2605565,22.7224884],[120.2606408,22.7225941],[120.2607209,22.7226999],[120.260987,22.7230671],[120.261331,22.7233425],[120.2613721,22.7234263],[120.2612683,22.72356],[120.2612142,22.723554],[120.2609567,22.7231249],[120.2607663,22.7228755],[120.2606668,22.7227677],[120.260511,22.7227099],[120.2604093,22.722656],[120.2600675,22.7221631],[120.2600134,22.7220214],[120.2597819,22.7218398],[120.2597559,22.7216961],[120.2596608,22.7216362],[120.2596391,22.7216003]]]}},{"type":"Feature","id":"way/125935047","properties":{"osm_id":"125935047","osm_type":"way","name":null,"feature_category":"water_area","water_type":"pond_or_basin","source_tags":{"natural":"water","water":"pond"}},"geometry":{"type":"Polygon","coordinates":[[[120.2675036,22.7292114],[120.2677891,22.7293172],[120.2679103,22.7295127],[120.2682392,22.7296664],[120.268224,22.7297781],[120.2681872,22.7299018],[120.268237,22.7299976],[120.268436,22.7300415],[120.268568,22.7299857],[120.2686199,22.7298739],[120.2686329,22.7297262],[120.2685442,22.7295846],[120.2683884,22.7294529],[120.2681634,22.7292154],[120.2680379,22.7290877],[120.2679622,22.7288821],[120.2679449,22.7287824],[120.2681504,22.728481],[120.2682435,22.7283972],[120.2685247,22.728515],[120.2686762,22.7286706],[120.2688363,22.7286507],[120.2690094,22.7286107],[120.2691284,22.7286107],[120.2692885,22.7286866],[120.2694745,22.7288382],[120.2695632,22.728938],[120.2696325,22.7290797],[120.2698899,22.7292693],[120.269957,22.7293251],[120.2699743,22.7294309],[120.2700565,22.7294768],[120.270208,22.7294708],[120.2704633,22.7296125],[120.2705022,22.7297382],[120.2704871,22.7300296],[120.2704373,22.7302171],[120.2702166,22.7303848],[120.2700435,22.7305304],[120.2699072,22.7306781],[120.2697233,22.7307938],[120.2695156,22.7309195],[120.2693469,22.7310353],[120.2692062,22.7311231],[120.2690202,22.7311391],[120.2689315,22.7310852],[120.2687541,22.7309515],[120.2686113,22.7308078],[120.2685074,22.7306881],[120.2685096,22.7305663],[120.2684425,22.7305264],[120.2683387,22.7305085],[120.2681634,22.7304686],[120.2679601,22.7303369],[120.2678367,22.7302171],[120.2675447,22.7300156],[120.2672353,22.7298021],[120.2671574,22.7297442],[120.2670946,22.7296783],[120.2670514,22.7296265],[120.267086,22.7295846],[120.2671574,22.7295866],[120.2673348,22.7293092],[120.2674733,22.7292094],[120.2675036,22.7292114]]]}},{"type":"Feature","id":"way/125935095","properties":{"osm_id":"125935095","osm_type":"way","name":"援中港濕地公園","feature_category":"water_area","water_type":"wetland","source_tags":{"access":"yes","leisure":"nature_reserve","name":"援中港濕地公園","natural":"wetland","note":"Access Tu-Fr by appointment only","opening_hours":"Sa-Su 09:00-17:00","wikidata":"Q97623293","wikipedia":"zh:援中港濕地公園"}},"geometry":{"type":"Polygon","coordinates":[[[120.2592157,22.7210154],[120.2590305,22.7211032],[120.2588655,22.720975],[120.2585966,22.7206112],[120.2581162,22.7199606],[120.256645,22.7183401],[120.2565455,22.7181724],[120.2565498,22.7180287],[120.2566017,22.7178092],[120.2596377,22.7203377],[120.2601947,22.7207736],[120.2611071,22.7214876],[120.261433,22.7217427],[120.262749,22.7227725],[120.262725,22.7227894],[120.261289,22.7238039],[120.2603207,22.722755],[120.2598305,22.7220858],[120.2595065,22.7216566],[120.259476,22.7214957],[120.2595065,22.7212964],[120.2594705,22.7211585],[120.2593264,22.7210435],[120.2592157,22.7210154]]]}},{"type":"Feature","id":"way/126081065","properties":{"osm_id":"126081065","osm_type":"way","name":null,"feature_category":"water_area","water_type":"water_unspecified","source_tags":{"natural":"water"}},"geometry":{"type":"Polygon","coordinates":[[[120.2855366,22.7115436],[120.2854542,22.7114889],[120.2854567,22.7114153],[120.2854361,22.7113725],[120.2853279,22.711325],[120.2852764,22.7112703],[120.2852352,22.7112014],[120.2854696,22.7110541],[120.2855289,22.7110494],[120.2856267,22.7114937],[120.2855366,22.7115436]]]}},{"type":"Feature","id":"way/126382194","properties":{"osm_id":"126382194","osm_type":"way","name":"魚塭","feature_category":"water_area","water_type":"pond_or_basin","source_tags":{"landuse":"aquaculture","name":"魚塭","natural":"water","water":"pond"}},"geometry":{"type":"Polygon","coordinates":[[[120.3195217,22.723023],[120.3190852,22.7223558],[120.3206345,22.7217755],[120.3207072,22.7218229],[120.3208228,22.7223637],[120.3195217,22.723023]]]}},{"type":"Feature","id":"way/157698902","properties":{"osm_id":"157698902","osm_type":"way","name":null,"feature_category":"water_area","water_type":"river","source_tags":{"natural":"water","source":"PGS","water":"river"}},"geometry":{"type":"Polygon","coordinates":[[[120.25605,22.71826],[120.2561022,22.7181153],[120.2563029,22.7182071],[120.2572113,22.7192438],[120.2579983,22.7201481],[120.2586535,22.7210915],[120.2592013,22.7216975],[120.2598276,22.7228187],[120.2602705,22.7232973],[120.2608943,22.7238816],[120.2604338,22.7242877],[120.2602802,22.7241617],[120.259999,22.7238428],[120.2596428,22.7235474],[120.2593844,22.7232174],[120.2591428,22.722749],[120.2587893,22.7222118],[120.2583551,22.7217875],[120.2581541,22.7214609],[120.2573884,22.7203614],[120.2570219,22.720054],[120.2562832,22.7194281],[120.2553454,22.7188358],[120.2556963,22.718549],[120.25605,22.71826]]]}},{"type":"Feature","id":"way/197024798","properties":{"osm_id":"197024798","osm_type":"way","name":"東湖","feature_category":"water_area","water_type":"lake_or_reservoir","source_tags":{"name":"東湖","natural":"water","water":"lake"}},"geometry":{"type":"Polygon","coordinates":[[[120.2870462,22.735898],[120.2871057,22.735876],[120.2870914,22.7358144],[120.2870509,22.7358144],[120.2870223,22.7357551],[120.2869723,22.7356914],[120.2868603,22.735643],[120.2867364,22.7356166],[120.2866744,22.7355947],[120.2866673,22.7355397],[120.2866935,22.7354518],[120.2867459,22.7354189],[120.2868365,22.7354276],[120.2869342,22.7354958],[120.2870342,22.7355419],[120.2871486,22.7355573],[120.2872487,22.7355485],[120.2873416,22.7355156],[120.2875013,22.7354562],[120.28768,22.7354232],[120.2877873,22.7354298],[120.2878849,22.735465],[120.2879684,22.7355881],[120.2879707,22.7356804],[120.2879469,22.7357463],[120.2878826,22.7357771],[120.2877896,22.7357793],[120.2877205,22.7357683],[120.2875966,22.7357529],[120.2873297,22.735876],[120.2872988,22.7359024],[120.2872487,22.7359529],[120.2871605,22.7359749],[120.2870795,22.7359529],[120.2870462,22.735898]]]}},{"type":"Feature","id":"way/197024814","properties":{"osm_id":"197024814","osm_type":"way","name":"高大荷花池","feature_category":"water_area","water_type":"pond_or_basin","source_tags":{"name":"高大荷花池","natural":"water","salt":"no","water":"pond"}},"geometry":{"type":"Polygon","coordinates":[[[120.2816702,22.7354235],[120.2816488,22.7354021],[120.2816279,22.7353411],[120.2816091,22.7352855],[120.2816036,22.7352489],[120.2816146,22.735214],[120.2816233,22.7351757],[120.281674,22.7351486],[120.2817866,22.7351972],[120.2818711,22.7352421],[120.2819695,22.7352678],[120.2820529,22.7352656],[120.2821054,22.7352305],[120.2821697,22.7351799],[120.2822436,22.7351733],[120.282346,22.7351931],[120.282408,22.7352097],[120.282417,22.7352629],[120.2823825,22.7352941],[120.2823174,22.7353184],[120.2822293,22.7353338],[120.2821625,22.7353689],[120.2820601,22.7353777],[120.2819338,22.7353118],[120.281893,22.7353568],[120.2818345,22.7353985],[120.2817857,22.7354256],[120.2817402,22.7354414],[120.2817029,22.7354368],[120.2816702,22.7354235]]]}},{"type":"Feature","id":"way/197024832","properties":{"osm_id":"197024832","osm_type":"way","name":"高大生態池","feature_category":"water_area","water_type":"pond_or_basin","source_tags":{"name":"高大生態池","natural":"water","water":"pond"}},"geometry":{"type":"Polygon","coordinates":[[[120.2809631,22.7333232],[120.2809907,22.7331976],[120.2809964,22.7331715],[120.2810774,22.7331012],[120.2812061,22.7330748],[120.281311,22.7330858],[120.2813473,22.7331016],[120.2814873,22.7331627],[120.2815826,22.7331693],[120.281697,22.733143],[120.2817661,22.7331627],[120.2818638,22.7331957],[120.2818572,22.7332592],[120.28184,22.7333056],[120.2817995,22.7333495],[120.2817137,22.7333715],[120.2816922,22.7333386],[120.2816017,22.7333034],[120.2814921,22.7333188],[120.2814706,22.7333957],[120.2814206,22.7334704],[120.2813872,22.7335276],[120.2813515,22.7335891],[120.2812514,22.7336001],[120.2811275,22.7335979],[120.2810536,22.7335605],[120.2810107,22.7334968],[120.2809654,22.7334177],[120.2809631,22.7333232]]]}},{"type":"Feature","id":"way/197825556","properties":{"osm_id":"197825556","osm_type":"way","name":null,"feature_category":"water_area","water_type":"water_unspecified","source_tags":{"natural":"water"}},"geometry":{"type":"Polygon","coordinates":[[[120.2837926,22.735925],[120.2837731,22.7358815],[120.2840543,22.7357991],[120.2840641,22.7358441],[120.2837926,22.735925]]]}},{"type":"Feature","id":"way/197825589","properties":{"osm_id":"197825589","osm_type":"way","name":null,"feature_category":"water_area","water_type":"water_unspecified","source_tags":{"natural":"water"}},"geometry":{"type":"Polygon","coordinates":[[[120.2846975,22.7356307],[120.2847092,22.7356091],[120.2850655,22.7355264],[120.2850863,22.7355851],[120.285072,22.7355935],[120.284964,22.7355911],[120.2849159,22.7356163],[120.284847,22.7356595],[120.2847716,22.7356739],[120.2847183,22.7356763],[120.2846975,22.7356307]]]}},{"type":"Feature","id":"way/205900190","properties":{"osm_id":"205900190","osm_type":"way","name":"後勁溪","feature_category":"water_area","water_type":"river","source_tags":{"name":"後勁溪","name:en":"Houjing River","name:zh":"後勁溪","natural":"water","source":"PGS","water":"river","wikidata":"Q11070207"}},"geometry":{"type":"Polygon","coordinates":[[[120.3208915,22.7253884],[120.3203042,22.7260592],[120.319884,22.7263578],[120.3196106,22.7264637],[120.3187864,22.7269434],[120.3178508,22.7277731],[120.3169799,22.7283059],[120.3166155,22.7284635],[120.3161864,22.7285932],[120.3157475,22.728682],[120.3150031,22.7288654],[120.3148194,22.7289589],[120.314658,22.72907],[120.3144228,22.7294257],[120.3141538,22.7298394],[120.3140462,22.7299569],[120.313916,22.7300593],[120.3137966,22.7301735],[120.3136377,22.7302182],[120.313515,22.7302841],[120.3133417,22.7303119],[120.313199,22.7302945],[120.3122464,22.7302013],[120.3117233,22.7302292],[120.3115918,22.7302276],[120.3114905,22.7302223],[120.3111812,22.7301976],[120.3110001,22.7301815],[120.3106997,22.7301897],[120.3103595,22.7301734],[120.3095996,22.7300837],[120.3093654,22.7301082],[120.3090429,22.7300674],[120.3088662,22.7301448],[120.3082541,22.7301453],[120.3074158,22.7301462],[120.3065576,22.73003],[120.3061635,22.7299356],[120.3058101,22.7298052],[120.3052048,22.7295851],[120.3048955,22.7295036],[120.3046304,22.7294751],[120.3043742,22.7294751],[120.3042903,22.7294995],[120.3040914,22.729577],[120.3036275,22.7297114],[120.3035613,22.7298704],[120.303442,22.7298459],[120.3033448,22.7298541],[120.303252,22.729903],[120.3031179,22.729922],[120.3029648,22.729907],[120.3028676,22.7298622],[120.3027749,22.729797],[120.3026909,22.7297237],[120.3025978,22.7295316],[120.3024036,22.729439],[120.3019619,22.729361],[120.301513,22.7292722],[120.3012045,22.7292255],[120.3009103,22.7292537],[120.3007238,22.7293335],[120.3006129,22.7294187],[120.3005389,22.7295097],[120.300428,22.7296688],[120.3003541,22.7298848],[120.3002432,22.7303906],[120.3001327,22.7314208],[120.3000305,22.7316442],[120.2997947,22.7318204],[120.2994651,22.7319027],[120.2992897,22.731891],[120.2991022,22.7318169],[120.2989278,22.7316925],[120.2985496,22.7313365],[120.2973657,22.7299791],[120.2966372,22.7290793],[120.2964972,22.7287719],[120.2964449,22.7284423],[120.2965039,22.7281481],[120.2966446,22.7278084],[120.2967919,22.7274686],[120.2968434,22.7270719],[120.296756,22.7266769],[120.296662,22.7264809],[120.2965372,22.7263344],[120.2963841,22.7261514],[120.2962651,22.7260834],[120.2959728,22.7259915],[120.2956631,22.7258714],[120.2953286,22.7258191],[120.295045,22.7257407],[120.2947502,22.7256831],[120.2935481,22.7254268],[120.2925048,22.7251706],[120.2919888,22.7250398],[120.2914857,22.7249986],[120.2912176,22.7249509],[120.2908263,22.7247522],[120.2900042,22.7244384],[120.2892217,22.7240827],[120.2884108,22.7237898],[120.2880536,22.7236695],[120.2879458,22.7236225],[120.2878778,22.7236172],[120.2876453,22.7236486],[120.2872541,22.7234865],[120.2872257,22.7233976],[120.2872257,22.72334],[120.287186,22.723293],[120.2871237,22.723293],[120.2869706,22.7232302],[120.2863622,22.7229954],[120.2862958,22.7230053],[120.2862618,22.7230001],[120.2862334,22.7229425],[120.2858648,22.7227961],[120.2853148,22.7225973],[120.2843566,22.7221894],[120.2835287,22.7218703],[120.2829072,22.7216055],[120.2817906,22.7211708],[120.2816263,22.7211068],[120.2815136,22.7210761],[120.2810271,22.7208766],[120.2806604,22.7206998],[120.2804674,22.7206478],[120.2801063,22.72055],[120.2785797,22.7199308],[120.2772329,22.7194059],[120.2768635,22.7192416],[120.2753748,22.7186433],[120.2739799,22.7180732],[120.2730273,22.7177593],[120.271967,22.7174612],[120.271646,22.7173855],[120.2711399,22.719902],[120.2688892,22.7204369],[120.2614255,22.718554],[120.2618197,22.7165878],[120.2579089,22.7154912],[120.2575759,22.716512],[120.2571449,22.7161455],[120.2574856,22.714874],[120.2584067,22.7150964],[120.2585231,22.714639],[120.2582612,22.7145736],[120.25805,22.7145249],[120.2580308,22.7144673],[120.2579972,22.7144363],[120.2571473,22.7142414],[120.2570753,22.7142458],[120.2570081,22.7142768],[120.2569793,22.7143388],[120.2569409,22.7143831],[120.2568353,22.7143831],[120.2569377,22.7138066],[120.2571149,22.7131012],[120.258581,22.7134354],[120.261747,22.7141971],[120.2718859,22.716383],[120.2722903,22.7167177],[120.273067,22.7168702],[120.2732655,22.7169486],[120.2735093,22.7170323],[120.2739743,22.717252],[120.275097,22.7176966],[120.2761666,22.7180587],[120.2771622,22.7184978],[120.2778442,22.7188177],[120.278804,22.7191783],[120.2811812,22.7201496],[120.2812662,22.7201496],[120.2813513,22.7201601],[120.2814023,22.720181],[120.2814364,22.720249],[120.2820722,22.7205856],[120.2831375,22.7210234],[120.2837101,22.7212898],[120.2838406,22.7213787],[120.2840957,22.721431],[120.2862107,22.7222731],[120.2865339,22.7224457],[120.2868968,22.7225817],[120.2872938,22.7226706],[120.2873221,22.7227176],[120.2873958,22.7227595],[120.2874695,22.7227595],[120.2875829,22.7227072],[120.2877889,22.7227697],[120.2880082,22.7228798],[120.288118,22.7229055],[120.2884448,22.723157],[120.2891479,22.7233923],[120.2903954,22.7239206],[120.2905485,22.7239624],[120.2907186,22.7239833],[120.2909114,22.7239153],[120.291134,22.7238091],[120.2911462,22.7239478],[120.2910248,22.7240043],[120.2909738,22.7241036],[120.291022,22.7242363],[120.291701,22.7243808],[120.2920908,22.7245168],[120.2938032,22.7249823],[120.2947105,22.7251444],[120.2953342,22.7252961],[120.2955951,22.7254007],[120.2961687,22.7255918],[120.296662,22.7259579],[120.2969304,22.7262823],[120.2970527,22.7264938],[120.2971342,22.7267078],[120.2971975,22.7269935],[120.2971814,22.7272459],[120.2971439,22.7275032],[120.2968435,22.7282255],[120.2967791,22.728369],[120.2967791,22.7284828],[120.2968113,22.7286412],[120.2968649,22.7288044],[120.2970216,22.7290976],[120.2972243,22.7293438],[120.2974657,22.7296406],[120.2990955,22.731471],[120.2991995,22.7315418],[120.2993232,22.7316069],[120.2994398,22.7316049],[120.2995471,22.7315999],[120.2996759,22.7315356],[120.2997778,22.7314416],[120.2998154,22.7312882],[120.2998529,22.7310953],[120.2998673,22.7307885],[120.2998796,22.730618],[120.2998981,22.7304077],[120.2999782,22.7299246],[120.3001067,22.729649],[120.3001692,22.7294813],[120.3002942,22.7293463],[120.3004034,22.72918],[120.3005821,22.729055],[120.3007659,22.7289789],[120.3009641,22.7289129],[120.3011305,22.7289015],[120.3012969,22.7289129],[120.3015422,22.7289494],[120.301635,22.7289739],[120.3019177,22.7290105],[120.3021342,22.7290554],[120.3024302,22.7291328],[120.3026025,22.7292061],[120.3027573,22.7293107],[120.3028929,22.7294301],[120.3030063,22.7295316],[120.3033934,22.7295615],[120.3034464,22.7295484],[120.3035392,22.7294669],[120.3036026,22.7293982],[120.3036452,22.7293854],[120.3039501,22.7293814],[120.3040428,22.7293406],[120.3042814,22.7292876],[120.3045092,22.7292893],[120.3047851,22.7293121],[120.3049044,22.7293284],[120.3050281,22.7293488],[120.3059952,22.7296406],[120.3065162,22.7297825],[120.307068,22.7298484],[120.3080444,22.7298781],[120.3080854,22.7298713],[120.3083316,22.7298302],[120.3086055,22.7299003],[120.3087601,22.7299126],[120.3088794,22.7298066],[120.3092461,22.7298311],[120.309953,22.7298514],[120.3103771,22.7299003],[120.3112873,22.7299166],[120.3116672,22.7299085],[120.3122314,22.7299671],[120.3126633,22.7300512],[120.3129744,22.7301031],[120.3132051,22.7301155],[120.3133638,22.7301082],[120.3134875,22.7300674],[120.3135847,22.7300226],[120.3136584,22.729972],[120.3139455,22.7297],[120.314227,22.7292867],[120.314396,22.7290888],[120.3145435,22.728928],[120.3146696,22.7288315],[120.3148868,22.7287227],[120.3151443,22.7286311],[120.315529,22.7285402],[120.3158069,22.7284654],[120.3161387,22.7283722],[120.3163824,22.728235],[120.3166948,22.7281099],[120.3171446,22.7278328],[120.3176519,22.7275415],[120.3181125,22.7271754],[120.3185302,22.726889],[120.3188357,22.7266473],[120.319181,22.726506],[120.3193715,22.7263427],[120.3196136,22.7262251],[120.3197871,22.7261269],[120.319993,22.7260201],[120.3201388,22.7258675],[120.3204074,22.725567],[120.3207547,22.7251721],[120.3208915,22.7253884]]]}},{"type":"Feature","id":"way/229365006","properties":{"osm_id":"229365006","osm_type":"way","name":null,"feature_category":"water_area","water_type":"water_unspecified","source_tags":{"natural":"water"}},"geometry":{"type":"Polygon","coordinates":[[[120.2914044,22.723795],[120.2913953,22.7237228],[120.2940057,22.7223241],[120.2940308,22.7223936],[120.2914044,22.723795]]]}},{"type":"Feature","id":"way/230079335","properties":{"osm_id":"230079335","osm_type":"way","name":"後勁溪","feature_category":"water_area","water_type":"river","source_tags":{"layer":"-1","name":"後勁溪","natural":"water","water":"river"}},"geometry":{"type":"Polygon","coordinates":[[[120.3208915,22.7253884],[120.3207547,22.7251721],[120.3208163,22.7250052],[120.3208471,22.7248913],[120.3210038,22.7244278],[120.321492,22.7245591],[120.3213426,22.7247215],[120.3212522,22.7248605],[120.3211819,22.725055],[120.3211146,22.7250697],[120.3210594,22.7251104],[120.3210098,22.7251714],[120.3208915,22.7253884]]]}},{"type":"Feature","id":"way/230079338","properties":{"osm_id":"230079338","osm_type":"way","name":"後勁溪","feature_category":"water_area","water_type":"river","source_tags":{"name":"後勁溪","natural":"water","water":"river"}},"geometry":{"type":"Polygon","coordinates":[[[120.321492,22.7245591],[120.3210038,22.7244278],[120.3211189,22.7242259],[120.3211775,22.7240735],[120.321243,22.7238583],[120.3213285,22.7232476],[120.3214447,22.7228852],[120.3215795,22.7227389],[120.3220482,22.7224655],[120.3225647,22.7222768],[120.3226647,22.7221164],[120.322706,22.7219808],[120.3226577,22.7218413],[120.3224433,22.7213459],[120.3222686,22.7209151],[120.322157,22.7206025],[120.3220798,22.7203396],[120.3220305,22.7201321],[120.3220165,22.7198977],[120.3221081,22.7196073],[120.3223037,22.7193261],[120.3227111,22.7188387],[120.3231144,22.7183615],[120.3232245,22.7182431],[120.3234858,22.7180025],[120.3237456,22.7178109],[120.3241051,22.7175824],[120.3245093,22.7173145],[120.3249609,22.7170754],[120.3252377,22.7169195],[120.3255101,22.7167562],[120.3257597,22.7165815],[120.3259393,22.7163579],[120.3269041,22.7150325],[120.3279924,22.7135552],[120.3288657,22.7120366],[120.3293062,22.7112288],[120.329292,22.7110747],[120.3290015,22.710168],[120.3287498,22.7095795],[120.3286683,22.7095203],[120.3285666,22.7094809],[120.3282469,22.7095497],[120.3268259,22.7100055],[120.3265252,22.7100635],[120.3262176,22.7099843],[120.3258563,22.70975],[120.3255908,22.7093814],[120.3255599,22.7091605],[120.3255227,22.7088377],[120.3255521,22.7086627],[120.3257578,22.7083029],[120.3266979,22.7070187],[120.3270586,22.7067973],[120.3271169,22.7066228],[120.3275253,22.7062253],[120.3279096,22.7059145],[120.3283485,22.7055553],[120.3288265,22.7052522],[120.32914,22.7050521],[120.3295392,22.7047182],[120.3298659,22.7043803],[120.3317377,22.7025153],[120.3324435,22.7018301],[120.3333681,22.7009174],[120.3342968,22.6999278],[120.3354721,22.6986126],[120.3370885,22.696911],[120.3384803,22.6957457],[120.3397792,22.6945572],[120.3403491,22.6940913],[120.3410515,22.6933092],[120.3416206,22.6925242],[120.3422528,22.6916965],[120.3422966,22.6914532],[120.3424496,22.6914901],[120.3426364,22.6917371],[120.3425493,22.6918407],[120.3424246,22.6919389],[120.3422689,22.6921484],[120.3421321,22.6923335],[120.3418682,22.692662],[120.3419353,22.6926839],[120.3418745,22.6928976],[120.3417338,22.6931716],[120.3415117,22.6934974],[120.3410798,22.6940969],[120.3398427,22.6951486],[120.3389754,22.6959114],[120.3385495,22.696332],[120.3384318,22.6964266],[120.3374037,22.6972527],[120.3367253,22.6979781],[120.3350749,22.6997794],[120.3346411,22.7003115],[120.3339259,22.7011236],[120.3306991,22.703892],[120.33033,22.7042185],[120.329812,22.7047073],[120.3292687,22.7052365],[120.3289175,22.7054848],[120.3284506,22.7058079],[120.3281235,22.7059293],[120.3278464,22.7062461],[120.3260273,22.7084389],[120.3259621,22.7085419],[120.3259024,22.7086305],[120.325845,22.7087859],[120.3258533,22.7089172],[120.325952,22.7091936],[120.3260074,22.7093021],[120.3261252,22.7094751],[120.3262189,22.7095359],[120.3263161,22.7096006],[120.3264099,22.7096306],[120.3264817,22.7096511],[120.3265428,22.7096584],[120.32663,22.7096494],[120.3275269,22.7093757],[120.3283967,22.7091297],[120.328556,22.7091216],[120.32875,22.7091481],[120.328813,22.7090545],[120.3289039,22.7089681],[120.329704,22.7086897],[120.3298403,22.7086228],[120.3299411,22.7085607],[120.3299836,22.7085265],[120.3300261,22.7084873],[120.3300986,22.7083306],[120.3301358,22.7082538],[120.3301747,22.7082032],[120.3303074,22.7080775],[120.3302933,22.7081102],[120.3302313,22.7081967],[120.3302561,22.7082326],[120.3301535,22.7083632],[120.3301181,22.7084236],[120.3300845,22.7084954],[120.3299482,22.7086211],[120.3298349,22.7086979],[120.3297288,22.7087534],[120.3291934,22.7089605],[120.3291495,22.7089721],[120.3291307,22.7089875],[120.3290554,22.7090241],[120.3289844,22.7090839],[120.328953,22.7091283],[120.3289198,22.7091936],[120.3291066,22.709474],[120.3293976,22.710333],[120.3296187,22.7111232],[120.3295284,22.7113004],[120.3286178,22.7130879],[120.3282153,22.7136998],[120.3277963,22.7143166],[120.3262116,22.7165526],[120.3261082,22.7166167],[120.3260621,22.716716],[120.3259736,22.7168225],[120.3259082,22.7168721],[120.3258544,22.7169041],[120.3258082,22.7169254],[120.3257621,22.7169396],[120.3257198,22.7169502],[120.3252275,22.7171773],[120.3249633,22.7173951],[120.3246843,22.717585],[120.3238274,22.7182434],[120.3233422,22.7186675],[120.3230135,22.7190439],[120.3225887,22.7195291],[120.3224186,22.7197722],[120.3223897,22.7199957],[120.3225353,22.7205157],[120.3227575,22.7211239],[120.3229347,22.721639],[120.3229821,22.7220459],[120.3228508,22.7222974],[120.3227885,22.7224044],[120.3225866,22.7225321],[120.3223238,22.722638],[120.3220751,22.7227542],[120.3217262,22.7230252],[120.3216306,22.7232539],[120.321586,22.7234693],[120.3215766,22.7236933],[120.3215754,22.7239737],[120.3215508,22.7242471],[120.321492,22.7245591]]]}},{"type":"Feature","id":"way/287982369","properties":{"osm_id":"287982369","osm_type":"way","name":"景觀池","feature_category":"water_area","water_type":"pond_or_basin","source_tags":{"name":"景觀池","natural":"water","water":"pond"}},"geometry":{"type":"Polygon","coordinates":[[[120.3156698,22.7350187],[120.31572,22.7349492],[120.3157773,22.7349145],[120.3158455,22.7348864],[120.3159333,22.7348699],[120.3159745,22.7348732],[120.3160229,22.7348848],[120.3160606,22.7349145],[120.3160946,22.7349195],[120.3161484,22.7349079],[120.3161771,22.7349013],[120.3162112,22.734893],[120.3162363,22.7348947],[120.3163373,22.7348543],[120.3163856,22.7348321],[120.3164472,22.7347776],[120.3164687,22.7347207],[120.3164902,22.7346589],[120.3165036,22.7345995],[120.3165331,22.7345204],[120.3165496,22.7344198],[120.3165354,22.7343153],[120.3165071,22.7342435],[120.3165,22.7341782],[120.3165706,22.7341641],[120.3167637,22.7341938],[120.3168308,22.7342359],[120.316871,22.7343348],[120.31693,22.7344363],[120.3169488,22.7345377],[120.3168893,22.7345961],[120.3168681,22.7346352],[120.316815,22.7346613],[120.3168115,22.734694],[120.3168308,22.734748],[120.3168079,22.7347789],[120.3166404,22.7348618],[120.3163416,22.7348931],[120.3162452,22.7349195],[120.3162201,22.7349195],[120.3161897,22.7349244],[120.3161484,22.7349377],[120.3161126,22.7349443],[120.3160767,22.7349426],[120.3160176,22.7349145],[120.3159638,22.7348963],[120.3159064,22.7348963],[120.3158544,22.7349079],[120.3157881,22.734936],[120.3157289,22.7349641],[120.3156698,22.7350187]]]}},{"type":"Feature","id":"way/288305687","properties":{"osm_id":"288305687","osm_type":"way","name":"生態滯洪池","feature_category":"water_area","water_type":"pond_or_basin","source_tags":{"name":"生態滯洪池","natural":"water","water":"pond"}},"geometry":{"type":"Polygon","coordinates":[[[120.2938792,22.7209548],[120.2938758,22.7208789],[120.2938845,22.7207873],[120.2938594,22.7206237],[120.2938547,22.7204489],[120.2938634,22.7203578],[120.2938676,22.7203233],[120.2938607,22.7203042],[120.293833,22.7202863],[120.2938054,22.7202784],[120.2936753,22.7202642],[120.2935449,22.720237],[120.2934819,22.7202179],[120.2934628,22.720176],[120.2934506,22.720127],[120.2934523,22.7200487],[120.2934809,22.7199945],[120.2935119,22.7199616],[120.2935542,22.719933],[120.2935931,22.7199115],[120.2937028,22.719861],[120.2937203,22.7198373],[120.2937214,22.7198082],[120.2937141,22.7197645],[120.2936713,22.7196333],[120.2936608,22.7195948],[120.293637,22.7195441],[120.2936265,22.7195026],[120.2936056,22.7194525],[120.293583,22.7194103],[120.2935691,22.719383],[120.2935549,22.7193686],[120.2935161,22.7193718],[120.2934669,22.7193801],[120.2933937,22.7194062],[120.2933758,22.7194035],[120.2933415,22.7193732],[120.2933147,22.7193457],[120.2932803,22.7192879],[120.2932684,22.7192383],[120.2932709,22.7191726],[120.2932968,22.7191365],[120.293343,22.7191241],[120.2933758,22.7191351],[120.2933997,22.7191626],[120.2934236,22.7192039],[120.2934609,22.7192521],[120.2935206,22.7192686],[120.2936442,22.7192339],[120.2937511,22.7192359],[120.2938035,22.719232],[120.2938475,22.7192185],[120.2939249,22.7192053],[120.2939697,22.7191998],[120.2940025,22.7192204],[120.2940189,22.71927],[120.2940159,22.7193126],[120.2939712,22.7193897],[120.2939428,22.7194434],[120.293919,22.7194943],[120.2939115,22.719559],[120.2939204,22.7196182],[120.2939306,22.7196679],[120.2939204,22.7197754],[120.2939101,22.7198038],[120.2939101,22.7198355],[120.2939306,22.719924],[120.2939581,22.7199872],[120.2939992,22.7200536],[120.2939923,22.7201358],[120.2939775,22.7201781],[120.293928,22.720257],[120.2939057,22.7204195],[120.2939051,22.7205601],[120.2939204,22.7207524],[120.2939409,22.7209042],[120.2939649,22.7209484],[120.2939978,22.721051],[120.2940266,22.7210907],[120.2940849,22.7211255],[120.2941157,22.7211793],[120.2940986,22.721271],[120.2940497,22.7213034],[120.2939855,22.7212963],[120.2938861,22.7212014],[120.2938415,22.721135],[120.2938381,22.7210812],[120.2938621,22.7210307],[120.2938792,22.7209548]]]}},{"type":"Feature","id":"way/295208086","properties":{"osm_id":"295208086","osm_type":"way","name":null,"feature_category":"water_area","water_type":"water_unspecified","source_tags":{"natural":"water","tunnel":"yes"}},"geometry":{"type":"Polygon","coordinates":[[[120.2911462,22.7239478],[120.291134,22.7238091],[120.2913953,22.7237228],[120.2914044,22.723795],[120.2911462,22.7239478]]]}},{"type":"Feature","id":"way/362258101","properties":{"osm_id":"362258101","osm_type":"way","name":null,"feature_category":"water_area","water_type":"pond_or_basin","source_tags":{"natural":"water","water":"pond"}},"geometry":{"type":"Polygon","coordinates":[[[120.3108725,22.7356829],[120.3110126,22.7356614],[120.3111457,22.7356678],[120.3112577,22.7356915],[120.3113651,22.7357281],[120.3114889,22.7357841],[120.3115636,22.7358336],[120.3116337,22.7359306],[120.3116757,22.7360576],[120.3116757,22.7362644],[120.3115449,22.7362471],[120.3114585,22.7360964],[120.3112858,22.7359758],[120.3111036,22.7359219],[120.3110219,22.7359262],[120.3109775,22.7358466],[120.3108678,22.7359241],[120.3106646,22.7360705],[120.3106273,22.7361201],[120.3105339,22.7361136],[120.3104965,22.7361136],[120.3104405,22.7360964],[120.3104031,22.736049],[120.3105175,22.7358939],[120.3108725,22.7356829]]]}},{"type":"Feature","id":"way/398135520","properties":{"osm_id":"398135520","osm_type":"way","name":null,"feature_category":"water_area","water_type":"lake_or_reservoir","source_tags":{"natural":"water","water":"reservoir"}},"geometry":{"type":"Polygon","coordinates":[[[120.3079127,22.7355535],[120.3080001,22.7355232],[120.3081164,22.7355117],[120.3082507,22.7355449],[120.3083696,22.7356379],[120.3079127,22.7355535]]]}},{"type":"Feature","id":"way/503772696","properties":{"osm_id":"503772696","osm_type":"way","name":"鴴池","feature_category":"water_area","water_type":"pond_or_basin","source_tags":{"name":"鴴池","natural":"water","water":"pond"}},"geometry":{"type":"Polygon","coordinates":[[[120.331526,22.7539439],[120.3314007,22.7539975],[120.3312646,22.7540116],[120.3311396,22.7539669],[120.3310307,22.7538678],[120.3309745,22.7537818],[120.3309344,22.7536859],[120.3309179,22.7535534],[120.330939,22.753411],[120.3309766,22.7533157],[120.3310357,22.7532402],[120.3312398,22.7530497],[120.3315031,22.7530726],[120.331556,22.7530371],[120.3317049,22.7529373],[120.3319343,22.7529288],[120.3324434,22.7529542],[120.3325225,22.7529879],[120.3325533,22.7530512],[120.3321269,22.7534491],[120.3320518,22.7534671],[120.3318976,22.753504],[120.331526,22.7539439]]]}},{"type":"Feature","id":"way/541691949","properties":{"osm_id":"541691949","osm_type":"way","name":null,"feature_category":"water_area","water_type":"pond_or_basin","source_tags":{"natural":"water","water":"pond"}},"geometry":{"type":"Polygon","coordinates":[[[120.2922398,22.7139991],[120.2922533,22.7139555],[120.2924257,22.7139836],[120.2924088,22.7140334],[120.2922398,22.7139991]]]}},{"type":"Feature","id":"way/711491551","properties":{"osm_id":"711491551","osm_type":"way","name":null,"feature_category":"water_area","water_type":"lake_or_reservoir","source_tags":{"natural":"water","water":"reservoir"}},"geometry":{"type":"Polygon","coordinates":[[[120.3204176,22.7239245],[120.3203282,22.7237002],[120.3209305,22.7234962],[120.3210198,22.7237205],[120.3204176,22.7239245]]]}},{"type":"Feature","id":"way/1383028769","properties":{"osm_id":"1383028769","osm_type":"way","name":null,"feature_category":"water_area","water_type":"water_unspecified","source_tags":{"natural":"water"}},"geometry":{"type":"Polygon","coordinates":[[[120.262011,22.7095326],[120.2652075,22.7102717],[120.2665114,22.710743],[120.267051,22.7111992],[120.2676273,22.7114066],[120.2679993,22.7117196],[120.2685266,22.7119684],[120.2697406,22.7126057],[120.2711713,22.7133032],[120.2721482,22.7138726],[120.2725365,22.7140724],[120.2723689,22.7146682],[120.2721523,22.7154298],[120.2720583,22.7158408],[120.2718859,22.716383],[120.261747,22.7141971],[120.258581,22.7134354],[120.2571149,22.7131012],[120.2579794,22.7103557],[120.2581331,22.7105896],[120.2588409,22.7109809],[120.259569,22.7113211],[120.2601486,22.7115288],[120.2606294,22.7114594],[120.2610272,22.7114572],[120.2614355,22.7112905],[120.2616268,22.7110258],[120.2615573,22.7109089],[120.2616513,22.7105394],[120.2618475,22.7100153],[120.2618843,22.709887],[120.2618396,22.7098144],[120.261917,22.7097136],[120.262011,22.7095326]]]}},{"type":"Feature","id":"way/1408483512","properties":{"osm_id":"1408483512","osm_type":"way","name":null,"feature_category":"water_area","water_type":"pond_or_basin","source_tags":{"natural":"water","water":"pond"}},"geometry":{"type":"Polygon","coordinates":[[[120.3190797,22.7336076],[120.3189966,22.7336308],[120.3189347,22.7336183],[120.3188496,22.7335202],[120.3188322,22.7334435],[120.3188612,22.7334239],[120.3188515,22.7334043],[120.3188264,22.7333918],[120.3188206,22.7333115],[120.3188361,22.7332331],[120.3188689,22.7331867],[120.3188979,22.7331724],[120.3189327,22.7331867],[120.318956,22.7332331],[120.3189966,22.7332794],[120.3190488,22.7332866],[120.3191126,22.7332723],[120.3191493,22.7332866],[120.319159,22.7333187],[120.3191513,22.7333811],[120.3191841,22.7334132],[120.3192209,22.7334257],[120.3192731,22.7334471],[120.3192866,22.733497],[120.3192924,22.7335523],[120.3192712,22.733604],[120.3192441,22.7336219],[120.3191977,22.7336147],[120.3191319,22.733604],[120.3190797,22.7336076]]]}}]}